<?xml version="1.0" encoding="UTF-8"?>
<gpx version="1.1" creator="gpx.studio" xmlns="http://www.topografix.com/GPX/1/1" xmlns:xsi="http://www.w3.org/2001/XMLSchema-instance" xsi:schemaLocation="http://www.topografix.com/GPX/1/1 http://www.topografix.com/GPX/1/1/gpx.xsd http://www.garmin.com/xmlschemas/GpxExtensions/v3 http://www.garmin.com/xmlschemas/GpxExtensionsv3.xsd http://www.garmin.com/xmlschemas/TrackPointExtension/v1 http://www.garmin.com/xmlschemas/TrackPointExtensionv1.xsd http://www.garmin.com/xmlschemas/PowerExtension/v1 http://www.garmin.com/xmlschemas/PowerExtensionv1.xsd http://www.topografix.com/GPX/gpx_style/0/2 http://www.topografix.com/GPX/gpx_style/0/2/gpx_style.xsd" xmlns:gpxtpx="http://www.garmin.com/xmlschemas/TrackPointExtension/v1" xmlns:gpxx="http://www.garmin.com/xmlschemas/GpxExtensions/v3" xmlns:gpxpx="http://www.garmin.com/xmlschemas/PowerExtension/v1" xmlns:gpx_style="http://www.topografix.com/GPX/gpx_style/0/2">
  <metadata>
    <name>Haute Cime</name>
    <author>
      <name>gpx.studio</name>
      <link href="https://gpx.studio"/>
    </author>
  </metadata>
  <trk>
    <name>Haute Cime</name>
    <trkseg>
      <trkpt lat="46.1482699" lon="6.92644">
        <ele>2297</ele>
      </trkpt>
      <trkpt lat="46.14843" lon="6.92644">
        <ele>2298</ele>
      </trkpt>
      <trkpt lat="46.14849" lon="6.92625">
        <ele>2299</ele>
      </trkpt>
      <trkpt lat="46.1484499" lon="6.92618">
        <ele>2300</ele>
      </trkpt>
      <trkpt lat="46.14851" lon="6.92617">
        <ele>2299</ele>
      </trkpt>
      <trkpt lat="46.14846" lon="6.92602">
        <ele>2302</ele>
      </trkpt>
      <trkpt lat="46.14841" lon="6.92596">
        <ele>2304</ele>
      </trkpt>
      <trkpt lat="46.14843" lon="6.92595">
        <ele>2305</ele>
      </trkpt>
      <trkpt lat="46.14833" lon="6.92586">
        <ele>2306</ele>
      </trkpt>
      <trkpt lat="46.14833" lon="6.92579">
        <ele>2307</ele>
      </trkpt>
      <trkpt lat="46.14843" lon="6.92575">
        <ele>2307</ele>
      </trkpt>
      <trkpt lat="46.14841" lon="6.92578">
        <ele>2307</ele>
      </trkpt>
      <trkpt lat="46.14853" lon="6.92578">
        <ele>2310</ele>
      </trkpt>
      <trkpt lat="46.14859" lon="6.92571">
        <ele>2312</ele>
      </trkpt>
      <trkpt lat="46.14856" lon="6.92554">
        <ele>2313</ele>
      </trkpt>
      <trkpt lat="46.14864" lon="6.92545">
        <ele>2314</ele>
      </trkpt>
      <trkpt lat="46.14867" lon="6.92533">
        <ele>2315</ele>
      </trkpt>
      <trkpt lat="46.14873" lon="6.9253">
        <ele>2315</ele>
      </trkpt>
      <trkpt lat="46.14877" lon="6.92521">
        <ele>2316</ele>
      </trkpt>
      <trkpt lat="46.14869" lon="6.92481">
        <ele>2320</ele>
      </trkpt>
      <trkpt lat="46.1487" lon="6.92468">
        <ele>2322</ele>
      </trkpt>
      <trkpt lat="46.14865" lon="6.92465">
        <ele>2322</ele>
      </trkpt>
      <trkpt lat="46.14886" lon="6.92458">
        <ele>2322</ele>
      </trkpt>
      <trkpt lat="46.14882" lon="6.92458">
        <ele>2322</ele>
      </trkpt>
      <trkpt lat="46.14886" lon="6.92457">
        <ele>2324</ele>
      </trkpt>
      <trkpt lat="46.1488299" lon="6.92453">
        <ele>2325</ele>
      </trkpt>
      <trkpt lat="46.14888" lon="6.92444">
        <ele>2325</ele>
      </trkpt>
      <trkpt lat="46.14878" lon="6.92437">
        <ele>2326</ele>
      </trkpt>
      <trkpt lat="46.14891" lon="6.92425">
        <ele>2331</ele>
      </trkpt>
      <trkpt lat="46.14882" lon="6.92426">
        <ele>2331</ele>
      </trkpt>
      <trkpt lat="46.14891" lon="6.92423">
        <ele>2332</ele>
      </trkpt>
      <trkpt lat="46.14888" lon="6.92422">
        <ele>2333</ele>
      </trkpt>
      <trkpt lat="46.14885" lon="6.92409">
        <ele>2334</ele>
      </trkpt>
      <trkpt lat="46.14894" lon="6.92404">
        <ele>2335</ele>
      </trkpt>
      <trkpt lat="46.14902" lon="6.92408">
        <ele>2336</ele>
      </trkpt>
      <trkpt lat="46.14894" lon="6.92403">
        <ele>2336</ele>
      </trkpt>
      <trkpt lat="46.14893" lon="6.9241">
        <ele>2337</ele>
      </trkpt>
      <trkpt lat="46.14881" lon="6.9242">
        <ele>2339</ele>
      </trkpt>
      <trkpt lat="46.14887" lon="6.9241">
        <ele>2340</ele>
      </trkpt>
      <trkpt lat="46.14871" lon="6.92408">
        <ele>2342</ele>
      </trkpt>
      <trkpt lat="46.14872" lon="6.92404">
        <ele>2342</ele>
      </trkpt>
      <trkpt lat="46.14864" lon="6.92402">
        <ele>2343</ele>
      </trkpt>
      <trkpt lat="46.14855" lon="6.92389">
        <ele>2344</ele>
      </trkpt>
      <trkpt lat="46.14863" lon="6.92388">
        <ele>2345</ele>
      </trkpt>
      <trkpt lat="46.14847" lon="6.92372">
        <ele>2347</ele>
      </trkpt>
      <trkpt lat="46.14862" lon="6.92365">
        <ele>2346</ele>
      </trkpt>
      <trkpt lat="46.14861" lon="6.92376">
        <ele>2349</ele>
      </trkpt>
      <trkpt lat="46.14863" lon="6.92378">
        <ele>2350</ele>
      </trkpt>
      <trkpt lat="46.14852" lon="6.92372">
        <ele>2354</ele>
      </trkpt>
      <trkpt lat="46.1484499" lon="6.92383">
        <ele>2355</ele>
      </trkpt>
      <trkpt lat="46.14844" lon="6.92371">
        <ele>2355</ele>
      </trkpt>
      <trkpt lat="46.14858" lon="6.92359">
        <ele>2356</ele>
      </trkpt>
      <trkpt lat="46.14855" lon="6.9236">
        <ele>2358</ele>
      </trkpt>
      <trkpt lat="46.14861" lon="6.92355">
        <ele>2360</ele>
      </trkpt>
      <trkpt lat="46.14846" lon="6.92358">
        <ele>2362</ele>
      </trkpt>
      <trkpt lat="46.14842" lon="6.92349">
        <ele>2362</ele>
      </trkpt>
      <trkpt lat="46.1484499" lon="6.92345">
        <ele>2363</ele>
      </trkpt>
      <trkpt lat="46.14832" lon="6.9235">
        <ele>2367</ele>
      </trkpt>
      <trkpt lat="46.14825" lon="6.92348">
        <ele>2368</ele>
      </trkpt>
      <trkpt lat="46.14825" lon="6.92344">
        <ele>2368</ele>
      </trkpt>
      <trkpt lat="46.14824" lon="6.92347">
        <ele>2370</ele>
      </trkpt>
      <trkpt lat="46.14814" lon="6.92341">
        <ele>2371</ele>
      </trkpt>
      <trkpt lat="46.14816" lon="6.92344">
        <ele>2375</ele>
      </trkpt>
      <trkpt lat="46.14811" lon="6.92373">
        <ele>2382</ele>
      </trkpt>
      <trkpt lat="46.14799" lon="6.92367">
        <ele>2381</ele>
      </trkpt>
      <trkpt lat="46.14772" lon="6.92365">
        <ele>2379</ele>
      </trkpt>
      <trkpt lat="46.14794" lon="6.92355">
        <ele>2380</ele>
      </trkpt>
      <trkpt lat="46.148" lon="6.92357">
        <ele>2381</ele>
      </trkpt>
      <trkpt lat="46.14779" lon="6.92345">
        <ele>2390</ele>
      </trkpt>
      <trkpt lat="46.14779" lon="6.9234">
        <ele>2392</ele>
      </trkpt>
      <trkpt lat="46.1478899" lon="6.92343">
        <ele>2396</ele>
      </trkpt>
      <trkpt lat="46.148" lon="6.92325">
        <ele>2397</ele>
      </trkpt>
      <trkpt lat="46.14792" lon="6.92318">
        <ele>2397</ele>
      </trkpt>
      <trkpt lat="46.14793" lon="6.92315">
        <ele>2398</ele>
      </trkpt>
      <trkpt lat="46.14777" lon="6.92295">
        <ele>2400</ele>
      </trkpt>
      <trkpt lat="46.14797" lon="6.92278">
        <ele>2402</ele>
      </trkpt>
      <trkpt lat="46.14782" lon="6.92268">
        <ele>2403</ele>
      </trkpt>
      <trkpt lat="46.14783" lon="6.92259">
        <ele>2405</ele>
      </trkpt>
      <trkpt lat="46.14775" lon="6.92255">
        <ele>2405</ele>
      </trkpt>
      <trkpt lat="46.14784" lon="6.92256">
        <ele>2405</ele>
      </trkpt>
      <trkpt lat="46.14783" lon="6.92245">
        <ele>2409</ele>
      </trkpt>
      <trkpt lat="46.148" lon="6.92247">
        <ele>2411</ele>
      </trkpt>
      <trkpt lat="46.1479799" lon="6.92238">
        <ele>2413</ele>
      </trkpt>
      <trkpt lat="46.14794" lon="6.92237">
        <ele>2414</ele>
      </trkpt>
      <trkpt lat="46.14808" lon="6.92233">
        <ele>2416</ele>
      </trkpt>
      <trkpt lat="46.14803" lon="6.92234">
        <ele>2421</ele>
      </trkpt>
      <trkpt lat="46.14796" lon="6.92222">
        <ele>2424</ele>
      </trkpt>
      <trkpt lat="46.14782" lon="6.92215">
        <ele>2425</ele>
      </trkpt>
      <trkpt lat="46.14808" lon="6.92209">
        <ele>2429</ele>
      </trkpt>
      <trkpt lat="46.14805" lon="6.92203">
        <ele>2430</ele>
      </trkpt>
      <trkpt lat="46.14814" lon="6.922">
        <ele>2432</ele>
      </trkpt>
      <trkpt lat="46.1481" lon="6.922">
        <ele>2432</ele>
      </trkpt>
      <trkpt lat="46.14814" lon="6.92189">
        <ele>2433</ele>
      </trkpt>
      <trkpt lat="46.14804" lon="6.92189">
        <ele>2437</ele>
      </trkpt>
      <trkpt lat="46.14791" lon="6.92182">
        <ele>2440</ele>
      </trkpt>
      <trkpt lat="46.14788" lon="6.92177">
        <ele>2442</ele>
      </trkpt>
      <trkpt lat="46.14814" lon="6.92166">
        <ele>2448</ele>
      </trkpt>
      <trkpt lat="46.1481" lon="6.92156">
        <ele>2450</ele>
      </trkpt>
      <trkpt lat="46.14816" lon="6.92151">
        <ele>2451</ele>
      </trkpt>
      <trkpt lat="46.1482699" lon="6.92162">
        <ele>2454</ele>
      </trkpt>
      <trkpt lat="46.14829" lon="6.92154">
        <ele>2455</ele>
      </trkpt>
      <trkpt lat="46.14826" lon="6.92146">
        <ele>2456</ele>
      </trkpt>
      <trkpt lat="46.14821" lon="6.92144">
        <ele>2456</ele>
      </trkpt>
      <trkpt lat="46.14828" lon="6.92141">
        <ele>2456</ele>
      </trkpt>
      <trkpt lat="46.14851" lon="6.92148">
        <ele>2466</ele>
      </trkpt>
      <trkpt lat="46.1485" lon="6.92144">
        <ele>2466</ele>
      </trkpt>
      <trkpt lat="46.14856" lon="6.92132">
        <ele>2467</ele>
      </trkpt>
      <trkpt lat="46.14864" lon="6.92138">
        <ele>2472</ele>
      </trkpt>
      <trkpt lat="46.14894" lon="6.92106">
        <ele>2487</ele>
      </trkpt>
      <trkpt lat="46.14896" lon="6.92098">
        <ele>2490</ele>
      </trkpt>
      <trkpt lat="46.14899" lon="6.92098">
        <ele>2490</ele>
      </trkpt>
      <trkpt lat="46.14898" lon="6.92091">
        <ele>2491</ele>
      </trkpt>
      <trkpt lat="46.14908" lon="6.92093">
        <ele>2495</ele>
      </trkpt>
      <trkpt lat="46.14902" lon="6.92081">
        <ele>2498</ele>
      </trkpt>
      <trkpt lat="46.14909" lon="6.92086">
        <ele>2500</ele>
      </trkpt>
      <trkpt lat="46.14902" lon="6.92064">
        <ele>2503</ele>
      </trkpt>
      <trkpt lat="46.14907" lon="6.92061">
        <ele>2508</ele>
      </trkpt>
      <trkpt lat="46.14886" lon="6.92044">
        <ele>2516</ele>
      </trkpt>
      <trkpt lat="46.14882" lon="6.92053">
        <ele>2513</ele>
      </trkpt>
      <trkpt lat="46.14882" lon="6.92049">
        <ele>2515</ele>
      </trkpt>
      <trkpt lat="46.14882" lon="6.92055">
        <ele>2514</ele>
      </trkpt>
      <trkpt lat="46.14889" lon="6.92052">
        <ele>2515</ele>
      </trkpt>
      <trkpt lat="46.14955" lon="6.92099">
        <ele>2537</ele>
      </trkpt>
      <trkpt lat="46.14966" lon="6.92093">
        <ele>2537</ele>
      </trkpt>
      <trkpt lat="46.14981" lon="6.92095">
        <ele>2540</ele>
      </trkpt>
      <trkpt lat="46.1498" lon="6.92091">
        <ele>2539</ele>
      </trkpt>
      <trkpt lat="46.14991" lon="6.9209">
        <ele>2546</ele>
      </trkpt>
      <trkpt lat="46.1499499" lon="6.92085">
        <ele>2547</ele>
      </trkpt>
      <trkpt lat="46.1504199" lon="6.92132">
        <ele>2554</ele>
      </trkpt>
      <trkpt lat="46.15046" lon="6.9215">
        <ele>2556</ele>
      </trkpt>
      <trkpt lat="46.15058" lon="6.9216">
        <ele>2558</ele>
      </trkpt>
      <trkpt lat="46.15072" lon="6.92185">
        <ele>2555</ele>
      </trkpt>
      <trkpt lat="46.15077" lon="6.92182">
        <ele>2556</ele>
      </trkpt>
      <trkpt lat="46.15084" lon="6.92192">
        <ele>2555</ele>
      </trkpt>
      <trkpt lat="46.15094" lon="6.92219">
        <ele>2554</ele>
      </trkpt>
      <trkpt lat="46.15102" lon="6.92233">
        <ele>2557</ele>
      </trkpt>
      <trkpt lat="46.15115" lon="6.9224">
        <ele>2564</ele>
      </trkpt>
      <trkpt lat="46.15123" lon="6.92235">
        <ele>2575</ele>
      </trkpt>
      <trkpt lat="46.15141" lon="6.92249">
        <ele>2581</ele>
      </trkpt>
      <trkpt lat="46.1514499" lon="6.92249">
        <ele>2583</ele>
      </trkpt>
      <trkpt lat="46.1515" lon="6.92256">
        <ele>2585</ele>
      </trkpt>
      <trkpt lat="46.15154" lon="6.92256">
        <ele>2587</ele>
      </trkpt>
      <trkpt lat="46.15163" lon="6.92284">
        <ele>2588</ele>
      </trkpt>
      <trkpt lat="46.15171" lon="6.92295">
        <ele>2591</ele>
      </trkpt>
      <trkpt lat="46.1517" lon="6.92307">
        <ele>2593</ele>
      </trkpt>
      <trkpt lat="46.15176" lon="6.92317">
        <ele>2594</ele>
      </trkpt>
      <trkpt lat="46.15186" lon="6.92313">
        <ele>2600</ele>
      </trkpt>
      <trkpt lat="46.15203" lon="6.92331">
        <ele>2605</ele>
      </trkpt>
      <trkpt lat="46.15215" lon="6.92337">
        <ele>2609</ele>
      </trkpt>
      <trkpt lat="46.15217" lon="6.92335">
        <ele>2610</ele>
      </trkpt>
      <trkpt lat="46.15224" lon="6.92345">
        <ele>2612</ele>
      </trkpt>
      <trkpt lat="46.15231" lon="6.92342">
        <ele>2618</ele>
      </trkpt>
      <trkpt lat="46.15237" lon="6.92345">
        <ele>2621</ele>
      </trkpt>
      <trkpt lat="46.1523899" lon="6.92366">
        <ele>2624</ele>
      </trkpt>
      <trkpt lat="46.15247" lon="6.92384">
        <ele>2629</ele>
      </trkpt>
      <trkpt lat="46.15249" lon="6.92379">
        <ele>2631</ele>
      </trkpt>
      <trkpt lat="46.1525899" lon="6.92392">
        <ele>2637</ele>
      </trkpt>
      <trkpt lat="46.15261" lon="6.92407">
        <ele>2642</ele>
      </trkpt>
      <trkpt lat="46.15264" lon="6.92404">
        <ele>2643</ele>
      </trkpt>
      <trkpt lat="46.1527699" lon="6.92427">
        <ele>2651</ele>
      </trkpt>
      <trkpt lat="46.15276" lon="6.92435">
        <ele>2651</ele>
      </trkpt>
      <trkpt lat="46.1528599" lon="6.9246">
        <ele>2654</ele>
      </trkpt>
      <trkpt lat="46.15294" lon="6.92456">
        <ele>2659</ele>
      </trkpt>
      <trkpt lat="46.15304" lon="6.9247">
        <ele>2663</ele>
      </trkpt>
      <trkpt lat="46.15302" lon="6.92487">
        <ele>2665</ele>
      </trkpt>
      <trkpt lat="46.15309" lon="6.92484">
        <ele>2665</ele>
      </trkpt>
      <trkpt lat="46.15327" lon="6.92517">
        <ele>2672</ele>
      </trkpt>
      <trkpt lat="46.15335" lon="6.92521">
        <ele>2674</ele>
      </trkpt>
      <trkpt lat="46.15338" lon="6.92531">
        <ele>2677</ele>
      </trkpt>
      <trkpt lat="46.15344" lon="6.92531">
        <ele>2681</ele>
      </trkpt>
      <trkpt lat="46.15345" lon="6.92537">
        <ele>2684</ele>
      </trkpt>
      <trkpt lat="46.15349" lon="6.92532">
        <ele>2690</ele>
      </trkpt>
      <trkpt lat="46.15361" lon="6.92544">
        <ele>2697</ele>
      </trkpt>
      <trkpt lat="46.15363" lon="6.92537">
        <ele>2698</ele>
      </trkpt>
      <trkpt lat="46.15376" lon="6.92551">
        <ele>2705</ele>
      </trkpt>
      <trkpt lat="46.15385" lon="6.92554">
        <ele>2708</ele>
      </trkpt>
      <trkpt lat="46.15388" lon="6.92549">
        <ele>2711</ele>
      </trkpt>
      <trkpt lat="46.15392" lon="6.92552">
        <ele>2712</ele>
      </trkpt>
      <trkpt lat="46.15393" lon="6.92548">
        <ele>2713</ele>
      </trkpt>
      <trkpt lat="46.15397" lon="6.92549">
        <ele>2717</ele>
      </trkpt>
      <trkpt lat="46.154" lon="6.92542">
        <ele>2720</ele>
      </trkpt>
      <trkpt lat="46.15402" lon="6.92545">
        <ele>2721</ele>
      </trkpt>
      <trkpt lat="46.15403" lon="6.9254">
        <ele>2724</ele>
      </trkpt>
      <trkpt lat="46.15405" lon="6.92543">
        <ele>2726</ele>
      </trkpt>
      <trkpt lat="46.15408" lon="6.92524">
        <ele>2728</ele>
      </trkpt>
      <trkpt lat="46.15403" lon="6.92517">
        <ele>2730</ele>
      </trkpt>
      <trkpt lat="46.15405" lon="6.92509">
        <ele>2731</ele>
      </trkpt>
      <trkpt lat="46.15412" lon="6.9251">
        <ele>2734</ele>
      </trkpt>
      <trkpt lat="46.15398" lon="6.92489">
        <ele>2749</ele>
      </trkpt>
      <trkpt lat="46.15401" lon="6.9247">
        <ele>2754</ele>
      </trkpt>
      <trkpt lat="46.154" lon="6.92475">
        <ele>2753</ele>
      </trkpt>
      <trkpt lat="46.15405" lon="6.92442">
        <ele>2760</ele>
      </trkpt>
      <trkpt lat="46.15411" lon="6.92451">
        <ele>2761</ele>
      </trkpt>
      <trkpt lat="46.15417" lon="6.92435">
        <ele>2766</ele>
      </trkpt>
      <trkpt lat="46.15415" lon="6.92429">
        <ele>2766</ele>
      </trkpt>
      <trkpt lat="46.15422" lon="6.9244">
        <ele>2767</ele>
      </trkpt>
      <trkpt lat="46.1542699" lon="6.92425">
        <ele>2770</ele>
      </trkpt>
      <trkpt lat="46.15414" lon="6.92399">
        <ele>2774</ele>
      </trkpt>
      <trkpt lat="46.15417" lon="6.92365">
        <ele>2783</ele>
      </trkpt>
      <trkpt lat="46.15407" lon="6.92354">
        <ele>2785</ele>
      </trkpt>
      <trkpt lat="46.15405" lon="6.92357">
        <ele>2785</ele>
      </trkpt>
      <trkpt lat="46.15412" lon="6.92345">
        <ele>2789</ele>
      </trkpt>
      <trkpt lat="46.15411" lon="6.92316">
        <ele>2803</ele>
      </trkpt>
      <trkpt lat="46.15414" lon="6.92316">
        <ele>2804</ele>
      </trkpt>
      <trkpt lat="46.15412" lon="6.92307">
        <ele>2806</ele>
      </trkpt>
      <trkpt lat="46.15419" lon="6.923">
        <ele>2811</ele>
      </trkpt>
      <trkpt lat="46.15422" lon="6.92302">
        <ele>2813</ele>
      </trkpt>
      <trkpt lat="46.15419" lon="6.92299">
        <ele>2814</ele>
      </trkpt>
      <trkpt lat="46.15423" lon="6.92295">
        <ele>2816</ele>
      </trkpt>
      <trkpt lat="46.15424" lon="6.92299">
        <ele>2817</ele>
      </trkpt>
      <trkpt lat="46.15424" lon="6.92291">
        <ele>2820</ele>
      </trkpt>
      <trkpt lat="46.15437" lon="6.92283">
        <ele>2822</ele>
      </trkpt>
      <trkpt lat="46.15443" lon="6.92288">
        <ele>2822</ele>
      </trkpt>
      <trkpt lat="46.15443" lon="6.92293">
        <ele>2824</ele>
      </trkpt>
      <trkpt lat="46.1545" lon="6.92293">
        <ele>2827</ele>
      </trkpt>
      <trkpt lat="46.15448" lon="6.92298">
        <ele>2830</ele>
      </trkpt>
      <trkpt lat="46.15462" lon="6.92305">
        <ele>2836</ele>
      </trkpt>
      <trkpt lat="46.15462" lon="6.9231">
        <ele>2838</ele>
      </trkpt>
      <trkpt lat="46.15464" lon="6.923">
        <ele>2842</ele>
      </trkpt>
      <trkpt lat="46.15471" lon="6.92306">
        <ele>2845</ele>
      </trkpt>
      <trkpt lat="46.15475" lon="6.92297">
        <ele>2848</ele>
      </trkpt>
      <trkpt lat="46.15481" lon="6.92302">
        <ele>2849</ele>
      </trkpt>
      <trkpt lat="46.15486" lon="6.9229">
        <ele>2856</ele>
      </trkpt>
      <trkpt lat="46.15501" lon="6.92294">
        <ele>2860</ele>
      </trkpt>
      <trkpt lat="46.15501" lon="6.92289">
        <ele>2861</ele>
      </trkpt>
      <trkpt lat="46.15509" lon="6.92291">
        <ele>2863</ele>
      </trkpt>
      <trkpt lat="46.15506" lon="6.92285">
        <ele>2867</ele>
      </trkpt>
      <trkpt lat="46.15516" lon="6.92288">
        <ele>2870</ele>
      </trkpt>
      <trkpt lat="46.15527" lon="6.92279">
        <ele>2877</ele>
      </trkpt>
      <trkpt lat="46.1552999" lon="6.92297">
        <ele>2880</ele>
      </trkpt>
      <trkpt lat="46.15539" lon="6.92318">
        <ele>2887</ele>
      </trkpt>
      <trkpt lat="46.15541" lon="6.92315">
        <ele>2891</ele>
      </trkpt>
      <trkpt lat="46.15538" lon="6.92318">
        <ele>2891</ele>
      </trkpt>
      <trkpt lat="46.15543" lon="6.92306">
        <ele>2892</ele>
      </trkpt>
      <trkpt lat="46.15567" lon="6.92298">
        <ele>2900</ele>
      </trkpt>
      <trkpt lat="46.15566" lon="6.92305">
        <ele>2901</ele>
      </trkpt>
      <trkpt lat="46.1557" lon="6.92315">
        <ele>2905</ele>
      </trkpt>
      <trkpt lat="46.15572" lon="6.92307">
        <ele>2909</ele>
      </trkpt>
      <trkpt lat="46.15575" lon="6.92311">
        <ele>2910</ele>
      </trkpt>
      <trkpt lat="46.15583" lon="6.92303">
        <ele>2915</ele>
      </trkpt>
      <trkpt lat="46.1558" lon="6.92301">
        <ele>2917</ele>
      </trkpt>
      <trkpt lat="46.1558599" lon="6.92293">
        <ele>2920</ele>
      </trkpt>
      <trkpt lat="46.15596" lon="6.9229">
        <ele>2924</ele>
      </trkpt>
      <trkpt lat="46.15604" lon="6.92307">
        <ele>2930</ele>
      </trkpt>
      <trkpt lat="46.15601" lon="6.92306">
        <ele>2931</ele>
      </trkpt>
      <trkpt lat="46.15604" lon="6.92308">
        <ele>2932</ele>
      </trkpt>
      <trkpt lat="46.15604" lon="6.92302">
        <ele>2933</ele>
      </trkpt>
      <trkpt lat="46.15609" lon="6.92297">
        <ele>2936</ele>
      </trkpt>
      <trkpt lat="46.15607" lon="6.92314">
        <ele>2939</ele>
      </trkpt>
      <trkpt lat="46.15611" lon="6.92319">
        <ele>2941</ele>
      </trkpt>
      <trkpt lat="46.1562" lon="6.92307">
        <ele>2947</ele>
      </trkpt>
      <trkpt lat="46.15627" lon="6.9232">
        <ele>2950</ele>
      </trkpt>
      <trkpt lat="46.15626" lon="6.92311">
        <ele>2952</ele>
      </trkpt>
      <trkpt lat="46.15629" lon="6.92308">
        <ele>2953</ele>
      </trkpt>
      <trkpt lat="46.15632" lon="6.92315">
        <ele>2955</ele>
      </trkpt>
      <trkpt lat="46.15634" lon="6.92306">
        <ele>2958</ele>
      </trkpt>
      <trkpt lat="46.15645" lon="6.92301">
        <ele>2959</ele>
      </trkpt>
      <trkpt lat="46.15644" lon="6.92319">
        <ele>2968</ele>
      </trkpt>
      <trkpt lat="46.15649" lon="6.92323">
        <ele>2972</ele>
      </trkpt>
      <trkpt lat="46.15642" lon="6.9232">
        <ele>2972</ele>
      </trkpt>
      <trkpt lat="46.15646" lon="6.92323">
        <ele>2975</ele>
      </trkpt>
      <trkpt lat="46.1565299" lon="6.92314">
        <ele>2979</ele>
      </trkpt>
      <trkpt lat="46.15656" lon="6.92317">
        <ele>2979</ele>
      </trkpt>
      <trkpt lat="46.1566" lon="6.92311">
        <ele>2984</ele>
      </trkpt>
      <trkpt lat="46.15665" lon="6.92312">
        <ele>2986</ele>
      </trkpt>
      <trkpt lat="46.15666" lon="6.92334">
        <ele>2989</ele>
      </trkpt>
      <trkpt lat="46.1567099" lon="6.92326">
        <ele>2992</ele>
      </trkpt>
      <trkpt lat="46.15699" lon="6.9231">
        <ele>3007</ele>
      </trkpt>
      <trkpt lat="46.15713" lon="6.92294">
        <ele>3019</ele>
      </trkpt>
      <trkpt lat="46.15721" lon="6.92293">
        <ele>3021</ele>
      </trkpt>
      <trkpt lat="46.15724" lon="6.92287">
        <ele>3022</ele>
      </trkpt>
      <trkpt lat="46.15734" lon="6.92286">
        <ele>3025</ele>
      </trkpt>
      <trkpt lat="46.15747" lon="6.92293">
        <ele>3035</ele>
      </trkpt>
      <trkpt lat="46.15744" lon="6.92294">
        <ele>3036</ele>
      </trkpt>
      <trkpt lat="46.15741" lon="6.92306">
        <ele>3037</ele>
      </trkpt>
      <trkpt lat="46.15738" lon="6.92305">
        <ele>3039</ele>
      </trkpt>
      <trkpt lat="46.15739" lon="6.9232">
        <ele>3044</ele>
      </trkpt>
      <trkpt lat="46.15749" lon="6.92308">
        <ele>3052</ele>
      </trkpt>
      <trkpt lat="46.15766" lon="6.92324">
        <ele>3054</ele>
      </trkpt>
      <trkpt lat="46.15828" lon="6.92357">
        <ele>3059</ele>
      </trkpt>
      <trkpt lat="46.15836" lon="6.92357">
        <ele>3062</ele>
      </trkpt>
      <trkpt lat="46.15829" lon="6.92347">
        <ele>3066</ele>
      </trkpt>
      <trkpt lat="46.15832" lon="6.92351">
        <ele>3066</ele>
      </trkpt>
      <trkpt lat="46.15831" lon="6.92345">
        <ele>3071</ele>
      </trkpt>
      <trkpt lat="46.15836" lon="6.92342">
        <ele>3070</ele>
      </trkpt>
      <trkpt lat="46.15836" lon="6.92335">
        <ele>3070</ele>
      </trkpt>
      <trkpt lat="46.15839" lon="6.92345">
        <ele>3073</ele>
      </trkpt>
      <trkpt lat="46.15837" lon="6.92344">
        <ele>3074</ele>
      </trkpt>
      <trkpt lat="46.15839" lon="6.92349">
        <ele>3074</ele>
      </trkpt>
      <trkpt lat="46.15841" lon="6.92346">
        <ele>3076</ele>
      </trkpt>
      <trkpt lat="46.15834" lon="6.92356">
        <ele>3065</ele>
      </trkpt>
      <trkpt lat="46.15837" lon="6.92356">
        <ele>3060</ele>
      </trkpt>
      <trkpt lat="46.15833" lon="6.92358">
        <ele>3052</ele>
      </trkpt>
      <trkpt lat="46.1587" lon="6.92356">
        <ele>3060</ele>
      </trkpt>
      <trkpt lat="46.15872" lon="6.92343">
        <ele>3065</ele>
      </trkpt>
      <trkpt lat="46.15876" lon="6.92342">
        <ele>3066</ele>
      </trkpt>
      <trkpt lat="46.15879" lon="6.92351">
        <ele>3068</ele>
      </trkpt>
      <trkpt lat="46.15886" lon="6.92343">
        <ele>3068</ele>
      </trkpt>
      <trkpt lat="46.15903" lon="6.92334">
        <ele>3074</ele>
      </trkpt>
      <trkpt lat="46.159" lon="6.92345">
        <ele>3083</ele>
      </trkpt>
      <trkpt lat="46.15905" lon="6.92345">
        <ele>3083</ele>
      </trkpt>
      <trkpt lat="46.15907" lon="6.9235">
        <ele>3085</ele>
      </trkpt>
      <trkpt lat="46.15917" lon="6.92336">
        <ele>3087</ele>
      </trkpt>
      <trkpt lat="46.15918" lon="6.9234">
        <ele>3088</ele>
      </trkpt>
      <trkpt lat="46.15916" lon="6.9234">
        <ele>3091</ele>
      </trkpt>
      <trkpt lat="46.15918" lon="6.92342">
        <ele>3092</ele>
      </trkpt>
      <trkpt lat="46.15925" lon="6.92337">
        <ele>3096</ele>
      </trkpt>
      <trkpt lat="46.15936" lon="6.92338">
        <ele>3100</ele>
      </trkpt>
      <trkpt lat="46.15938" lon="6.92323">
        <ele>3104</ele>
      </trkpt>
      <trkpt lat="46.15941" lon="6.92325">
        <ele>3101</ele>
      </trkpt>
      <trkpt lat="46.15949" lon="6.92305">
        <ele>3105</ele>
      </trkpt>
      <trkpt lat="46.1595299" lon="6.92305">
        <ele>3106</ele>
      </trkpt>
      <trkpt lat="46.15952" lon="6.92303">
        <ele>3107</ele>
      </trkpt>
      <trkpt lat="46.1596199" lon="6.92294">
        <ele>3110</ele>
      </trkpt>
      <trkpt lat="46.15967" lon="6.92312">
        <ele>3130</ele>
      </trkpt>
      <trkpt lat="46.15982" lon="6.92328">
        <ele>3147</ele>
      </trkpt>
      <trkpt lat="46.15994" lon="6.9232">
        <ele>3142</ele>
      </trkpt>
      <trkpt lat="46.15999" lon="6.92327">
        <ele>3142</ele>
      </trkpt>
      <trkpt lat="46.16005" lon="6.92289">
        <ele>3148</ele>
      </trkpt>
      <trkpt lat="46.16017" lon="6.92281">
        <ele>3160</ele>
      </trkpt>
      <trkpt lat="46.16017" lon="6.92275">
        <ele>3165</ele>
      </trkpt>
      <trkpt lat="46.16021" lon="6.92274">
        <ele>3168</ele>
      </trkpt>
      <trkpt lat="46.16022" lon="6.92266">
        <ele>3175</ele>
      </trkpt>
      <trkpt lat="46.16032" lon="6.92257">
        <ele>3179</ele>
      </trkpt>
      <trkpt lat="46.16029" lon="6.92255">
        <ele>3181</ele>
      </trkpt>
      <trkpt lat="46.16033" lon="6.9225">
        <ele>3182</ele>
      </trkpt>
      <trkpt lat="46.16034" lon="6.92237">
        <ele>3184</ele>
      </trkpt>
      <trkpt lat="46.1604" lon="6.92226">
        <ele>3188</ele>
      </trkpt>
      <trkpt lat="46.16034" lon="6.9223">
        <ele>3194</ele>
      </trkpt>
      <trkpt lat="46.16041" lon="6.92227">
        <ele>3198</ele>
      </trkpt>
      <trkpt lat="46.16043" lon="6.92242">
        <ele>3206</ele>
      </trkpt>
      <trkpt lat="46.1605" lon="6.92246">
        <ele>3208</ele>
      </trkpt>
      <trkpt lat="46.16051" lon="6.92255">
        <ele>3211</ele>
      </trkpt>
      <trkpt lat="46.16073" lon="6.92271">
        <ele>3214</ele>
      </trkpt>
      <trkpt lat="46.16071" lon="6.92282">
        <ele>3216</ele>
      </trkpt>
      <trkpt lat="46.16077" lon="6.92286">
        <ele>3221</ele>
      </trkpt>
      <trkpt lat="46.16079" lon="6.92304">
        <ele>3228</ele>
      </trkpt>
      <trkpt lat="46.16086" lon="6.92307">
        <ele>3229</ele>
      </trkpt>
      <trkpt lat="46.16085" lon="6.92309">
        <ele>3230</ele>
      </trkpt>
      <trkpt lat="46.16092" lon="6.92316">
        <ele>3232</ele>
      </trkpt>
      <trkpt lat="46.16091" lon="6.92319">
        <ele>3232</ele>
      </trkpt>
      <trkpt lat="46.16108" lon="6.92347">
        <ele>3252</ele>
      </trkpt>
      <trkpt lat="46.16107" lon="6.9235">
        <ele>3256</ele>
      </trkpt>
      <trkpt lat="46.16107" lon="6.9235">
        <ele>3256</ele>
      </trkpt>
      <trkpt lat="46.16105" lon="6.92347">
        <ele>3256</ele>
      </trkpt>
      <trkpt lat="46.16097" lon="6.92343">
        <ele>3256</ele>
      </trkpt>
      <trkpt lat="46.16086" lon="6.92324">
        <ele>3247</ele>
      </trkpt>
      <trkpt lat="46.16083" lon="6.92305">
        <ele>3231</ele>
      </trkpt>
      <trkpt lat="46.1607399" lon="6.9229">
        <ele>3219</ele>
      </trkpt>
      <trkpt lat="46.1607399" lon="6.92284">
        <ele>3218</ele>
      </trkpt>
      <trkpt lat="46.16043" lon="6.92231">
        <ele>3186</ele>
      </trkpt>
      <trkpt lat="46.16033" lon="6.92248">
        <ele>3184</ele>
      </trkpt>
      <trkpt lat="46.16035" lon="6.92261">
        <ele>3188</ele>
      </trkpt>
      <trkpt lat="46.16026" lon="6.92264">
        <ele>3186</ele>
      </trkpt>
      <trkpt lat="46.16024" lon="6.9227">
        <ele>3183</ele>
      </trkpt>
      <trkpt lat="46.15995" lon="6.923">
        <ele>3170</ele>
      </trkpt>
      <trkpt lat="46.15998" lon="6.92302">
        <ele>3169</ele>
      </trkpt>
      <trkpt lat="46.15986" lon="6.92306">
        <ele>3164</ele>
      </trkpt>
      <trkpt lat="46.15983" lon="6.92311">
        <ele>3161</ele>
      </trkpt>
      <trkpt lat="46.15985" lon="6.92313">
        <ele>3160</ele>
      </trkpt>
      <trkpt lat="46.15979" lon="6.92315">
        <ele>3159</ele>
      </trkpt>
      <trkpt lat="46.15983" lon="6.92319">
        <ele>3159</ele>
      </trkpt>
      <trkpt lat="46.15982" lon="6.92315">
        <ele>3158</ele>
      </trkpt>
      <trkpt lat="46.15976" lon="6.92323">
        <ele>3157</ele>
      </trkpt>
      <trkpt lat="46.15977" lon="6.92332">
        <ele>3156</ele>
      </trkpt>
      <trkpt lat="46.1597" lon="6.92327">
        <ele>3155</ele>
      </trkpt>
      <trkpt lat="46.15974" lon="6.92331">
        <ele>3154</ele>
      </trkpt>
      <trkpt lat="46.15965" lon="6.92341">
        <ele>3147</ele>
      </trkpt>
      <trkpt lat="46.1595" lon="6.92341">
        <ele>3143</ele>
      </trkpt>
      <trkpt lat="46.1595299" lon="6.92344">
        <ele>3143</ele>
      </trkpt>
      <trkpt lat="46.15928" lon="6.92355">
        <ele>3141</ele>
      </trkpt>
      <trkpt lat="46.1593" lon="6.92351">
        <ele>3141</ele>
      </trkpt>
      <trkpt lat="46.15923" lon="6.92352">
        <ele>3135</ele>
      </trkpt>
      <trkpt lat="46.1592" lon="6.92342">
        <ele>3128</ele>
      </trkpt>
      <trkpt lat="46.15912" lon="6.92355">
        <ele>3126</ele>
      </trkpt>
      <trkpt lat="46.15913" lon="6.9235">
        <ele>3124</ele>
      </trkpt>
      <trkpt lat="46.159" lon="6.92326">
        <ele>3124</ele>
      </trkpt>
      <trkpt lat="46.1589699" lon="6.9233">
        <ele>3127</ele>
      </trkpt>
      <trkpt lat="46.15899" lon="6.92339">
        <ele>3126</ele>
      </trkpt>
      <trkpt lat="46.15894" lon="6.92349">
        <ele>3118</ele>
      </trkpt>
      <trkpt lat="46.15886" lon="6.92349">
        <ele>3112</ele>
      </trkpt>
      <trkpt lat="46.15879" lon="6.92358">
        <ele>3099</ele>
      </trkpt>
      <trkpt lat="46.1586799" lon="6.92352">
        <ele>3093</ele>
      </trkpt>
      <trkpt lat="46.15873" lon="6.92353">
        <ele>3089</ele>
      </trkpt>
      <trkpt lat="46.15855" lon="6.92364">
        <ele>3079</ele>
      </trkpt>
      <trkpt lat="46.15802" lon="6.92358">
        <ele>3069</ele>
      </trkpt>
      <trkpt lat="46.15788" lon="6.92344">
        <ele>3068</ele>
      </trkpt>
      <trkpt lat="46.15771" lon="6.92336">
        <ele>3068</ele>
      </trkpt>
      <trkpt lat="46.15768" lon="6.9233">
        <ele>3068</ele>
      </trkpt>
      <trkpt lat="46.15759" lon="6.92326">
        <ele>3068</ele>
      </trkpt>
      <trkpt lat="46.15754" lon="6.92317">
        <ele>3068</ele>
      </trkpt>
      <trkpt lat="46.15749" lon="6.92319">
        <ele>3069</ele>
      </trkpt>
      <trkpt lat="46.15745" lon="6.92312">
        <ele>3070</ele>
      </trkpt>
      <trkpt lat="46.15745" lon="6.92317">
        <ele>3068</ele>
      </trkpt>
      <trkpt lat="46.15738" lon="6.92322">
        <ele>3064</ele>
      </trkpt>
      <trkpt lat="46.15733" lon="6.92311">
        <ele>3062</ele>
      </trkpt>
      <trkpt lat="46.15744" lon="6.92309">
        <ele>3058</ele>
      </trkpt>
      <trkpt lat="46.15748" lon="6.92303">
        <ele>3055</ele>
      </trkpt>
      <trkpt lat="46.15736" lon="6.92285">
        <ele>3046</ele>
      </trkpt>
      <trkpt lat="46.15732" lon="6.92288">
        <ele>3043</ele>
      </trkpt>
      <trkpt lat="46.15733" lon="6.92281">
        <ele>3038</ele>
      </trkpt>
      <trkpt lat="46.15724" lon="6.92293">
        <ele>3031</ele>
      </trkpt>
      <trkpt lat="46.15706" lon="6.92301">
        <ele>3019</ele>
      </trkpt>
      <trkpt lat="46.1567" lon="6.92331">
        <ele>3004</ele>
      </trkpt>
      <trkpt lat="46.15665" lon="6.92331">
        <ele>3002</ele>
      </trkpt>
      <trkpt lat="46.15654" lon="6.92319">
        <ele>2996</ele>
      </trkpt>
      <trkpt lat="46.15652" lon="6.92311">
        <ele>2995</ele>
      </trkpt>
      <trkpt lat="46.15647" lon="6.9233">
        <ele>2991</ele>
      </trkpt>
      <trkpt lat="46.15631" lon="6.92306">
        <ele>2992</ele>
      </trkpt>
      <trkpt lat="46.15635" lon="6.92306">
        <ele>2994</ele>
      </trkpt>
      <trkpt lat="46.15629" lon="6.923">
        <ele>2994</ele>
      </trkpt>
      <trkpt lat="46.15632" lon="6.92308">
        <ele>2994</ele>
      </trkpt>
      <trkpt lat="46.15636" lon="6.92309">
        <ele>2994</ele>
      </trkpt>
      <trkpt lat="46.15625" lon="6.92315">
        <ele>2991</ele>
      </trkpt>
      <trkpt lat="46.15626" lon="6.9231">
        <ele>2990</ele>
      </trkpt>
      <trkpt lat="46.15618" lon="6.9232">
        <ele>2981</ele>
      </trkpt>
      <trkpt lat="46.15619" lon="6.92309">
        <ele>2979</ele>
      </trkpt>
      <trkpt lat="46.15614" lon="6.92305">
        <ele>2979</ele>
      </trkpt>
      <trkpt lat="46.15617" lon="6.92312">
        <ele>2978</ele>
      </trkpt>
      <trkpt lat="46.15607" lon="6.92324">
        <ele>2974</ele>
      </trkpt>
      <trkpt lat="46.15614" lon="6.923">
        <ele>2971</ele>
      </trkpt>
      <trkpt lat="46.15599" lon="6.92288">
        <ele>2966</ele>
      </trkpt>
      <trkpt lat="46.15599" lon="6.92305">
        <ele>2962</ele>
      </trkpt>
      <trkpt lat="46.15593" lon="6.92306">
        <ele>2960</ele>
      </trkpt>
      <trkpt lat="46.15591" lon="6.92284">
        <ele>2954</ele>
      </trkpt>
      <trkpt lat="46.1559" lon="6.92296">
        <ele>2952</ele>
      </trkpt>
      <trkpt lat="46.15574" lon="6.92318">
        <ele>2944</ele>
      </trkpt>
      <trkpt lat="46.15567" lon="6.92313">
        <ele>2942</ele>
      </trkpt>
      <trkpt lat="46.15565" lon="6.92319">
        <ele>2942</ele>
      </trkpt>
      <trkpt lat="46.1556799" lon="6.92309">
        <ele>2940</ele>
      </trkpt>
      <trkpt lat="46.15566" lon="6.92297">
        <ele>2939</ele>
      </trkpt>
      <trkpt lat="46.15548" lon="6.92312">
        <ele>2930</ele>
      </trkpt>
      <trkpt lat="46.15543" lon="6.92323">
        <ele>2927</ele>
      </trkpt>
      <trkpt lat="46.15536" lon="6.92318">
        <ele>2925</ele>
      </trkpt>
      <trkpt lat="46.15539" lon="6.92302">
        <ele>2918</ele>
      </trkpt>
      <trkpt lat="46.15536" lon="6.9229">
        <ele>2914</ele>
      </trkpt>
      <trkpt lat="46.1552999" lon="6.92284">
        <ele>2913</ele>
      </trkpt>
      <trkpt lat="46.15533" lon="6.92277">
        <ele>2908</ele>
      </trkpt>
      <trkpt lat="46.15528" lon="6.92284">
        <ele>2904</ele>
      </trkpt>
      <trkpt lat="46.1550299" lon="6.92299">
        <ele>2894</ele>
      </trkpt>
      <trkpt lat="46.15495" lon="6.92297">
        <ele>2889</ele>
      </trkpt>
      <trkpt lat="46.15481" lon="6.92309">
        <ele>2879</ele>
      </trkpt>
      <trkpt lat="46.15478" lon="6.92306">
        <ele>2877</ele>
      </trkpt>
      <trkpt lat="46.15472" lon="6.92315">
        <ele>2873</ele>
      </trkpt>
      <trkpt lat="46.15471" lon="6.92312">
        <ele>2871</ele>
      </trkpt>
      <trkpt lat="46.1546499" lon="6.92316">
        <ele>2865</ele>
      </trkpt>
      <trkpt lat="46.15461" lon="6.92308">
        <ele>2862</ele>
      </trkpt>
      <trkpt lat="46.1544" lon="6.92299">
        <ele>2847</ele>
      </trkpt>
      <trkpt lat="46.15434" lon="6.92287">
        <ele>2842</ele>
      </trkpt>
      <trkpt lat="46.15424" lon="6.92304">
        <ele>2840</ele>
      </trkpt>
      <trkpt lat="46.1542699" lon="6.92309">
        <ele>2839</ele>
      </trkpt>
      <trkpt lat="46.15421" lon="6.92304">
        <ele>2839</ele>
      </trkpt>
      <trkpt lat="46.1541799" lon="6.92313">
        <ele>2838</ele>
      </trkpt>
      <trkpt lat="46.15421" lon="6.92318">
        <ele>2835</ele>
      </trkpt>
      <trkpt lat="46.15416" lon="6.92314">
        <ele>2832</ele>
      </trkpt>
      <trkpt lat="46.15412" lon="6.92329">
        <ele>2827</ele>
      </trkpt>
      <trkpt lat="46.15415" lon="6.9233">
        <ele>2823</ele>
      </trkpt>
      <trkpt lat="46.15413" lon="6.92366">
        <ele>2804</ele>
      </trkpt>
      <trkpt lat="46.1542" lon="6.92377">
        <ele>2798</ele>
      </trkpt>
      <trkpt lat="46.1541799" lon="6.92402">
        <ele>2791</ele>
      </trkpt>
      <trkpt lat="46.15413" lon="6.92402">
        <ele>2790</ele>
      </trkpt>
      <trkpt lat="46.15428" lon="6.92431">
        <ele>2786</ele>
      </trkpt>
      <trkpt lat="46.15424" lon="6.92443">
        <ele>2785</ele>
      </trkpt>
      <trkpt lat="46.15419" lon="6.9244">
        <ele>2784</ele>
      </trkpt>
      <trkpt lat="46.15414" lon="6.92459">
        <ele>2783</ele>
      </trkpt>
      <trkpt lat="46.15413" lon="6.92456">
        <ele>2781</ele>
      </trkpt>
      <trkpt lat="46.15408" lon="6.92459">
        <ele>2781</ele>
      </trkpt>
      <trkpt lat="46.154" lon="6.92491">
        <ele>2775</ele>
      </trkpt>
      <trkpt lat="46.15403" lon="6.92504">
        <ele>2766</ele>
      </trkpt>
      <trkpt lat="46.15396" lon="6.92504">
        <ele>2766</ele>
      </trkpt>
      <trkpt lat="46.154" lon="6.9251">
        <ele>2766</ele>
      </trkpt>
      <trkpt lat="46.15397" lon="6.92496">
        <ele>2765</ele>
      </trkpt>
      <trkpt lat="46.15392" lon="6.92515">
        <ele>2765</ele>
      </trkpt>
      <trkpt lat="46.15393" lon="6.92524">
        <ele>2764</ele>
      </trkpt>
      <trkpt lat="46.15384" lon="6.9252">
        <ele>2763</ele>
      </trkpt>
      <trkpt lat="46.15385" lon="6.92525">
        <ele>2763</ele>
      </trkpt>
      <trkpt lat="46.15397" lon="6.9253">
        <ele>2762</ele>
      </trkpt>
      <trkpt lat="46.15395" lon="6.92538">
        <ele>2757</ele>
      </trkpt>
      <trkpt lat="46.15398" lon="6.92538">
        <ele>2754</ele>
      </trkpt>
      <trkpt lat="46.15387" lon="6.92525">
        <ele>2752</ele>
      </trkpt>
      <trkpt lat="46.1537999" lon="6.92527">
        <ele>2750</ele>
      </trkpt>
      <trkpt lat="46.15399" lon="6.92545">
        <ele>2741</ele>
      </trkpt>
      <trkpt lat="46.15401" lon="6.92554">
        <ele>2737</ele>
      </trkpt>
      <trkpt lat="46.15393" lon="6.92564">
        <ele>2737</ele>
      </trkpt>
      <trkpt lat="46.15364" lon="6.92549">
        <ele>2736</ele>
      </trkpt>
      <trkpt lat="46.15357" lon="6.92537">
        <ele>2736</ele>
      </trkpt>
      <trkpt lat="46.15354" lon="6.9254">
        <ele>2736</ele>
      </trkpt>
      <trkpt lat="46.15356" lon="6.9255">
        <ele>2735</ele>
      </trkpt>
      <trkpt lat="46.15346" lon="6.92551">
        <ele>2734</ele>
      </trkpt>
      <trkpt lat="46.15343" lon="6.92539">
        <ele>2732</ele>
      </trkpt>
      <trkpt lat="46.15334" lon="6.92536">
        <ele>2727</ele>
      </trkpt>
      <trkpt lat="46.15336" lon="6.92539">
        <ele>2726</ele>
      </trkpt>
      <trkpt lat="46.15327" lon="6.92515">
        <ele>2716</ele>
      </trkpt>
      <trkpt lat="46.15319" lon="6.9252">
        <ele>2713</ele>
      </trkpt>
      <trkpt lat="46.1532399" lon="6.92514">
        <ele>2711</ele>
      </trkpt>
      <trkpt lat="46.1531" lon="6.92497">
        <ele>2708</ele>
      </trkpt>
      <trkpt lat="46.15314" lon="6.92492">
        <ele>2708</ele>
      </trkpt>
      <trkpt lat="46.15302" lon="6.92482">
        <ele>2704</ele>
      </trkpt>
      <trkpt lat="46.15296" lon="6.92482">
        <ele>2702</ele>
      </trkpt>
      <trkpt lat="46.15288" lon="6.92475">
        <ele>2699</ele>
      </trkpt>
      <trkpt lat="46.15292" lon="6.92463">
        <ele>2697</ele>
      </trkpt>
      <trkpt lat="46.15276" lon="6.92453">
        <ele>2694</ele>
      </trkpt>
      <trkpt lat="46.15267" lon="6.92431">
        <ele>2690</ele>
      </trkpt>
      <trkpt lat="46.15269" lon="6.92425">
        <ele>2689</ele>
      </trkpt>
      <trkpt lat="46.1525899" lon="6.9241">
        <ele>2687</ele>
      </trkpt>
      <trkpt lat="46.15267" lon="6.924">
        <ele>2684</ele>
      </trkpt>
      <trkpt lat="46.15261" lon="6.92395">
        <ele>2682</ele>
      </trkpt>
      <trkpt lat="46.15266" lon="6.92389">
        <ele>2681</ele>
      </trkpt>
      <trkpt lat="46.1525899" lon="6.92388">
        <ele>2679</ele>
      </trkpt>
      <trkpt lat="46.15261" lon="6.92386">
        <ele>2679</ele>
      </trkpt>
      <trkpt lat="46.15253" lon="6.92387">
        <ele>2678</ele>
      </trkpt>
      <trkpt lat="46.15253" lon="6.92379">
        <ele>2677</ele>
      </trkpt>
      <trkpt lat="46.15249" lon="6.92379">
        <ele>2676</ele>
      </trkpt>
      <trkpt lat="46.15253" lon="6.9239">
        <ele>2674</ele>
      </trkpt>
      <trkpt lat="46.15245" lon="6.92381">
        <ele>2671</ele>
      </trkpt>
      <trkpt lat="46.15236" lon="6.92351">
        <ele>2667</ele>
      </trkpt>
      <trkpt lat="46.15213" lon="6.92339">
        <ele>2654</ele>
      </trkpt>
      <trkpt lat="46.1521" lon="6.92342">
        <ele>2652</ele>
      </trkpt>
      <trkpt lat="46.1519" lon="6.9233">
        <ele>2640</ele>
      </trkpt>
      <trkpt lat="46.1517" lon="6.9231">
        <ele>2626</ele>
      </trkpt>
      <trkpt lat="46.15166" lon="6.9229">
        <ele>2621</ele>
      </trkpt>
      <trkpt lat="46.15154" lon="6.92274">
        <ele>2620</ele>
      </trkpt>
      <trkpt lat="46.15158" lon="6.92269">
        <ele>2620</ele>
      </trkpt>
      <trkpt lat="46.15153" lon="6.92269">
        <ele>2619</ele>
      </trkpt>
      <trkpt lat="46.1513001" lon="6.9224801">
        <ele>2614</ele>
      </trkpt>
      <trkpt lat="46.1513" lon="6.92248">
        <ele>2614</ele>
      </trkpt>
      <trkpt lat="46.15133" lon="6.92248">
        <ele>2614</ele>
      </trkpt>
      <trkpt lat="46.15129" lon="6.92252">
        <ele>2613</ele>
      </trkpt>
      <trkpt lat="46.15129" lon="6.92246">
        <ele>2611</ele>
      </trkpt>
      <trkpt lat="46.15126" lon="6.92247">
        <ele>2609</ele>
      </trkpt>
      <trkpt lat="46.1512" lon="6.92239">
        <ele>2606</ele>
      </trkpt>
      <trkpt lat="46.15124" lon="6.92239">
        <ele>2605</ele>
      </trkpt>
      <trkpt lat="46.15109" lon="6.92236">
        <ele>2601</ele>
      </trkpt>
      <trkpt lat="46.15115" lon="6.92245">
        <ele>2597</ele>
      </trkpt>
      <trkpt lat="46.15101" lon="6.92228">
        <ele>2588</ele>
      </trkpt>
      <trkpt lat="46.15097" lon="6.92216">
        <ele>2585</ele>
      </trkpt>
      <trkpt lat="46.15083" lon="6.92204">
        <ele>2574</ele>
      </trkpt>
      <trkpt lat="46.15079" lon="6.92194">
        <ele>2572</ele>
      </trkpt>
      <trkpt lat="46.1506001" lon="6.9217401">
        <ele>2571</ele>
      </trkpt>
      <trkpt lat="46.1506" lon="6.92174">
        <ele>2571</ele>
      </trkpt>
      <trkpt lat="46.1506" lon="6.92167">
        <ele>2571</ele>
      </trkpt>
      <trkpt lat="46.15049" lon="6.92159">
        <ele>2570</ele>
      </trkpt>
      <trkpt lat="46.15036" lon="6.92126">
        <ele>2566</ele>
      </trkpt>
      <trkpt lat="46.1503" lon="6.92125">
        <ele>2562</ele>
      </trkpt>
      <trkpt lat="46.15025" lon="6.92112">
        <ele>2562</ele>
      </trkpt>
      <trkpt lat="46.15018" lon="6.92106">
        <ele>2559</ele>
      </trkpt>
      <trkpt lat="46.15012" lon="6.92106">
        <ele>2558</ele>
      </trkpt>
      <trkpt lat="46.15009" lon="6.921">
        <ele>2556</ele>
      </trkpt>
      <trkpt lat="46.14994" lon="6.92094">
        <ele>2552</ele>
      </trkpt>
      <trkpt lat="46.14981" lon="6.92098">
        <ele>2544</ele>
      </trkpt>
      <trkpt lat="46.14981" lon="6.92104">
        <ele>2540</ele>
      </trkpt>
      <trkpt lat="46.1497" lon="6.92098">
        <ele>2534</ele>
      </trkpt>
      <trkpt lat="46.14964" lon="6.92104">
        <ele>2531</ele>
      </trkpt>
      <trkpt lat="46.1495" lon="6.92102">
        <ele>2523</ele>
      </trkpt>
      <trkpt lat="46.14894" lon="6.92051">
        <ele>2508</ele>
      </trkpt>
      <trkpt lat="46.1489" lon="6.92054">
        <ele>2508</ele>
      </trkpt>
      <trkpt lat="46.14888" lon="6.9205">
        <ele>2508</ele>
      </trkpt>
      <trkpt lat="46.1489199" lon="6.92053">
        <ele>2508</ele>
      </trkpt>
      <trkpt lat="46.14889" lon="6.92051">
        <ele>2508</ele>
      </trkpt>
      <trkpt lat="46.1489199" lon="6.92058">
        <ele>2507</ele>
      </trkpt>
      <trkpt lat="46.1489199" lon="6.92048">
        <ele>2507</ele>
      </trkpt>
      <trkpt lat="46.14896" lon="6.92048">
        <ele>2507</ele>
      </trkpt>
      <trkpt lat="46.1489" lon="6.92044">
        <ele>2508</ele>
      </trkpt>
      <trkpt lat="46.1489" lon="6.92048">
        <ele>2508</ele>
      </trkpt>
      <trkpt lat="46.14903" lon="6.92041">
        <ele>2507</ele>
      </trkpt>
      <trkpt lat="46.14895" lon="6.92045">
        <ele>2507</ele>
      </trkpt>
      <trkpt lat="46.14904" lon="6.92032">
        <ele>2507</ele>
      </trkpt>
      <trkpt lat="46.14902" lon="6.9203">
        <ele>2507</ele>
      </trkpt>
      <trkpt lat="46.14904" lon="6.92028">
        <ele>2507</ele>
      </trkpt>
      <trkpt lat="46.14902" lon="6.92042">
        <ele>2508</ele>
      </trkpt>
      <trkpt lat="46.14893" lon="6.92051">
        <ele>2509</ele>
      </trkpt>
      <trkpt lat="46.14917" lon="6.9209">
        <ele>2510</ele>
      </trkpt>
      <trkpt lat="46.14916" lon="6.92099">
        <ele>2509</ele>
      </trkpt>
      <trkpt lat="46.14915" lon="6.92093">
        <ele>2507</ele>
      </trkpt>
      <trkpt lat="46.14914" lon="6.92102">
        <ele>2504</ele>
      </trkpt>
      <trkpt lat="46.14908" lon="6.921">
        <ele>2502</ele>
      </trkpt>
      <trkpt lat="46.14907" lon="6.92108">
        <ele>2499</ele>
      </trkpt>
      <trkpt lat="46.1489" lon="6.9212">
        <ele>2490</ele>
      </trkpt>
      <trkpt lat="46.14871" lon="6.92143">
        <ele>2484</ele>
      </trkpt>
      <trkpt lat="46.14861" lon="6.92141">
        <ele>2482</ele>
      </trkpt>
      <trkpt lat="46.14849" lon="6.92156">
        <ele>2479</ele>
      </trkpt>
      <trkpt lat="46.1484" lon="6.92154">
        <ele>2476</ele>
      </trkpt>
      <trkpt lat="46.14833" lon="6.92169">
        <ele>2468</ele>
      </trkpt>
      <trkpt lat="46.14823" lon="6.9217">
        <ele>2467</ele>
      </trkpt>
      <trkpt lat="46.14817" lon="6.92158">
        <ele>2464</ele>
      </trkpt>
      <trkpt lat="46.14814" lon="6.92174">
        <ele>2463</ele>
      </trkpt>
      <trkpt lat="46.14809" lon="6.92173">
        <ele>2463</ele>
      </trkpt>
      <trkpt lat="46.14805" lon="6.92184">
        <ele>2462</ele>
      </trkpt>
      <trkpt lat="46.14811" lon="6.92197">
        <ele>2461</ele>
      </trkpt>
      <trkpt lat="46.14811" lon="6.92208">
        <ele>2458</ele>
      </trkpt>
      <trkpt lat="46.14806" lon="6.92213">
        <ele>2457</ele>
      </trkpt>
      <trkpt lat="46.14809" lon="6.92219">
        <ele>2454</ele>
      </trkpt>
      <trkpt lat="46.14801" lon="6.92224">
        <ele>2451</ele>
      </trkpt>
      <trkpt lat="46.14806" lon="6.9223">
        <ele>2450</ele>
      </trkpt>
      <trkpt lat="46.14802" lon="6.92238">
        <ele>2449</ele>
      </trkpt>
      <trkpt lat="46.14809" lon="6.92241">
        <ele>2447</ele>
      </trkpt>
      <trkpt lat="46.14796" lon="6.92242">
        <ele>2444</ele>
      </trkpt>
      <trkpt lat="46.14799" lon="6.92262">
        <ele>2441</ele>
      </trkpt>
      <trkpt lat="46.14796" lon="6.92263">
        <ele>2440</ele>
      </trkpt>
      <trkpt lat="46.14788" lon="6.92253">
        <ele>2437</ele>
      </trkpt>
      <trkpt lat="46.1478899" lon="6.92266">
        <ele>2436</ele>
      </trkpt>
      <trkpt lat="46.14787" lon="6.92268">
        <ele>2435</ele>
      </trkpt>
      <trkpt lat="46.1479" lon="6.92282">
        <ele>2432</ele>
      </trkpt>
      <trkpt lat="46.1479799" lon="6.92285">
        <ele>2426</ele>
      </trkpt>
      <trkpt lat="46.14793" lon="6.9229">
        <ele>2422</ele>
      </trkpt>
      <trkpt lat="46.14791" lon="6.92285">
        <ele>2417</ele>
      </trkpt>
      <trkpt lat="46.14794" lon="6.92323">
        <ele>2415</ele>
      </trkpt>
      <trkpt lat="46.148" lon="6.92331">
        <ele>2413</ele>
      </trkpt>
      <trkpt lat="46.14796" lon="6.92332">
        <ele>2412</ele>
      </trkpt>
      <trkpt lat="46.14791" lon="6.92347">
        <ele>2407</ele>
      </trkpt>
      <trkpt lat="46.14791" lon="6.92356">
        <ele>2405</ele>
      </trkpt>
      <trkpt lat="46.14801" lon="6.92353">
        <ele>2401</ele>
      </trkpt>
      <trkpt lat="46.14812" lon="6.92361">
        <ele>2397</ele>
      </trkpt>
      <trkpt lat="46.14811" lon="6.92379">
        <ele>2395</ele>
      </trkpt>
      <trkpt lat="46.14831" lon="6.92365">
        <ele>2389</ele>
      </trkpt>
      <trkpt lat="46.14826" lon="6.9236">
        <ele>2388</ele>
      </trkpt>
      <trkpt lat="46.14841" lon="6.92371">
        <ele>2386</ele>
      </trkpt>
      <trkpt lat="46.14843" lon="6.92381">
        <ele>2385</ele>
      </trkpt>
      <trkpt lat="46.14846" lon="6.92372">
        <ele>2384</ele>
      </trkpt>
      <trkpt lat="46.14858" lon="6.92369">
        <ele>2382</ele>
      </trkpt>
      <trkpt lat="46.14871" lon="6.92378">
        <ele>2381</ele>
      </trkpt>
      <trkpt lat="46.14864" lon="6.92384">
        <ele>2381</ele>
      </trkpt>
      <trkpt lat="46.14866" lon="6.92381">
        <ele>2381</ele>
      </trkpt>
      <trkpt lat="46.14859" lon="6.92389">
        <ele>2374</ele>
      </trkpt>
      <trkpt lat="46.14855" lon="6.92404">
        <ele>2372</ele>
      </trkpt>
      <trkpt lat="46.1485399" lon="6.92392">
        <ele>2372</ele>
      </trkpt>
      <trkpt lat="46.14856" lon="6.92388">
        <ele>2372</ele>
      </trkpt>
      <trkpt lat="46.14865" lon="6.92386">
        <ele>2372</ele>
      </trkpt>
      <trkpt lat="46.14879" lon="6.92393">
        <ele>2373</ele>
      </trkpt>
      <trkpt lat="46.14868" lon="6.92412">
        <ele>2374</ele>
      </trkpt>
      <trkpt lat="46.14872" lon="6.9241">
        <ele>2374</ele>
      </trkpt>
      <trkpt lat="46.14869" lon="6.92412">
        <ele>2374</ele>
      </trkpt>
      <trkpt lat="46.14872" lon="6.9242">
        <ele>2375</ele>
      </trkpt>
      <trkpt lat="46.14869" lon="6.92414">
        <ele>2375</ele>
      </trkpt>
      <trkpt lat="46.14868" lon="6.92422">
        <ele>2375</ele>
      </trkpt>
      <trkpt lat="46.14875" lon="6.92422">
        <ele>2375</ele>
      </trkpt>
      <trkpt lat="46.14877" lon="6.92438">
        <ele>2375</ele>
      </trkpt>
      <trkpt lat="46.14887" lon="6.92448">
        <ele>2373</ele>
      </trkpt>
      <trkpt lat="46.14885" lon="6.92448">
        <ele>2373</ele>
      </trkpt>
      <trkpt lat="46.14886" lon="6.92466">
        <ele>2373</ele>
      </trkpt>
      <trkpt lat="46.14891" lon="6.9247">
        <ele>2370</ele>
      </trkpt>
      <trkpt lat="46.14886" lon="6.92473">
        <ele>2370</ele>
      </trkpt>
      <trkpt lat="46.14887" lon="6.92477">
        <ele>2369</ele>
      </trkpt>
      <trkpt lat="46.14879" lon="6.92479">
        <ele>2368</ele>
      </trkpt>
      <trkpt lat="46.1488299" lon="6.9249">
        <ele>2368</ele>
      </trkpt>
      <trkpt lat="46.1488" lon="6.92499">
        <ele>2369</ele>
      </trkpt>
      <trkpt lat="46.14881" lon="6.92494">
        <ele>2370</ele>
      </trkpt>
      <trkpt lat="46.14889" lon="6.92499">
        <ele>2371</ele>
      </trkpt>
      <trkpt lat="46.14884" lon="6.92511">
        <ele>2372</ele>
      </trkpt>
      <trkpt lat="46.14888" lon="6.9253">
        <ele>2373</ele>
      </trkpt>
      <trkpt lat="46.14889" lon="6.92554">
        <ele>2377</ele>
      </trkpt>
      <trkpt lat="46.14878" lon="6.92541">
        <ele>2380</ele>
      </trkpt>
      <trkpt lat="46.14867" lon="6.9254">
        <ele>2382</ele>
      </trkpt>
      <trkpt lat="46.14858" lon="6.92554">
        <ele>2384</ele>
      </trkpt>
      <trkpt lat="46.14869" lon="6.92561">
        <ele>2384</ele>
      </trkpt>
      <trkpt lat="46.1488299" lon="6.92594">
        <ele>2385</ele>
      </trkpt>
      <trkpt lat="46.14877" lon="6.92627">
        <ele>2391</ele>
      </trkpt>
      <trkpt lat="46.14879" lon="6.92626">
        <ele>2392</ele>
      </trkpt>
      <trkpt lat="46.14878" lon="6.92657">
        <ele>2396</ele>
      </trkpt>
      <trkpt lat="46.14872" lon="6.92658">
        <ele>2397</ele>
      </trkpt>
      <trkpt lat="46.14867" lon="6.92651">
        <ele>2397</ele>
      </trkpt>
      <trkpt lat="46.14862" lon="6.92631">
        <ele>2397</ele>
      </trkpt>
      <trkpt lat="46.1487" lon="6.9262">
        <ele>2397</ele>
      </trkpt>
      <trkpt lat="46.14865" lon="6.92637">
        <ele>2395</ele>
      </trkpt>
      <trkpt lat="46.1486825" lon="6.9262895">
        <ele>2131</ele>
      </trkpt>
    </trkseg>
  </trk>
</gpx>
