<?xml version="1.0" encoding="UTF-8"?>
<gpx version="1.1" creator="gpx.studio" xmlns="http://www.topografix.com/GPX/1/1" xmlns:xsi="http://www.w3.org/2001/XMLSchema-instance" xsi:schemaLocation="http://www.topografix.com/GPX/1/1 http://www.topografix.com/GPX/1/1/gpx.xsd http://www.garmin.com/xmlschemas/GpxExtensions/v3 http://www.garmin.com/xmlschemas/GpxExtensionsv3.xsd http://www.garmin.com/xmlschemas/TrackPointExtension/v1 http://www.garmin.com/xmlschemas/TrackPointExtensionv1.xsd http://www.garmin.com/xmlschemas/PowerExtension/v1 http://www.garmin.com/xmlschemas/PowerExtensionv1.xsd http://www.topografix.com/GPX/gpx_style/0/2 http://www.topografix.com/GPX/gpx_style/0/2/gpx_style.xsd" xmlns:gpxtpx="http://www.garmin.com/xmlschemas/TrackPointExtension/v1" xmlns:gpxx="http://www.garmin.com/xmlschemas/GpxExtensions/v3" xmlns:gpxpx="http://www.garmin.com/xmlschemas/PowerExtension/v1" xmlns:gpx_style="http://www.topografix.com/GPX/gpx_style/0/2">
  <metadata>
    <name>Tour des Dents Blanches</name>
    <author>
      <name>gpx.studio</name>
      <link href="https://gpx.studio"/>
    </author>
  </metadata>
  <trk>
    <name>Tour des Dents Blanches</name>
    <trkseg>
      <trkpt lat="46.14982" lon="6.83167"/>
      <trkpt lat="46.14979" lon="6.83172"/>
      <trkpt lat="46.14971" lon="6.83187"/>
      <trkpt lat="46.14958" lon="6.8321"/>
      <trkpt lat="46.14923" lon="6.83255"/>
      <trkpt lat="46.14933" lon="6.8333"/>
      <trkpt lat="46.14947" lon="6.83395"/>
      <trkpt lat="46.14948" lon="6.83462"/>
      <trkpt lat="46.14965" lon="6.83538"/>
      <trkpt lat="46.14966" lon="6.83598"/>
      <trkpt lat="46.14966" lon="6.83604"/>
      <trkpt lat="46.14967" lon="6.8361"/>
      <trkpt lat="46.14933" lon="6.83623"/>
      <trkpt lat="46.14888" lon="6.83614"/>
      <trkpt lat="46.14856" lon="6.83673"/>
      <trkpt lat="46.14854" lon="6.83693"/>
      <trkpt lat="46.14852" lon="6.83703"/>
      <trkpt lat="46.14844" lon="6.83732"/>
      <trkpt lat="46.14844" lon="6.83749"/>
      <trkpt lat="46.14841" lon="6.83757"/>
      <trkpt lat="46.14843" lon="6.83766"/>
      <trkpt lat="46.14842" lon="6.83777"/>
      <trkpt lat="46.14846" lon="6.83779"/>
      <trkpt lat="46.1485" lon="6.83795"/>
      <trkpt lat="46.14852" lon="6.838"/>
      <trkpt lat="46.14848" lon="6.83868"/>
      <trkpt lat="46.1485" lon="6.83925"/>
      <trkpt lat="46.14815" lon="6.84093"/>
      <trkpt lat="46.14818" lon="6.84178"/>
      <trkpt lat="46.14791" lon="6.84253"/>
      <trkpt lat="46.14763" lon="6.84273"/>
      <trkpt lat="46.14741" lon="6.84311"/>
      <trkpt lat="46.14737" lon="6.84339"/>
      <trkpt lat="46.14718" lon="6.84387"/>
      <trkpt lat="46.14718" lon="6.84398"/>
      <trkpt lat="46.14712" lon="6.84423"/>
      <trkpt lat="46.14717" lon="6.8444"/>
      <trkpt lat="46.1472" lon="6.84486"/>
      <trkpt lat="46.14749" lon="6.84539"/>
      <trkpt lat="46.1476" lon="6.84635"/>
      <trkpt lat="46.1476" lon="6.84661"/>
      <trkpt lat="46.14769" lon="6.84667"/>
      <trkpt lat="46.14781" lon="6.84704"/>
      <trkpt lat="46.14782" lon="6.84727"/>
      <trkpt lat="46.14778" lon="6.84733"/>
      <trkpt lat="46.14779" lon="6.84743"/>
      <trkpt lat="46.14782" lon="6.84792"/>
      <trkpt lat="46.1478" lon="6.84817"/>
      <trkpt lat="46.14782" lon="6.84826"/>
      <trkpt lat="46.14785" lon="6.84845"/>
      <trkpt lat="46.14784" lon="6.84872"/>
      <trkpt lat="46.14793" lon="6.85003"/>
      <trkpt lat="46.14791" lon="6.85029"/>
      <trkpt lat="46.14792" lon="6.85065"/>
      <trkpt lat="46.14795" lon="6.85078"/>
      <trkpt lat="46.14791" lon="6.85104"/>
      <trkpt lat="46.14796" lon="6.85111"/>
      <trkpt lat="46.14798" lon="6.85121"/>
      <trkpt lat="46.148" lon="6.85193"/>
      <trkpt lat="46.14805" lon="6.85209"/>
      <trkpt lat="46.1481" lon="6.85296"/>
      <trkpt lat="46.14795" lon="6.85269"/>
      <trkpt lat="46.14764" lon="6.85243"/>
      <trkpt lat="46.14759" lon="6.85242"/>
      <trkpt lat="46.14758" lon="6.85251"/>
      <trkpt lat="46.14753" lon="6.85248"/>
      <trkpt lat="46.14753" lon="6.8526"/>
      <trkpt lat="46.14743" lon="6.85255"/>
      <trkpt lat="46.14735" lon="6.85257"/>
      <trkpt lat="46.14737" lon="6.85277"/>
      <trkpt lat="46.14745" lon="6.85303"/>
      <trkpt lat="46.14747" lon="6.85322"/>
      <trkpt lat="46.14752" lon="6.85328"/>
      <trkpt lat="46.1476" lon="6.85384"/>
      <trkpt lat="46.14758" lon="6.85405"/>
      <trkpt lat="46.1477" lon="6.85458"/>
      <trkpt lat="46.1477" lon="6.85472"/>
      <trkpt lat="46.1477" lon="6.85515"/>
      <trkpt lat="46.14771" lon="6.85533"/>
      <trkpt lat="46.14767" lon="6.85564"/>
      <trkpt lat="46.14777" lon="6.85574"/>
      <trkpt lat="46.14779" lon="6.85576"/>
      <trkpt lat="46.14786" lon="6.85588"/>
      <trkpt lat="46.14786" lon="6.85611"/>
      <trkpt lat="46.14789" lon="6.85684"/>
      <trkpt lat="46.14803" lon="6.85721"/>
      <trkpt lat="46.14838" lon="6.85773"/>
      <trkpt lat="46.14852" lon="6.85781"/>
      <trkpt lat="46.14854" lon="6.85792"/>
      <trkpt lat="46.14849" lon="6.85795"/>
      <trkpt lat="46.14857" lon="6.85821"/>
      <trkpt lat="46.14872" lon="6.85831"/>
      <trkpt lat="46.14878" lon="6.85841"/>
      <trkpt lat="46.14879" lon="6.85873"/>
      <trkpt lat="46.14886" lon="6.85903"/>
      <trkpt lat="46.14883" lon="6.85906"/>
      <trkpt lat="46.14897" lon="6.85938"/>
      <trkpt lat="46.14909" lon="6.85995"/>
      <trkpt lat="46.14907" lon="6.86055"/>
      <trkpt lat="46.14909" lon="6.86097"/>
      <trkpt lat="46.14905" lon="6.8622"/>
      <trkpt lat="46.149" lon="6.86256"/>
      <trkpt lat="46.149" lon="6.86271"/>
      <trkpt lat="46.14899" lon="6.86289"/>
      <trkpt lat="46.14982" lon="6.86335"/>
      <trkpt lat="46.14962" lon="6.86361"/>
      <trkpt lat="46.14959" lon="6.86372"/>
      <trkpt lat="46.14951" lon="6.86373"/>
      <trkpt lat="46.14943" lon="6.86382"/>
      <trkpt lat="46.14945" lon="6.86394"/>
      <trkpt lat="46.14934" lon="6.86398"/>
      <trkpt lat="46.14933" lon="6.86405"/>
      <trkpt lat="46.14941" lon="6.86416"/>
      <trkpt lat="46.14956" lon="6.86421"/>
      <trkpt lat="46.14953" lon="6.8643"/>
      <trkpt lat="46.14957" lon="6.86439"/>
      <trkpt lat="46.14951" lon="6.86453"/>
      <trkpt lat="46.14954" lon="6.86458"/>
      <trkpt lat="46.14952" lon="6.86465"/>
      <trkpt lat="46.14958" lon="6.86467"/>
      <trkpt lat="46.14954" lon="6.86476"/>
      <trkpt lat="46.14974" lon="6.86476"/>
      <trkpt lat="46.14974" lon="6.86483"/>
      <trkpt lat="46.14977" lon="6.86486"/>
      <trkpt lat="46.1499" lon="6.86481"/>
      <trkpt lat="46.14993" lon="6.86493"/>
      <trkpt lat="46.1502" lon="6.86516"/>
      <trkpt lat="46.15027" lon="6.86515"/>
      <trkpt lat="46.1504" lon="6.86527"/>
      <trkpt lat="46.15056" lon="6.86527"/>
      <trkpt lat="46.15068" lon="6.86583"/>
      <trkpt lat="46.15079" lon="6.86595"/>
      <trkpt lat="46.15087" lon="6.86597"/>
      <trkpt lat="46.15088" lon="6.86606"/>
      <trkpt lat="46.15077" lon="6.86613"/>
      <trkpt lat="46.15059" lon="6.86619"/>
      <trkpt lat="46.15039" lon="6.86617"/>
      <trkpt lat="46.15" lon="6.86628"/>
      <trkpt lat="46.14992" lon="6.86628"/>
      <trkpt lat="46.14981" lon="6.86621"/>
      <trkpt lat="46.14964" lon="6.86632"/>
      <trkpt lat="46.14896" lon="6.86657"/>
      <trkpt lat="46.14881" lon="6.86685"/>
      <trkpt lat="46.14859" lon="6.86699"/>
      <trkpt lat="46.14847" lon="6.86763"/>
      <trkpt lat="46.1482" lon="6.86818"/>
      <trkpt lat="46.14812" lon="6.86822"/>
      <trkpt lat="46.14805" lon="6.86822"/>
      <trkpt lat="46.14781" lon="6.86816"/>
      <trkpt lat="46.14772" lon="6.86817"/>
      <trkpt lat="46.14737" lon="6.86841"/>
      <trkpt lat="46.14708" lon="6.86852"/>
      <trkpt lat="46.14681" lon="6.86838"/>
      <trkpt lat="46.14654" lon="6.86834"/>
      <trkpt lat="46.14649" lon="6.86835"/>
      <trkpt lat="46.14648" lon="6.86851"/>
      <trkpt lat="46.14638" lon="6.86864"/>
      <trkpt lat="46.14635" lon="6.86888"/>
      <trkpt lat="46.14627" lon="6.86905"/>
      <trkpt lat="46.14605" lon="6.86918"/>
      <trkpt lat="46.14568" lon="6.86957"/>
      <trkpt lat="46.14528" lon="6.86973"/>
      <trkpt lat="46.14507" lon="6.86967"/>
      <trkpt lat="46.1449" lon="6.86958"/>
      <trkpt lat="46.14486" lon="6.86968"/>
      <trkpt lat="46.14467" lon="6.86975"/>
      <trkpt lat="46.1447" lon="6.87014"/>
      <trkpt lat="46.14463" lon="6.86998"/>
      <trkpt lat="46.14459" lon="6.87012"/>
      <trkpt lat="46.14428" lon="6.87015"/>
      <trkpt lat="46.14429" lon="6.86983"/>
      <trkpt lat="46.14417" lon="6.8699"/>
      <trkpt lat="46.14419" lon="6.86953"/>
      <trkpt lat="46.14411" lon="6.86953"/>
      <trkpt lat="46.14388" lon="6.86979"/>
      <trkpt lat="46.1438" lon="6.87005"/>
      <trkpt lat="46.14358" lon="6.87041"/>
      <trkpt lat="46.14352" lon="6.87079"/>
      <trkpt lat="46.14345" lon="6.87091"/>
      <trkpt lat="46.14338" lon="6.87124"/>
      <trkpt lat="46.14338" lon="6.87142"/>
      <trkpt lat="46.14334" lon="6.87157"/>
      <trkpt lat="46.1433" lon="6.87158"/>
      <trkpt lat="46.14308" lon="6.87206"/>
      <trkpt lat="46.14297" lon="6.87219"/>
      <trkpt lat="46.1429" lon="6.8722"/>
      <trkpt lat="46.14243" lon="6.87302"/>
      <trkpt lat="46.14225" lon="6.87362"/>
      <trkpt lat="46.14226" lon="6.87473"/>
      <trkpt lat="46.1423" lon="6.87554"/>
      <trkpt lat="46.14236" lon="6.8762"/>
      <trkpt lat="46.14231" lon="6.87661"/>
      <trkpt lat="46.14231" lon="6.87735"/>
      <trkpt lat="46.14223" lon="6.87798"/>
      <trkpt lat="46.14194" lon="6.87856"/>
      <trkpt lat="46.14189" lon="6.87881"/>
      <trkpt lat="46.14189" lon="6.87915"/>
      <trkpt lat="46.14168" lon="6.87996"/>
      <trkpt lat="46.14148" lon="6.88012"/>
      <trkpt lat="46.14144" lon="6.88005"/>
      <trkpt lat="46.14083" lon="6.88068"/>
      <trkpt lat="46.13995" lon="6.88097"/>
      <trkpt lat="46.1397" lon="6.88129"/>
      <trkpt lat="46.13969" lon="6.88136"/>
      <trkpt lat="46.13969" lon="6.8814"/>
      <trkpt lat="46.13968" lon="6.88159"/>
      <trkpt lat="46.13966" lon="6.88163"/>
      <trkpt lat="46.13948" lon="6.88174"/>
      <trkpt lat="46.13909" lon="6.88213"/>
      <trkpt lat="46.13892" lon="6.88241"/>
      <trkpt lat="46.13867" lon="6.8826"/>
      <trkpt lat="46.13865" lon="6.88269"/>
      <trkpt lat="46.13865" lon="6.88285"/>
      <trkpt lat="46.13859" lon="6.88322"/>
      <trkpt lat="46.13814" lon="6.88396"/>
      <trkpt lat="46.1381" lon="6.88419"/>
      <trkpt lat="46.13782" lon="6.88447"/>
      <trkpt lat="46.13747" lon="6.88466"/>
      <trkpt lat="46.13753" lon="6.88472"/>
      <trkpt lat="46.13737" lon="6.88487"/>
      <trkpt lat="46.13744" lon="6.88492"/>
      <trkpt lat="46.13726" lon="6.88509"/>
      <trkpt lat="46.13727" lon="6.88517"/>
      <trkpt lat="46.13744" lon="6.88517"/>
      <trkpt lat="46.13742" lon="6.88523"/>
      <trkpt lat="46.13764" lon="6.88524"/>
      <trkpt lat="46.13767" lon="6.88534"/>
      <trkpt lat="46.13762" lon="6.88535"/>
      <trkpt lat="46.13758" lon="6.88545"/>
      <trkpt lat="46.13698" lon="6.88634"/>
      <trkpt lat="46.13682" lon="6.88636"/>
      <trkpt lat="46.13676" lon="6.88656"/>
      <trkpt lat="46.13678" lon="6.88691"/>
      <trkpt lat="46.13677" lon="6.88765"/>
      <trkpt lat="46.13671" lon="6.88789"/>
      <trkpt lat="46.1368" lon="6.88886"/>
      <trkpt lat="46.13692" lon="6.88951"/>
      <trkpt lat="46.13692" lon="6.8897"/>
      <trkpt lat="46.13697" lon="6.8903"/>
      <trkpt lat="46.13707" lon="6.89071"/>
      <trkpt lat="46.1372" lon="6.89094"/>
      <trkpt lat="46.13725" lon="6.89118"/>
      <trkpt lat="46.13726" lon="6.89135"/>
      <trkpt lat="46.1374" lon="6.89185"/>
      <trkpt lat="46.13756" lon="6.893"/>
      <trkpt lat="46.13762" lon="6.8932"/>
      <trkpt lat="46.13768" lon="6.89322"/>
      <trkpt lat="46.13773" lon="6.89321"/>
      <trkpt lat="46.13778" lon="6.89322"/>
      <trkpt lat="46.13792" lon="6.89357"/>
      <trkpt lat="46.13805" lon="6.89421"/>
      <trkpt lat="46.13829" lon="6.89429"/>
      <trkpt lat="46.13845" lon="6.89452"/>
      <trkpt lat="46.13853" lon="6.89485"/>
      <trkpt lat="46.13853" lon="6.89529"/>
      <trkpt lat="46.13858" lon="6.89548"/>
      <trkpt lat="46.13871" lon="6.89551"/>
      <trkpt lat="46.13875" lon="6.89559"/>
      <trkpt lat="46.13903" lon="6.89669"/>
      <trkpt lat="46.13942" lon="6.89763"/>
      <trkpt lat="46.13952" lon="6.89782"/>
      <trkpt lat="46.13956" lon="6.89795"/>
      <trkpt lat="46.13953" lon="6.8983"/>
      <trkpt lat="46.13951" lon="6.89839"/>
      <trkpt lat="46.13949" lon="6.89828"/>
      <trkpt lat="46.13951" lon="6.89839"/>
      <trkpt lat="46.13953" lon="6.8983"/>
      <trkpt lat="46.13956" lon="6.89795"/>
      <trkpt lat="46.13952" lon="6.89782"/>
      <trkpt lat="46.13942" lon="6.89763"/>
      <trkpt lat="46.13903" lon="6.89669"/>
      <trkpt lat="46.13875" lon="6.89559"/>
      <trkpt lat="46.13871" lon="6.89551"/>
      <trkpt lat="46.13858" lon="6.89548"/>
      <trkpt lat="46.13853" lon="6.89529"/>
      <trkpt lat="46.13853" lon="6.89485"/>
      <trkpt lat="46.13845" lon="6.89452"/>
      <trkpt lat="46.13829" lon="6.89429"/>
      <trkpt lat="46.13805" lon="6.89421"/>
      <trkpt lat="46.13792" lon="6.89357"/>
      <trkpt lat="46.13778" lon="6.89322"/>
      <trkpt lat="46.13773" lon="6.89321"/>
      <trkpt lat="46.13768" lon="6.89322"/>
      <trkpt lat="46.13762" lon="6.8932"/>
      <trkpt lat="46.13756" lon="6.893"/>
      <trkpt lat="46.1374" lon="6.89185"/>
      <trkpt lat="46.13726" lon="6.89135"/>
      <trkpt lat="46.13725" lon="6.89118"/>
      <trkpt lat="46.1372" lon="6.89094"/>
      <trkpt lat="46.13707" lon="6.89071"/>
      <trkpt lat="46.13697" lon="6.8903"/>
      <trkpt lat="46.13692" lon="6.8897"/>
      <trkpt lat="46.13692" lon="6.88951"/>
      <trkpt lat="46.13682" lon="6.88883"/>
      <trkpt lat="46.13646" lon="6.88845"/>
      <trkpt lat="46.13628" lon="6.88844"/>
      <trkpt lat="46.13604" lon="6.88853"/>
      <trkpt lat="46.13597" lon="6.88865"/>
      <trkpt lat="46.13579" lon="6.88871"/>
      <trkpt lat="46.13559" lon="6.88871"/>
      <trkpt lat="46.13554" lon="6.8887"/>
      <trkpt lat="46.13553" lon="6.88844"/>
      <trkpt lat="46.13544" lon="6.88834"/>
      <trkpt lat="46.13526" lon="6.88834"/>
      <trkpt lat="46.1351" lon="6.88845"/>
      <trkpt lat="46.13474" lon="6.88832"/>
      <trkpt lat="46.1345" lon="6.8883"/>
      <trkpt lat="46.13449" lon="6.88804"/>
      <trkpt lat="46.13427" lon="6.88777"/>
      <trkpt lat="46.13395" lon="6.88775"/>
      <trkpt lat="46.13389" lon="6.88787"/>
      <trkpt lat="46.1334" lon="6.88764"/>
      <trkpt lat="46.13339" lon="6.88753"/>
      <trkpt lat="46.13318" lon="6.88704"/>
      <trkpt lat="46.13313" lon="6.88676"/>
      <trkpt lat="46.13286" lon="6.88627"/>
      <trkpt lat="46.13276" lon="6.88572"/>
      <trkpt lat="46.13271" lon="6.88486"/>
      <trkpt lat="46.13252" lon="6.88418"/>
      <trkpt lat="46.13249" lon="6.88338"/>
      <trkpt lat="46.13222" lon="6.88286"/>
      <trkpt lat="46.13219" lon="6.88285"/>
      <trkpt lat="46.13217" lon="6.88278"/>
      <trkpt lat="46.13207" lon="6.88284"/>
      <trkpt lat="46.13177" lon="6.8828"/>
      <trkpt lat="46.1317" lon="6.88289"/>
      <trkpt lat="46.13159" lon="6.88286"/>
      <trkpt lat="46.13156" lon="6.88312"/>
      <trkpt lat="46.13123" lon="6.88323"/>
      <trkpt lat="46.131" lon="6.88316"/>
      <trkpt lat="46.13069" lon="6.88298"/>
      <trkpt lat="46.13054" lon="6.88303"/>
      <trkpt lat="46.13044" lon="6.88336"/>
      <trkpt lat="46.13038" lon="6.88312"/>
      <trkpt lat="46.13013" lon="6.88288"/>
      <trkpt lat="46.13002" lon="6.88268"/>
      <trkpt lat="46.12988" lon="6.88214"/>
      <trkpt lat="46.12987" lon="6.88178"/>
      <trkpt lat="46.12976" lon="6.88176"/>
      <trkpt lat="46.12976" lon="6.88155"/>
      <trkpt lat="46.12971" lon="6.88153"/>
      <trkpt lat="46.12969" lon="6.88136"/>
      <trkpt lat="46.12969" lon="6.88113"/>
      <trkpt lat="46.12944" lon="6.88086"/>
      <trkpt lat="46.12931" lon="6.88086"/>
      <trkpt lat="46.12923" lon="6.88087"/>
      <trkpt lat="46.12918" lon="6.88096"/>
      <trkpt lat="46.12912" lon="6.88097"/>
      <trkpt lat="46.12909" lon="6.88091"/>
      <trkpt lat="46.12908" lon="6.88077"/>
      <trkpt lat="46.12883" lon="6.88066"/>
      <trkpt lat="46.12879" lon="6.88042"/>
      <trkpt lat="46.12869" lon="6.88037"/>
      <trkpt lat="46.12847" lon="6.88036"/>
      <trkpt lat="46.1283" lon="6.88029"/>
      <trkpt lat="46.12816" lon="6.88037"/>
      <trkpt lat="46.12792" lon="6.88036"/>
      <trkpt lat="46.12787" lon="6.88033"/>
      <trkpt lat="46.12781" lon="6.88036"/>
      <trkpt lat="46.12774" lon="6.88032"/>
      <trkpt lat="46.12762" lon="6.87985"/>
      <trkpt lat="46.12744" lon="6.87948"/>
      <trkpt lat="46.12732" lon="6.87936"/>
      <trkpt lat="46.12733" lon="6.87881"/>
      <trkpt lat="46.12731" lon="6.8784"/>
      <trkpt lat="46.12733" lon="6.87748"/>
      <trkpt lat="46.12746" lon="6.87731"/>
      <trkpt lat="46.12759" lon="6.87715"/>
      <trkpt lat="46.12741" lon="6.87669"/>
      <trkpt lat="46.12736" lon="6.87693"/>
      <trkpt lat="46.12728" lon="6.87685"/>
      <trkpt lat="46.12715" lon="6.87688"/>
      <trkpt lat="46.12713" lon="6.87678"/>
      <trkpt lat="46.12707" lon="6.87681"/>
      <trkpt lat="46.12699" lon="6.87678"/>
      <trkpt lat="46.12695" lon="6.87679"/>
      <trkpt lat="46.12692" lon="6.87676"/>
      <trkpt lat="46.12684" lon="6.87676"/>
      <trkpt lat="46.12685" lon="6.87665"/>
      <trkpt lat="46.12677" lon="6.87635"/>
      <trkpt lat="46.12657" lon="6.87643"/>
      <trkpt lat="46.12649" lon="6.8765"/>
      <trkpt lat="46.12639" lon="6.8765"/>
      <trkpt lat="46.12612" lon="6.87666"/>
      <trkpt lat="46.12604" lon="6.87668"/>
      <trkpt lat="46.12603" lon="6.8768"/>
      <trkpt lat="46.12589" lon="6.87698"/>
      <trkpt lat="46.12583" lon="6.87698"/>
      <trkpt lat="46.12563" lon="6.8771"/>
      <trkpt lat="46.12552" lon="6.87707"/>
      <trkpt lat="46.1255" lon="6.87701"/>
      <trkpt lat="46.1256" lon="6.87598"/>
      <trkpt lat="46.12569" lon="6.87545"/>
      <trkpt lat="46.12564" lon="6.87466"/>
      <trkpt lat="46.12569" lon="6.87372"/>
      <trkpt lat="46.12567" lon="6.87274"/>
      <trkpt lat="46.12562" lon="6.87227"/>
      <trkpt lat="46.12561" lon="6.87164"/>
      <trkpt lat="46.12539" lon="6.87062"/>
      <trkpt lat="46.12518" lon="6.8696"/>
      <trkpt lat="46.12522" lon="6.86841"/>
      <trkpt lat="46.12522" lon="6.8683"/>
      <trkpt lat="46.12523" lon="6.86826"/>
      <trkpt lat="46.12523" lon="6.86816"/>
      <trkpt lat="46.12526" lon="6.86814"/>
      <trkpt lat="46.12527" lon="6.86806"/>
      <trkpt lat="46.12533" lon="6.86797"/>
      <trkpt lat="46.12538" lon="6.86796"/>
      <trkpt lat="46.12538" lon="6.86774"/>
      <trkpt lat="46.12542" lon="6.86771"/>
      <trkpt lat="46.12539" lon="6.86749"/>
      <trkpt lat="46.1254" lon="6.86722"/>
      <trkpt lat="46.12546" lon="6.86709"/>
      <trkpt lat="46.12546" lon="6.8669"/>
      <trkpt lat="46.12558" lon="6.86662"/>
      <trkpt lat="46.12562" lon="6.86628"/>
      <trkpt lat="46.12562" lon="6.86586"/>
      <trkpt lat="46.1257" lon="6.8642"/>
      <trkpt lat="46.12585" lon="6.86384"/>
      <trkpt lat="46.12585" lon="6.86336"/>
      <trkpt lat="46.12597" lon="6.86203"/>
      <trkpt lat="46.12592" lon="6.86105"/>
      <trkpt lat="46.12577" lon="6.86043"/>
      <trkpt lat="46.12557" lon="6.85995"/>
      <trkpt lat="46.12556" lon="6.85984"/>
      <trkpt lat="46.12543" lon="6.85961"/>
      <trkpt lat="46.1252" lon="6.85883"/>
      <trkpt lat="46.12499" lon="6.85842"/>
      <trkpt lat="46.1249" lon="6.85785"/>
      <trkpt lat="46.12435" lon="6.85699"/>
      <trkpt lat="46.12414" lon="6.85695"/>
      <trkpt lat="46.12371" lon="6.85637"/>
      <trkpt lat="46.12311" lon="6.8559"/>
      <trkpt lat="46.12301" lon="6.85576"/>
      <trkpt lat="46.12285" lon="6.8549"/>
      <trkpt lat="46.12287" lon="6.85443"/>
      <trkpt lat="46.12281" lon="6.85369"/>
      <trkpt lat="46.12276" lon="6.85245"/>
      <trkpt lat="46.12257" lon="6.85228"/>
      <trkpt lat="46.12251" lon="6.85207"/>
      <trkpt lat="46.1225" lon="6.85179"/>
      <trkpt lat="46.12236" lon="6.8517"/>
      <trkpt lat="46.12207" lon="6.85107"/>
      <trkpt lat="46.12206" lon="6.85088"/>
      <trkpt lat="46.12194" lon="6.85085"/>
      <trkpt lat="46.12176" lon="6.85055"/>
      <trkpt lat="46.12175" lon="6.85042"/>
      <trkpt lat="46.12162" lon="6.8504"/>
      <trkpt lat="46.12116" lon="6.84953"/>
      <trkpt lat="46.12113" lon="6.84925"/>
      <trkpt lat="46.12101" lon="6.84926"/>
      <trkpt lat="46.12083" lon="6.84909"/>
      <trkpt lat="46.12073" lon="6.84909"/>
      <trkpt lat="46.12009" lon="6.84854"/>
      <trkpt lat="46.1198" lon="6.84804"/>
      <trkpt lat="46.11979" lon="6.84797"/>
      <trkpt lat="46.11961" lon="6.84785"/>
      <trkpt lat="46.11935" lon="6.84751"/>
      <trkpt lat="46.11921" lon="6.84717"/>
      <trkpt lat="46.11887" lon="6.84688"/>
      <trkpt lat="46.11868" lon="6.84654"/>
      <trkpt lat="46.11831" lon="6.84645"/>
      <trkpt lat="46.11797" lon="6.84612"/>
      <trkpt lat="46.11751" lon="6.84494"/>
      <trkpt lat="46.11739" lon="6.84476"/>
      <trkpt lat="46.11739" lon="6.84458"/>
      <trkpt lat="46.11713" lon="6.84428"/>
      <trkpt lat="46.11695" lon="6.84369"/>
      <trkpt lat="46.11678" lon="6.84357"/>
      <trkpt lat="46.11674" lon="6.84366"/>
      <trkpt lat="46.11673" lon="6.84337"/>
      <trkpt lat="46.11699" lon="6.84322"/>
      <trkpt lat="46.11712" lon="6.84302"/>
      <trkpt lat="46.11713" lon="6.8429"/>
      <trkpt lat="46.1171" lon="6.84286"/>
      <trkpt lat="46.11711" lon="6.84275"/>
      <trkpt lat="46.11716" lon="6.84267"/>
      <trkpt lat="46.1173" lon="6.84201"/>
      <trkpt lat="46.1173" lon="6.84115"/>
      <trkpt lat="46.11742" lon="6.84038"/>
      <trkpt lat="46.11737" lon="6.84003"/>
      <trkpt lat="46.11722" lon="6.8398"/>
      <trkpt lat="46.11721" lon="6.83958"/>
      <trkpt lat="46.11716" lon="6.83929"/>
      <trkpt lat="46.1172" lon="6.83895"/>
      <trkpt lat="46.11722" lon="6.83801"/>
      <trkpt lat="46.11728" lon="6.83753"/>
      <trkpt lat="46.11722" lon="6.83703"/>
      <trkpt lat="46.11729" lon="6.837"/>
      <trkpt lat="46.1173" lon="6.83694"/>
      <trkpt lat="46.11738" lon="6.83665"/>
      <trkpt lat="46.11732" lon="6.83654"/>
      <trkpt lat="46.11737" lon="6.83633"/>
      <trkpt lat="46.11737" lon="6.83621"/>
      <trkpt lat="46.11739" lon="6.8361"/>
      <trkpt lat="46.11751" lon="6.83612"/>
      <trkpt lat="46.11756" lon="6.836"/>
      <trkpt lat="46.11758" lon="6.83542"/>
      <trkpt lat="46.11758" lon="6.83527"/>
      <trkpt lat="46.11757" lon="6.83511"/>
      <trkpt lat="46.11729" lon="6.83506"/>
      <trkpt lat="46.11709" lon="6.83444"/>
      <trkpt lat="46.11697" lon="6.83442"/>
      <trkpt lat="46.11628" lon="6.83407"/>
      <trkpt lat="46.11606" lon="6.83401"/>
      <trkpt lat="46.11555" lon="6.834"/>
      <trkpt lat="46.11513" lon="6.8339"/>
      <trkpt lat="46.11507" lon="6.83395"/>
      <trkpt lat="46.1145" lon="6.83406"/>
      <trkpt lat="46.11418" lon="6.83442"/>
      <trkpt lat="46.11386" lon="6.83453"/>
      <trkpt lat="46.11374" lon="6.83477"/>
      <trkpt lat="46.11361" lon="6.83477"/>
      <trkpt lat="46.11333" lon="6.83499"/>
      <trkpt lat="46.11304" lon="6.83545"/>
      <trkpt lat="46.11303" lon="6.83553"/>
      <trkpt lat="46.1127" lon="6.83567"/>
      <trkpt lat="46.1126" lon="6.83576"/>
      <trkpt lat="46.11252" lon="6.83611"/>
      <trkpt lat="46.11237" lon="6.8363"/>
      <trkpt lat="46.11233" lon="6.83637"/>
      <trkpt lat="46.11231" lon="6.83642"/>
      <trkpt lat="46.11234" lon="6.83638"/>
      <trkpt lat="46.11234" lon="6.83643"/>
      <trkpt lat="46.11233" lon="6.83651"/>
      <trkpt lat="46.11234" lon="6.83662"/>
      <trkpt lat="46.11232" lon="6.83673"/>
      <trkpt lat="46.11243" lon="6.83697"/>
      <trkpt lat="46.11246" lon="6.83721"/>
      <trkpt lat="46.11252" lon="6.83744"/>
      <trkpt lat="46.11252" lon="6.8375"/>
      <trkpt lat="46.11228" lon="6.83766"/>
      <trkpt lat="46.11219" lon="6.83769"/>
      <trkpt lat="46.11212" lon="6.83768"/>
      <trkpt lat="46.11211" lon="6.83714"/>
      <trkpt lat="46.1121" lon="6.8371"/>
      <trkpt lat="46.11217" lon="6.8366"/>
      <trkpt lat="46.11232" lon="6.83638"/>
      <trkpt lat="46.11235" lon="6.83632"/>
      <trkpt lat="46.11252" lon="6.83611"/>
      <trkpt lat="46.1126" lon="6.83576"/>
      <trkpt lat="46.1127" lon="6.83567"/>
      <trkpt lat="46.11303" lon="6.83553"/>
      <trkpt lat="46.11304" lon="6.83545"/>
      <trkpt lat="46.11333" lon="6.83499"/>
      <trkpt lat="46.11361" lon="6.83477"/>
      <trkpt lat="46.11375" lon="6.83477"/>
      <trkpt lat="46.11383" lon="6.83455"/>
      <trkpt lat="46.11382" lon="6.83397"/>
      <trkpt lat="46.11379" lon="6.83372"/>
      <trkpt lat="46.1137" lon="6.83351"/>
      <trkpt lat="46.11369" lon="6.83329"/>
      <trkpt lat="46.11359" lon="6.83327"/>
      <trkpt lat="46.11357" lon="6.83316"/>
      <trkpt lat="46.11352" lon="6.83315"/>
      <trkpt lat="46.11345" lon="6.83288"/>
      <trkpt lat="46.11335" lon="6.83272"/>
      <trkpt lat="46.11331" lon="6.83271"/>
      <trkpt lat="46.11329" lon="6.83263"/>
      <trkpt lat="46.11319" lon="6.83257"/>
      <trkpt lat="46.11315" lon="6.83239"/>
      <trkpt lat="46.11305" lon="6.83234"/>
      <trkpt lat="46.11303" lon="6.8322"/>
      <trkpt lat="46.11295" lon="6.83218"/>
      <trkpt lat="46.11293" lon="6.83212"/>
      <trkpt lat="46.11289" lon="6.83182"/>
      <trkpt lat="46.11284" lon="6.83179"/>
      <trkpt lat="46.11285" lon="6.83158"/>
      <trkpt lat="46.11279" lon="6.83155"/>
      <trkpt lat="46.11276" lon="6.83157"/>
      <trkpt lat="46.11268" lon="6.83154"/>
      <trkpt lat="46.11253" lon="6.83174"/>
      <trkpt lat="46.11242" lon="6.83214"/>
      <trkpt lat="46.11241" lon="6.83233"/>
      <trkpt lat="46.11228" lon="6.83251"/>
      <trkpt lat="46.11212" lon="6.83259"/>
      <trkpt lat="46.11205" lon="6.83251"/>
      <trkpt lat="46.11205" lon="6.83237"/>
      <trkpt lat="46.112" lon="6.83232"/>
      <trkpt lat="46.112" lon="6.83173"/>
      <trkpt lat="46.11201" lon="6.83159"/>
      <trkpt lat="46.11233" lon="6.83083"/>
      <trkpt lat="46.11235" lon="6.83043"/>
      <trkpt lat="46.11239" lon="6.83037"/>
      <trkpt lat="46.11243" lon="6.83012"/>
      <trkpt lat="46.11243" lon="6.82958"/>
      <trkpt lat="46.11229" lon="6.82909"/>
      <trkpt lat="46.11196" lon="6.82876"/>
      <trkpt lat="46.11194" lon="6.82861"/>
      <trkpt lat="46.11193" lon="6.82819"/>
      <trkpt lat="46.11146" lon="6.82668"/>
      <trkpt lat="46.11134" lon="6.82612"/>
      <trkpt lat="46.11082" lon="6.82509"/>
      <trkpt lat="46.11067" lon="6.82498"/>
      <trkpt lat="46.1106" lon="6.82476"/>
      <trkpt lat="46.11058" lon="6.82407"/>
      <trkpt lat="46.11042" lon="6.82413"/>
      <trkpt lat="46.1104" lon="6.82409"/>
      <trkpt lat="46.11043" lon="6.82364"/>
      <trkpt lat="46.11041" lon="6.82354"/>
      <trkpt lat="46.1105" lon="6.82303"/>
      <trkpt lat="46.11028" lon="6.82244"/>
      <trkpt lat="46.10997" lon="6.82244"/>
      <trkpt lat="46.10915" lon="6.82265"/>
      <trkpt lat="46.10836" lon="6.82344"/>
      <trkpt lat="46.108" lon="6.82261"/>
      <trkpt lat="46.10786" lon="6.82164"/>
      <trkpt lat="46.10784" lon="6.82045"/>
      <trkpt lat="46.10727" lon="6.8185"/>
      <trkpt lat="46.10697" lon="6.81672"/>
      <trkpt lat="46.10682" lon="6.81407"/>
      <trkpt lat="46.10586" lon="6.81053"/>
      <trkpt lat="46.10503" lon="6.80795"/>
      <trkpt lat="46.10445" lon="6.80545"/>
      <trkpt lat="46.10405" lon="6.80266"/>
      <trkpt lat="46.10405" lon="6.8019"/>
      <trkpt lat="46.10312" lon="6.80083"/>
      <trkpt lat="46.10264" lon="6.79909"/>
      <trkpt lat="46.10247" lon="6.79745"/>
      <trkpt lat="46.10249" lon="6.79649"/>
      <trkpt lat="46.10257" lon="6.79577"/>
      <trkpt lat="46.10272" lon="6.79433"/>
      <trkpt lat="46.10257" lon="6.7934"/>
      <trkpt lat="46.10274" lon="6.79286"/>
      <trkpt lat="46.10207" lon="6.79156"/>
      <trkpt lat="46.10193" lon="6.79078"/>
      <trkpt lat="46.1019" lon="6.78984"/>
      <trkpt lat="46.10167" lon="6.78908"/>
      <trkpt lat="46.10136" lon="6.7889"/>
      <trkpt lat="46.10115" lon="6.78805"/>
      <trkpt lat="46.10115" lon="6.78777"/>
      <trkpt lat="46.10119" lon="6.78748"/>
      <trkpt lat="46.10166" lon="6.78708"/>
      <trkpt lat="46.10179" lon="6.78635"/>
      <trkpt lat="46.10178" lon="6.7858"/>
      <trkpt lat="46.10179" lon="6.78568"/>
      <trkpt lat="46.10177" lon="6.78539"/>
      <trkpt lat="46.10177" lon="6.78525"/>
      <trkpt lat="46.1017" lon="6.78489"/>
      <trkpt lat="46.10157" lon="6.78469"/>
      <trkpt lat="46.10168" lon="6.78436"/>
      <trkpt lat="46.10154" lon="6.78404"/>
      <trkpt lat="46.10108" lon="6.78352"/>
      <trkpt lat="46.10097" lon="6.78347"/>
      <trkpt lat="46.10084" lon="6.78308"/>
      <trkpt lat="46.10073" lon="6.78302"/>
      <trkpt lat="46.10068" lon="6.78282"/>
      <trkpt lat="46.10066" lon="6.78257"/>
      <trkpt lat="46.10035" lon="6.78249"/>
      <trkpt lat="46.10024" lon="6.78206"/>
      <trkpt lat="46.10046" lon="6.78182"/>
      <trkpt lat="46.10075" lon="6.78178"/>
      <trkpt lat="46.10082" lon="6.7814"/>
      <trkpt lat="46.1009" lon="6.78134"/>
      <trkpt lat="46.10084" lon="6.78117"/>
      <trkpt lat="46.10102" lon="6.78092"/>
      <trkpt lat="46.10102" lon="6.78084"/>
      <trkpt lat="46.10104" lon="6.78077"/>
      <trkpt lat="46.10109" lon="6.78076"/>
      <trkpt lat="46.1011" lon="6.78072"/>
      <trkpt lat="46.10126" lon="6.78057"/>
      <trkpt lat="46.10134" lon="6.78038"/>
      <trkpt lat="46.1015" lon="6.77991"/>
      <trkpt lat="46.10151" lon="6.77964"/>
      <trkpt lat="46.10161" lon="6.77949"/>
      <trkpt lat="46.10163" lon="6.77927"/>
      <trkpt lat="46.10162" lon="6.77923"/>
      <trkpt lat="46.10181" lon="6.77866"/>
      <trkpt lat="46.10211" lon="6.77839"/>
      <trkpt lat="46.10215" lon="6.77813"/>
      <trkpt lat="46.10222" lon="6.77814"/>
      <trkpt lat="46.10223" lon="6.77803"/>
      <trkpt lat="46.10222" lon="6.77784"/>
      <trkpt lat="46.10212" lon="6.77765"/>
      <trkpt lat="46.10181" lon="6.77745"/>
      <trkpt lat="46.10188" lon="6.7774"/>
      <trkpt lat="46.10181" lon="6.77731"/>
      <trkpt lat="46.10218" lon="6.77704"/>
      <trkpt lat="46.10221" lon="6.77607"/>
      <trkpt lat="46.10224" lon="6.77598"/>
      <trkpt lat="46.10228" lon="6.77594"/>
      <trkpt lat="46.10226" lon="6.77581"/>
      <trkpt lat="46.10229" lon="6.77577"/>
      <trkpt lat="46.10229" lon="6.77572"/>
      <trkpt lat="46.10229" lon="6.77562"/>
      <trkpt lat="46.10233" lon="6.7756"/>
      <trkpt lat="46.10231" lon="6.77552"/>
      <trkpt lat="46.10238" lon="6.77549"/>
      <trkpt lat="46.10235" lon="6.77541"/>
      <trkpt lat="46.10237" lon="6.77534"/>
      <trkpt lat="46.10254" lon="6.77514"/>
      <trkpt lat="46.10264" lon="6.7751"/>
      <trkpt lat="46.10262" lon="6.77495"/>
      <trkpt lat="46.1026" lon="6.77442"/>
      <trkpt lat="46.10265" lon="6.77419"/>
      <trkpt lat="46.10271" lon="6.77418"/>
      <trkpt lat="46.1028" lon="6.77406"/>
      <trkpt lat="46.10289" lon="6.77408"/>
      <trkpt lat="46.10295" lon="6.77406"/>
      <trkpt lat="46.10298" lon="6.77392"/>
      <trkpt lat="46.10303" lon="6.77393"/>
      <trkpt lat="46.10332" lon="6.77454"/>
      <trkpt lat="46.10342" lon="6.77455"/>
      <trkpt lat="46.10346" lon="6.77451"/>
      <trkpt lat="46.10342" lon="6.7741"/>
      <trkpt lat="46.10343" lon="6.77389"/>
      <trkpt lat="46.10348" lon="6.77374"/>
      <trkpt lat="46.10346" lon="6.77364"/>
      <trkpt lat="46.10342" lon="6.77352"/>
      <trkpt lat="46.10341" lon="6.77339"/>
      <trkpt lat="46.10331" lon="6.77333"/>
      <trkpt lat="46.10316" lon="6.77297"/>
      <trkpt lat="46.10316" lon="6.77292"/>
      <trkpt lat="46.10325" lon="6.77295"/>
      <trkpt lat="46.1032" lon="6.77253"/>
      <trkpt lat="46.10323" lon="6.77252"/>
      <trkpt lat="46.10324" lon="6.77241"/>
      <trkpt lat="46.10332" lon="6.77248"/>
      <trkpt lat="46.10347" lon="6.77272"/>
      <trkpt lat="46.10361" lon="6.77281"/>
      <trkpt lat="46.10365" lon="6.7729"/>
      <trkpt lat="46.10376" lon="6.77294"/>
      <trkpt lat="46.10382" lon="6.77315"/>
      <trkpt lat="46.10388" lon="6.77325"/>
      <trkpt lat="46.10405" lon="6.77333"/>
      <trkpt lat="46.10419" lon="6.77361"/>
      <trkpt lat="46.10438" lon="6.77377"/>
      <trkpt lat="46.10442" lon="6.77399"/>
      <trkpt lat="46.10451" lon="6.7742"/>
      <trkpt lat="46.10458" lon="6.77424"/>
      <trkpt lat="46.10467" lon="6.77451"/>
      <trkpt lat="46.10469" lon="6.77462"/>
      <trkpt lat="46.10479" lon="6.77478"/>
      <trkpt lat="46.10482" lon="6.77491"/>
      <trkpt lat="46.10489" lon="6.77503"/>
      <trkpt lat="46.10515" lon="6.77524"/>
      <trkpt lat="46.10524" lon="6.77548"/>
      <trkpt lat="46.10526" lon="6.77559"/>
      <trkpt lat="46.10526" lon="6.77565"/>
      <trkpt lat="46.10529" lon="6.7757"/>
      <trkpt lat="46.10535" lon="6.77571"/>
      <trkpt lat="46.10551" lon="6.77606"/>
      <trkpt lat="46.1056" lon="6.77631"/>
      <trkpt lat="46.1056" lon="6.7764"/>
      <trkpt lat="46.10564" lon="6.77649"/>
      <trkpt lat="46.10563" lon="6.77661"/>
      <trkpt lat="46.10565" lon="6.77683"/>
      <trkpt lat="46.10575" lon="6.77717"/>
      <trkpt lat="46.10572" lon="6.77722"/>
      <trkpt lat="46.10578" lon="6.77742"/>
      <trkpt lat="46.10605" lon="6.77787"/>
      <trkpt lat="46.10615" lon="6.77791"/>
      <trkpt lat="46.10634" lon="6.77818"/>
      <trkpt lat="46.10648" lon="6.77896"/>
      <trkpt lat="46.10663" lon="6.7792"/>
      <trkpt lat="46.10667" lon="6.77958"/>
      <trkpt lat="46.10707" lon="6.78013"/>
      <trkpt lat="46.1073" lon="6.78067"/>
      <trkpt lat="46.10753" lon="6.7809"/>
      <trkpt lat="46.10765" lon="6.7813"/>
      <trkpt lat="46.10775" lon="6.78143"/>
      <trkpt lat="46.10782" lon="6.78144"/>
      <trkpt lat="46.10798" lon="6.78156"/>
      <trkpt lat="46.10814" lon="6.78175"/>
      <trkpt lat="46.10826" lon="6.78203"/>
      <trkpt lat="46.10832" lon="6.78225"/>
      <trkpt lat="46.10836" lon="6.78231"/>
      <trkpt lat="46.10844" lon="6.78232"/>
      <trkpt lat="46.1085" lon="6.78248"/>
      <trkpt lat="46.10851" lon="6.78265"/>
      <trkpt lat="46.1088" lon="6.7829"/>
      <trkpt lat="46.10883" lon="6.78309"/>
      <trkpt lat="46.109" lon="6.78337"/>
      <trkpt lat="46.10906" lon="6.78372"/>
      <trkpt lat="46.10922" lon="6.78393"/>
      <trkpt lat="46.10933" lon="6.78444"/>
      <trkpt lat="46.10942" lon="6.78448"/>
      <trkpt lat="46.10962" lon="6.785"/>
      <trkpt lat="46.10967" lon="6.78504"/>
      <trkpt lat="46.10966" lon="6.78509"/>
      <trkpt lat="46.10968" lon="6.78514"/>
      <trkpt lat="46.10979" lon="6.78521"/>
      <trkpt lat="46.10985" lon="6.7856"/>
      <trkpt lat="46.11023" lon="6.78619"/>
      <trkpt lat="46.1103" lon="6.78621"/>
      <trkpt lat="46.11047" lon="6.78696"/>
      <trkpt lat="46.11055" lon="6.78708"/>
      <trkpt lat="46.11066" lon="6.78713"/>
      <trkpt lat="46.11092" lon="6.78758"/>
      <trkpt lat="46.11093" lon="6.78773"/>
      <trkpt lat="46.11118" lon="6.78804"/>
      <trkpt lat="46.11135" lon="6.78882"/>
      <trkpt lat="46.11143" lon="6.78885"/>
      <trkpt lat="46.11158" lon="6.78956"/>
      <trkpt lat="46.11158" lon="6.78966"/>
      <trkpt lat="46.1116" lon="6.7898"/>
      <trkpt lat="46.11161" lon="6.78989"/>
      <trkpt lat="46.11161" lon="6.78998"/>
      <trkpt lat="46.11171" lon="6.79026"/>
      <trkpt lat="46.11173" lon="6.79041"/>
      <trkpt lat="46.11177" lon="6.79046"/>
      <trkpt lat="46.11176" lon="6.79053"/>
      <trkpt lat="46.11179" lon="6.79057"/>
      <trkpt lat="46.11178" lon="6.79068"/>
      <trkpt lat="46.11183" lon="6.79078"/>
      <trkpt lat="46.11186" lon="6.79102"/>
      <trkpt lat="46.11207" lon="6.79121"/>
      <trkpt lat="46.11219" lon="6.79155"/>
      <trkpt lat="46.11223" lon="6.79182"/>
      <trkpt lat="46.11247" lon="6.79215"/>
      <trkpt lat="46.11249" lon="6.79231"/>
      <trkpt lat="46.11256" lon="6.7926"/>
      <trkpt lat="46.11256" lon="6.79283"/>
      <trkpt lat="46.1126" lon="6.79312"/>
      <trkpt lat="46.11294" lon="6.79399"/>
      <trkpt lat="46.11303" lon="6.79405"/>
      <trkpt lat="46.1131" lon="6.79429"/>
      <trkpt lat="46.11324" lon="6.79438"/>
      <trkpt lat="46.11359" lon="6.79522"/>
      <trkpt lat="46.1137" lon="6.79529"/>
      <trkpt lat="46.11387" lon="6.79583"/>
      <trkpt lat="46.11409" lon="6.79617"/>
      <trkpt lat="46.1143" lon="6.79662"/>
      <trkpt lat="46.11438" lon="6.79669"/>
      <trkpt lat="46.11447" lon="6.79713"/>
      <trkpt lat="46.11465" lon="6.79726"/>
      <trkpt lat="46.1148" lon="6.79727"/>
      <trkpt lat="46.11488" lon="6.79738"/>
      <trkpt lat="46.11501" lon="6.79741"/>
      <trkpt lat="46.11506" lon="6.79753"/>
      <trkpt lat="46.11529" lon="6.79761"/>
      <trkpt lat="46.11589" lon="6.79818"/>
      <trkpt lat="46.11591" lon="6.79825"/>
      <trkpt lat="46.11584" lon="6.79853"/>
      <trkpt lat="46.11607" lon="6.7991"/>
      <trkpt lat="46.11622" lon="6.79955"/>
      <trkpt lat="46.11633" lon="6.79978"/>
      <trkpt lat="46.11638" lon="6.79996"/>
      <trkpt lat="46.1164" lon="6.80053"/>
      <trkpt lat="46.11656" lon="6.8006"/>
      <trkpt lat="46.1167" lon="6.80081"/>
      <trkpt lat="46.11765" lon="6.80132"/>
      <trkpt lat="46.11769" lon="6.80151"/>
      <trkpt lat="46.11778" lon="6.80152"/>
      <trkpt lat="46.11789" lon="6.8014"/>
      <trkpt lat="46.11793" lon="6.80144"/>
      <trkpt lat="46.11818" lon="6.80225"/>
      <trkpt lat="46.1185" lon="6.80255"/>
      <trkpt lat="46.11868" lon="6.80252"/>
      <trkpt lat="46.11874" lon="6.80254"/>
      <trkpt lat="46.11897" lon="6.80305"/>
      <trkpt lat="46.11913" lon="6.8033"/>
      <trkpt lat="46.11934" lon="6.80344"/>
      <trkpt lat="46.1194" lon="6.80365"/>
      <trkpt lat="46.11954" lon="6.80378"/>
      <trkpt lat="46.11958" lon="6.80387"/>
      <trkpt lat="46.1197" lon="6.80412"/>
      <trkpt lat="46.11975" lon="6.80414"/>
      <trkpt lat="46.11984" lon="6.80413"/>
      <trkpt lat="46.11991" lon="6.80401"/>
      <trkpt lat="46.12005" lon="6.80397"/>
      <trkpt lat="46.1201" lon="6.80365"/>
      <trkpt lat="46.12027" lon="6.80349"/>
      <trkpt lat="46.12032" lon="6.80317"/>
      <trkpt lat="46.12038" lon="6.80315"/>
      <trkpt lat="46.12041" lon="6.80361"/>
      <trkpt lat="46.12051" lon="6.80373"/>
      <trkpt lat="46.12067" lon="6.80361"/>
      <trkpt lat="46.12073" lon="6.80365"/>
      <trkpt lat="46.1209" lon="6.80416"/>
      <trkpt lat="46.12106" lon="6.80486"/>
      <trkpt lat="46.12106" lon="6.80518"/>
      <trkpt lat="46.12116" lon="6.80536"/>
      <trkpt lat="46.12133" lon="6.80619"/>
      <trkpt lat="46.12165" lon="6.80682"/>
      <trkpt lat="46.1219" lon="6.80701"/>
      <trkpt lat="46.12192" lon="6.80709"/>
      <trkpt lat="46.12202" lon="6.80713"/>
      <trkpt lat="46.1222" lon="6.80769"/>
      <trkpt lat="46.12247" lon="6.80829"/>
      <trkpt lat="46.1225" lon="6.80829"/>
      <trkpt lat="46.12262" lon="6.80804"/>
      <trkpt lat="46.12272" lon="6.80798"/>
      <trkpt lat="46.12302" lon="6.80827"/>
      <trkpt lat="46.12322" lon="6.80879"/>
      <trkpt lat="46.12372" lon="6.80953"/>
      <trkpt lat="46.12374" lon="6.80979"/>
      <trkpt lat="46.12398" lon="6.81011"/>
      <trkpt lat="46.12422" lon="6.81032"/>
      <trkpt lat="46.12432" lon="6.81021"/>
      <trkpt lat="46.12492" lon="6.81039"/>
      <trkpt lat="46.12503" lon="6.81048"/>
      <trkpt lat="46.12513" lon="6.81077"/>
      <trkpt lat="46.12521" lon="6.81081"/>
      <trkpt lat="46.12527" lon="6.81079"/>
      <trkpt lat="46.12537" lon="6.81085"/>
      <trkpt lat="46.12557" lon="6.81121"/>
      <trkpt lat="46.12574" lon="6.81208"/>
      <trkpt lat="46.12577" lon="6.81214"/>
      <trkpt lat="46.12589" lon="6.81218"/>
      <trkpt lat="46.12614" lon="6.81243"/>
      <trkpt lat="46.12628" lon="6.81244"/>
      <trkpt lat="46.1263" lon="6.81238"/>
      <trkpt lat="46.12635" lon="6.81239"/>
      <trkpt lat="46.12641" lon="6.81219"/>
      <trkpt lat="46.12658" lon="6.81217"/>
      <trkpt lat="46.12691" lon="6.81202"/>
      <trkpt lat="46.12708" lon="6.81205"/>
      <trkpt lat="46.12709" lon="6.81202"/>
      <trkpt lat="46.12719" lon="6.81226"/>
      <trkpt lat="46.12721" lon="6.81205"/>
      <trkpt lat="46.12733" lon="6.81216"/>
      <trkpt lat="46.12759" lon="6.8119"/>
      <trkpt lat="46.12776" lon="6.81147"/>
      <trkpt lat="46.12782" lon="6.81142"/>
      <trkpt lat="46.12779" lon="6.81134"/>
      <trkpt lat="46.1278" lon="6.81124"/>
      <trkpt lat="46.12795" lon="6.81127"/>
      <trkpt lat="46.12805" lon="6.81137"/>
      <trkpt lat="46.12833" lon="6.811"/>
      <trkpt lat="46.12839" lon="6.81103"/>
      <trkpt lat="46.12845" lon="6.81095"/>
      <trkpt lat="46.12847" lon="6.81098"/>
      <trkpt lat="46.12853" lon="6.81095"/>
      <trkpt lat="46.12859" lon="6.81099"/>
      <trkpt lat="46.12864" lon="6.81096"/>
      <trkpt lat="46.12869" lon="6.81101"/>
      <trkpt lat="46.12886" lon="6.81087"/>
      <trkpt lat="46.12901" lon="6.81094"/>
      <trkpt lat="46.1291" lon="6.81083"/>
      <trkpt lat="46.12915" lon="6.81085"/>
      <trkpt lat="46.12921" lon="6.81078"/>
      <trkpt lat="46.1294" lon="6.81083"/>
      <trkpt lat="46.12957" lon="6.811"/>
      <trkpt lat="46.12974" lon="6.81104"/>
      <trkpt lat="46.12988" lon="6.81104"/>
      <trkpt lat="46.13003" lon="6.81082"/>
      <trkpt lat="46.13019" lon="6.81086"/>
      <trkpt lat="46.13065" lon="6.81101"/>
      <trkpt lat="46.13079" lon="6.81099"/>
      <trkpt lat="46.13085" lon="6.81103"/>
      <trkpt lat="46.13098" lon="6.81101"/>
      <trkpt lat="46.13105" lon="6.81127"/>
      <trkpt lat="46.1313" lon="6.81128"/>
      <trkpt lat="46.13144" lon="6.81134"/>
      <trkpt lat="46.13191" lon="6.81114"/>
      <trkpt lat="46.13243" lon="6.8108"/>
      <trkpt lat="46.1326" lon="6.81053"/>
      <trkpt lat="46.13302" lon="6.81043"/>
      <trkpt lat="46.13357" lon="6.80986"/>
      <trkpt lat="46.13365" lon="6.80987"/>
      <trkpt lat="46.13375" lon="6.81024"/>
      <trkpt lat="46.13387" lon="6.81022"/>
      <trkpt lat="46.13391" lon="6.81014"/>
      <trkpt lat="46.13413" lon="6.80985"/>
      <trkpt lat="46.13425" lon="6.80978"/>
      <trkpt lat="46.13421" lon="6.80932"/>
      <trkpt lat="46.13425" lon="6.80861"/>
      <trkpt lat="46.13423" lon="6.80849"/>
      <trkpt lat="46.13422" lon="6.80801"/>
      <trkpt lat="46.1341" lon="6.80802"/>
      <trkpt lat="46.13407" lon="6.80789"/>
      <trkpt lat="46.13409" lon="6.80784"/>
      <trkpt lat="46.13405" lon="6.80753"/>
      <trkpt lat="46.13387" lon="6.80723"/>
      <trkpt lat="46.13383" lon="6.80718"/>
      <trkpt lat="46.13384" lon="6.807"/>
      <trkpt lat="46.13385" lon="6.80695"/>
      <trkpt lat="46.13385" lon="6.80672"/>
      <trkpt lat="46.13383" lon="6.80668"/>
      <trkpt lat="46.1337" lon="6.80668"/>
      <trkpt lat="46.13347" lon="6.80662"/>
      <trkpt lat="46.13344" lon="6.80642"/>
      <trkpt lat="46.13333" lon="6.8064"/>
      <trkpt lat="46.13331" lon="6.80631"/>
      <trkpt lat="46.13323" lon="6.80629"/>
      <trkpt lat="46.13294" lon="6.80557"/>
      <trkpt lat="46.13273" lon="6.80557"/>
      <trkpt lat="46.13249" lon="6.80499"/>
      <trkpt lat="46.1323" lon="6.80463"/>
      <trkpt lat="46.1322" lon="6.8042"/>
      <trkpt lat="46.13226" lon="6.80375"/>
      <trkpt lat="46.13218" lon="6.80345"/>
      <trkpt lat="46.13216" lon="6.80324"/>
      <trkpt lat="46.13204" lon="6.80308"/>
      <trkpt lat="46.13172" lon="6.80289"/>
      <trkpt lat="46.13138" lon="6.8023"/>
      <trkpt lat="46.13123" lon="6.80189"/>
      <trkpt lat="46.13116" lon="6.80185"/>
      <trkpt lat="46.13112" lon="6.8017"/>
      <trkpt lat="46.13112" lon="6.80147"/>
      <trkpt lat="46.13114" lon="6.80118"/>
      <trkpt lat="46.13112" lon="6.80111"/>
      <trkpt lat="46.13112" lon="6.80081"/>
      <trkpt lat="46.13105" lon="6.80072"/>
      <trkpt lat="46.13103" lon="6.80052"/>
      <trkpt lat="46.13099" lon="6.80044"/>
      <trkpt lat="46.13098" lon="6.80037"/>
      <trkpt lat="46.13092" lon="6.80022"/>
      <trkpt lat="46.13089" lon="6.80008"/>
      <trkpt lat="46.13075" lon="6.8"/>
      <trkpt lat="46.13065" lon="6.79981"/>
      <trkpt lat="46.13061" lon="6.79961"/>
      <trkpt lat="46.13049" lon="6.79948"/>
      <trkpt lat="46.13041" lon="6.79921"/>
      <trkpt lat="46.13029" lon="6.79908"/>
      <trkpt lat="46.13" lon="6.79903"/>
      <trkpt lat="46.12971" lon="6.79883"/>
      <trkpt lat="46.1296" lon="6.79854"/>
      <trkpt lat="46.12946" lon="6.79852"/>
      <trkpt lat="46.12942" lon="6.79852"/>
      <trkpt lat="46.12919" lon="6.79827"/>
      <trkpt lat="46.12907" lon="6.79788"/>
      <trkpt lat="46.12886" lon="6.79758"/>
      <trkpt lat="46.12886" lon="6.79747"/>
      <trkpt lat="46.12884" lon="6.79703"/>
      <trkpt lat="46.12878" lon="6.79696"/>
      <trkpt lat="46.12882" lon="6.79661"/>
      <trkpt lat="46.12874" lon="6.79641"/>
      <trkpt lat="46.12874" lon="6.7963"/>
      <trkpt lat="46.12869" lon="6.7962"/>
      <trkpt lat="46.1287" lon="6.79613"/>
      <trkpt lat="46.12862" lon="6.79606"/>
      <trkpt lat="46.12863" lon="6.79595"/>
      <trkpt lat="46.12856" lon="6.79576"/>
      <trkpt lat="46.12845" lon="6.79575"/>
      <trkpt lat="46.12831" lon="6.79525"/>
      <trkpt lat="46.12831" lon="6.79503"/>
      <trkpt lat="46.12829" lon="6.79494"/>
      <trkpt lat="46.12813" lon="6.79489"/>
      <trkpt lat="46.12799" lon="6.79491"/>
      <trkpt lat="46.12778" lon="6.79476"/>
      <trkpt lat="46.12773" lon="6.79465"/>
      <trkpt lat="46.12771" lon="6.79429"/>
      <trkpt lat="46.12763" lon="6.79406"/>
      <trkpt lat="46.12754" lon="6.79396"/>
      <trkpt lat="46.12752" lon="6.79384"/>
      <trkpt lat="46.12747" lon="6.79375"/>
      <trkpt lat="46.12745" lon="6.79352"/>
      <trkpt lat="46.12745" lon="6.7933"/>
      <trkpt lat="46.12742" lon="6.79316"/>
      <trkpt lat="46.12739" lon="6.79288"/>
      <trkpt lat="46.12728" lon="6.7927"/>
      <trkpt lat="46.12725" lon="6.79248"/>
      <trkpt lat="46.12712" lon="6.79217"/>
      <trkpt lat="46.1269" lon="6.79133"/>
      <trkpt lat="46.12667" lon="6.79096"/>
      <trkpt lat="46.1266" lon="6.79035"/>
      <trkpt lat="46.12663" lon="6.7901"/>
      <trkpt lat="46.12663" lon="6.78977"/>
      <trkpt lat="46.12662" lon="6.78972"/>
      <trkpt lat="46.12663" lon="6.78953"/>
      <trkpt lat="46.12667" lon="6.78952"/>
      <trkpt lat="46.12638" lon="6.78892"/>
      <trkpt lat="46.1257" lon="6.78742"/>
      <trkpt lat="46.1257" lon="6.78711"/>
      <trkpt lat="46.12557" lon="6.78645"/>
      <trkpt lat="46.12568" lon="6.78607"/>
      <trkpt lat="46.12558" lon="6.78587"/>
      <trkpt lat="46.12549" lon="6.78518"/>
      <trkpt lat="46.12537" lon="6.78496"/>
      <trkpt lat="46.12528" lon="6.78382"/>
      <trkpt lat="46.12516" lon="6.78346"/>
      <trkpt lat="46.12516" lon="6.78338"/>
      <trkpt lat="46.12508" lon="6.78312"/>
      <trkpt lat="46.12497" lon="6.78249"/>
      <trkpt lat="46.12495" lon="6.78193"/>
      <trkpt lat="46.12481" lon="6.78161"/>
      <trkpt lat="46.12473" lon="6.78132"/>
      <trkpt lat="46.12449" lon="6.78103"/>
      <trkpt lat="46.12445" lon="6.78082"/>
      <trkpt lat="46.12446" lon="6.78061"/>
      <trkpt lat="46.1244" lon="6.78039"/>
      <trkpt lat="46.12427" lon="6.78025"/>
      <trkpt lat="46.12425" lon="6.78016"/>
      <trkpt lat="46.12416" lon="6.78014"/>
      <trkpt lat="46.124" lon="6.78022"/>
      <trkpt lat="46.12394" lon="6.7802"/>
      <trkpt lat="46.12381" lon="6.77968"/>
      <trkpt lat="46.12375" lon="6.77984"/>
      <trkpt lat="46.1236" lon="6.77959"/>
      <trkpt lat="46.12354" lon="6.77957"/>
      <trkpt lat="46.12354" lon="6.77933"/>
      <trkpt lat="46.12354" lon="6.77918"/>
      <trkpt lat="46.12348" lon="6.77911"/>
      <trkpt lat="46.12357" lon="6.77875"/>
      <trkpt lat="46.1236" lon="6.77853"/>
      <trkpt lat="46.12368" lon="6.77613"/>
      <trkpt lat="46.12364" lon="6.77515"/>
      <trkpt lat="46.12363" lon="6.77406"/>
      <trkpt lat="46.12367" lon="6.77402"/>
      <trkpt lat="46.12378" lon="6.77354"/>
      <trkpt lat="46.12387" lon="6.77345"/>
      <trkpt lat="46.12409" lon="6.77287"/>
      <trkpt lat="46.1241" lon="6.77164"/>
      <trkpt lat="46.12443" lon="6.77133"/>
      <trkpt lat="46.12445" lon="6.77122"/>
      <trkpt lat="46.12453" lon="6.7712"/>
      <trkpt lat="46.12504" lon="6.77047"/>
      <trkpt lat="46.12517" lon="6.77042"/>
      <trkpt lat="46.12569" lon="6.76964"/>
      <trkpt lat="46.12582" lon="6.76961"/>
      <trkpt lat="46.12629" lon="6.76918"/>
      <trkpt lat="46.12673" lon="6.76908"/>
      <trkpt lat="46.12699" lon="6.76909"/>
      <trkpt lat="46.12702" lon="6.76906"/>
      <trkpt lat="46.12717" lon="6.76873"/>
      <trkpt lat="46.12703" lon="6.76828"/>
      <trkpt lat="46.12678" lon="6.76805"/>
      <trkpt lat="46.12676" lon="6.76796"/>
      <trkpt lat="46.12678" lon="6.76783"/>
      <trkpt lat="46.12674" lon="6.76763"/>
      <trkpt lat="46.12671" lon="6.76762"/>
      <trkpt lat="46.1267" lon="6.76695"/>
      <trkpt lat="46.12664" lon="6.76679"/>
      <trkpt lat="46.12666" lon="6.76672"/>
      <trkpt lat="46.12662" lon="6.76634"/>
      <trkpt lat="46.12662" lon="6.76626"/>
      <trkpt lat="46.12683" lon="6.76583"/>
      <trkpt lat="46.12697" lon="6.76576"/>
      <trkpt lat="46.12699" lon="6.76551"/>
      <trkpt lat="46.12723" lon="6.76519"/>
      <trkpt lat="46.12761" lon="6.7651"/>
      <trkpt lat="46.12783" lon="6.76466"/>
      <trkpt lat="46.12789" lon="6.76431"/>
      <trkpt lat="46.12806" lon="6.76421"/>
      <trkpt lat="46.12825" lon="6.76421"/>
      <trkpt lat="46.1285" lon="6.76406"/>
      <trkpt lat="46.12852" lon="6.76398"/>
      <trkpt lat="46.12865" lon="6.76393"/>
      <trkpt lat="46.1287" lon="6.76383"/>
      <trkpt lat="46.12946" lon="6.76396"/>
      <trkpt lat="46.12983" lon="6.7639"/>
      <trkpt lat="46.12986" lon="6.76375"/>
      <trkpt lat="46.12995" lon="6.76367"/>
      <trkpt lat="46.13024" lon="6.76373"/>
      <trkpt lat="46.13031" lon="6.76371"/>
      <trkpt lat="46.13032" lon="6.76364"/>
      <trkpt lat="46.13033" lon="6.76313"/>
      <trkpt lat="46.13023" lon="6.76257"/>
      <trkpt lat="46.13021" lon="6.76182"/>
      <trkpt lat="46.13039" lon="6.76161"/>
      <trkpt lat="46.13038" lon="6.76119"/>
      <trkpt lat="46.13044" lon="6.76096"/>
      <trkpt lat="46.13056" lon="6.76095"/>
      <trkpt lat="46.13134" lon="6.76098"/>
      <trkpt lat="46.13147" lon="6.7611"/>
      <trkpt lat="46.13163" lon="6.76165"/>
      <trkpt lat="46.13163" lon="6.76194"/>
      <trkpt lat="46.13149" lon="6.76219"/>
      <trkpt lat="46.13147" lon="6.76239"/>
      <trkpt lat="46.13149" lon="6.76354"/>
      <trkpt lat="46.13148" lon="6.76389"/>
      <trkpt lat="46.13177" lon="6.76395"/>
      <trkpt lat="46.13187" lon="6.76405"/>
      <trkpt lat="46.13204" lon="6.76436"/>
      <trkpt lat="46.13211" lon="6.76438"/>
      <trkpt lat="46.13238" lon="6.76426"/>
      <trkpt lat="46.13272" lon="6.76432"/>
      <trkpt lat="46.13291" lon="6.7643"/>
      <trkpt lat="46.13361" lon="6.76436"/>
      <trkpt lat="46.13385" lon="6.76431"/>
      <trkpt lat="46.13398" lon="6.76433"/>
      <trkpt lat="46.13423" lon="6.76474"/>
      <trkpt lat="46.13437" lon="6.76483"/>
      <trkpt lat="46.13446" lon="6.76484"/>
      <trkpt lat="46.13506" lon="6.76524"/>
      <trkpt lat="46.13528" lon="6.7657"/>
      <trkpt lat="46.13534" lon="6.76612"/>
      <trkpt lat="46.13539" lon="6.76627"/>
      <trkpt lat="46.13569" lon="6.76639"/>
      <trkpt lat="46.13598" lon="6.76604"/>
      <trkpt lat="46.13646" lon="6.76645"/>
      <trkpt lat="46.13704" lon="6.7668"/>
      <trkpt lat="46.13709" lon="6.76692"/>
      <trkpt lat="46.13709" lon="6.76708"/>
      <trkpt lat="46.13708" lon="6.76716"/>
      <trkpt lat="46.13685" lon="6.7671"/>
      <trkpt lat="46.13637" lon="6.76718"/>
      <trkpt lat="46.13625" lon="6.76736"/>
      <trkpt lat="46.136" lon="6.76752"/>
      <trkpt lat="46.13596" lon="6.76767"/>
      <trkpt lat="46.13596" lon="6.76775"/>
      <trkpt lat="46.136" lon="6.76787"/>
      <trkpt lat="46.1362" lon="6.7681"/>
      <trkpt lat="46.13644" lon="6.76888"/>
      <trkpt lat="46.13661" lon="6.76911"/>
      <trkpt lat="46.13672" lon="6.76915"/>
      <trkpt lat="46.13677" lon="6.76942"/>
      <trkpt lat="46.13678" lon="6.76965"/>
      <trkpt lat="46.13674" lon="6.77011"/>
      <trkpt lat="46.13656" lon="6.77039"/>
      <trkpt lat="46.13651" lon="6.77124"/>
      <trkpt lat="46.13652" lon="6.77152"/>
      <trkpt lat="46.13649" lon="6.77164"/>
      <trkpt lat="46.13642" lon="6.77179"/>
      <trkpt lat="46.1364" lon="6.77222"/>
      <trkpt lat="46.13645" lon="6.77274"/>
      <trkpt lat="46.1365" lon="6.77297"/>
      <trkpt lat="46.13707" lon="6.77365"/>
      <trkpt lat="46.13707" lon="6.77381"/>
      <trkpt lat="46.13722" lon="6.77401"/>
      <trkpt lat="46.13729" lon="6.77424"/>
      <trkpt lat="46.13744" lon="6.77406"/>
      <trkpt lat="46.13747" lon="6.77391"/>
      <trkpt lat="46.1376" lon="6.77408"/>
      <trkpt lat="46.13761" lon="6.77424"/>
      <trkpt lat="46.13776" lon="6.77506"/>
      <trkpt lat="46.13795" lon="6.77536"/>
      <trkpt lat="46.13806" lon="6.77541"/>
      <trkpt lat="46.13818" lon="6.77565"/>
      <trkpt lat="46.13827" lon="6.77566"/>
      <trkpt lat="46.13862" lon="6.77546"/>
      <trkpt lat="46.13872" lon="6.77529"/>
      <trkpt lat="46.13899" lon="6.77511"/>
      <trkpt lat="46.13902" lon="6.77506"/>
      <trkpt lat="46.13908" lon="6.77497"/>
      <trkpt lat="46.13952" lon="6.77397"/>
      <trkpt lat="46.13978" lon="6.77399"/>
      <trkpt lat="46.14007" lon="6.77425"/>
      <trkpt lat="46.14014" lon="6.77424"/>
      <trkpt lat="46.1402" lon="6.77418"/>
      <trkpt lat="46.1406" lon="6.77369"/>
      <trkpt lat="46.14061" lon="6.77375"/>
      <trkpt lat="46.14055" lon="6.77413"/>
      <trkpt lat="46.14052" lon="6.77441"/>
      <trkpt lat="46.14055" lon="6.77537"/>
      <trkpt lat="46.14052" lon="6.77546"/>
      <trkpt lat="46.14027" lon="6.77576"/>
      <trkpt lat="46.14025" lon="6.77629"/>
      <trkpt lat="46.14025" lon="6.77657"/>
      <trkpt lat="46.13997" lon="6.77704"/>
      <trkpt lat="46.1396" lon="6.77708"/>
      <trkpt lat="46.13946" lon="6.77722"/>
      <trkpt lat="46.13942" lon="6.77741"/>
      <trkpt lat="46.13943" lon="6.77781"/>
      <trkpt lat="46.13943" lon="6.77866"/>
      <trkpt lat="46.13975" lon="6.77956"/>
      <trkpt lat="46.13994" lon="6.78033"/>
      <trkpt lat="46.14004" lon="6.78053"/>
      <trkpt lat="46.14045" lon="6.78076"/>
      <trkpt lat="46.14087" lon="6.78132"/>
      <trkpt lat="46.14088" lon="6.7817"/>
      <trkpt lat="46.14092" lon="6.78183"/>
      <trkpt lat="46.14118" lon="6.78197"/>
      <trkpt lat="46.14162" lon="6.78195"/>
      <trkpt lat="46.14175" lon="6.78199"/>
      <trkpt lat="46.14187" lon="6.78216"/>
      <trkpt lat="46.14206" lon="6.78219"/>
      <trkpt lat="46.14218" lon="6.78188"/>
      <trkpt lat="46.14222" lon="6.7819"/>
      <trkpt lat="46.14226" lon="6.78187"/>
      <trkpt lat="46.14232" lon="6.78145"/>
      <trkpt lat="46.14262" lon="6.78072"/>
      <trkpt lat="46.14269" lon="6.78043"/>
      <trkpt lat="46.14306" lon="6.77987"/>
      <trkpt lat="46.14331" lon="6.77975"/>
      <trkpt lat="46.14338" lon="6.77944"/>
      <trkpt lat="46.14357" lon="6.77931"/>
      <trkpt lat="46.14474" lon="6.77797"/>
      <trkpt lat="46.14478" lon="6.77798"/>
      <trkpt lat="46.14478" lon="6.77806"/>
      <trkpt lat="46.14468" lon="6.77822"/>
      <trkpt lat="46.14461" lon="6.77837"/>
      <trkpt lat="46.14455" lon="6.77877"/>
      <trkpt lat="46.14435" lon="6.77911"/>
      <trkpt lat="46.14433" lon="6.7796"/>
      <trkpt lat="46.1443" lon="6.77986"/>
      <trkpt lat="46.14436" lon="6.77979"/>
      <trkpt lat="46.14457" lon="6.7793"/>
      <trkpt lat="46.14502" lon="6.77899"/>
      <trkpt lat="46.14516" lon="6.77897"/>
      <trkpt lat="46.14554" lon="6.7791"/>
      <trkpt lat="46.14593" lon="6.77992"/>
      <trkpt lat="46.14594" lon="6.77999"/>
      <trkpt lat="46.14632" lon="6.78008"/>
      <trkpt lat="46.14653" lon="6.77999"/>
      <trkpt lat="46.14665" lon="6.77999"/>
      <trkpt lat="46.14675" lon="6.78009"/>
      <trkpt lat="46.14688" lon="6.78068"/>
      <trkpt lat="46.14694" lon="6.78069"/>
      <trkpt lat="46.147" lon="6.78041"/>
      <trkpt lat="46.14719" lon="6.77995"/>
      <trkpt lat="46.1472" lon="6.77958"/>
      <trkpt lat="46.14727" lon="6.77918"/>
      <trkpt lat="46.14727" lon="6.77807"/>
      <trkpt lat="46.1473" lon="6.77799"/>
      <trkpt lat="46.1474" lon="6.77797"/>
      <trkpt lat="46.14744" lon="6.7778"/>
      <trkpt lat="46.14775" lon="6.77711"/>
      <trkpt lat="46.14777" lon="6.7769"/>
      <trkpt lat="46.14791" lon="6.77665"/>
      <trkpt lat="46.14807" lon="6.77613"/>
      <trkpt lat="46.14834" lon="6.77548"/>
      <trkpt lat="46.14839" lon="6.77521"/>
      <trkpt lat="46.14884" lon="6.77433"/>
      <trkpt lat="46.14894" lon="6.77432"/>
      <trkpt lat="46.14896" lon="6.77442"/>
      <trkpt lat="46.14888" lon="6.77505"/>
      <trkpt lat="46.1489" lon="6.77523"/>
      <trkpt lat="46.14942" lon="6.77574"/>
      <trkpt lat="46.14972" lon="6.77579"/>
      <trkpt lat="46.14982" lon="6.77585"/>
      <trkpt lat="46.14991" lon="6.77602"/>
      <trkpt lat="46.14996" lon="6.77638"/>
      <trkpt lat="46.1501" lon="6.77649"/>
      <trkpt lat="46.15016" lon="6.77672"/>
      <trkpt lat="46.15014" lon="6.77757"/>
      <trkpt lat="46.15031" lon="6.77882"/>
      <trkpt lat="46.15029" lon="6.77925"/>
      <trkpt lat="46.15031" lon="6.77951"/>
      <trkpt lat="46.15036" lon="6.7797"/>
      <trkpt lat="46.15036" lon="6.78066"/>
      <trkpt lat="46.15041" lon="6.78082"/>
      <trkpt lat="46.15042" lon="6.7811"/>
      <trkpt lat="46.15059" lon="6.78124"/>
      <trkpt lat="46.15087" lon="6.78126"/>
      <trkpt lat="46.15094" lon="6.78132"/>
      <trkpt lat="46.15098" lon="6.78146"/>
      <trkpt lat="46.15095" lon="6.78181"/>
      <trkpt lat="46.1509" lon="6.78209"/>
      <trkpt lat="46.15092" lon="6.78216"/>
      <trkpt lat="46.15093" lon="6.78237"/>
      <trkpt lat="46.15091" lon="6.78272"/>
      <trkpt lat="46.15096" lon="6.78303"/>
      <trkpt lat="46.15096" lon="6.78315"/>
      <trkpt lat="46.15098" lon="6.78386"/>
      <trkpt lat="46.15108" lon="6.78444"/>
      <trkpt lat="46.15098" lon="6.7851"/>
      <trkpt lat="46.15098" lon="6.78544"/>
      <trkpt lat="46.15093" lon="6.7856"/>
      <trkpt lat="46.15096" lon="6.7864"/>
      <trkpt lat="46.15092" lon="6.78671"/>
      <trkpt lat="46.15093" lon="6.78695"/>
      <trkpt lat="46.15091" lon="6.78718"/>
      <trkpt lat="46.15084" lon="6.78729"/>
      <trkpt lat="46.15081" lon="6.78773"/>
      <trkpt lat="46.15073" lon="6.78775"/>
      <trkpt lat="46.15079" lon="6.78808"/>
      <trkpt lat="46.15081" lon="6.78847"/>
      <trkpt lat="46.15079" lon="6.78924"/>
      <trkpt lat="46.15071" lon="6.78926"/>
      <trkpt lat="46.15069" lon="6.7894"/>
      <trkpt lat="46.15072" lon="6.78978"/>
      <trkpt lat="46.15075" lon="6.78983"/>
      <trkpt lat="46.15075" lon="6.79002"/>
      <trkpt lat="46.1508" lon="6.79042"/>
      <trkpt lat="46.15078" lon="6.79052"/>
      <trkpt lat="46.15078" lon="6.79072"/>
      <trkpt lat="46.15044" lon="6.79135"/>
      <trkpt lat="46.15042" lon="6.7916"/>
      <trkpt lat="46.15036" lon="6.79174"/>
      <trkpt lat="46.15036" lon="6.79224"/>
      <trkpt lat="46.15025" lon="6.79251"/>
      <trkpt lat="46.15023" lon="6.79278"/>
      <trkpt lat="46.15023" lon="6.79286"/>
      <trkpt lat="46.15022" lon="6.79291"/>
      <trkpt lat="46.15018" lon="6.79307"/>
      <trkpt lat="46.14959" lon="6.79363"/>
      <trkpt lat="46.14951" lon="6.79377"/>
      <trkpt lat="46.14943" lon="6.79379"/>
      <trkpt lat="46.14934" lon="6.79389"/>
      <trkpt lat="46.1493" lon="6.79419"/>
      <trkpt lat="46.14906" lon="6.79467"/>
      <trkpt lat="46.14896" lon="6.79472"/>
      <trkpt lat="46.14895" lon="6.79491"/>
      <trkpt lat="46.14888" lon="6.79521"/>
      <trkpt lat="46.14874" lon="6.79538"/>
      <trkpt lat="46.14876" lon="6.79562"/>
      <trkpt lat="46.14862" lon="6.79585"/>
      <trkpt lat="46.14858" lon="6.7966"/>
      <trkpt lat="46.14852" lon="6.79711"/>
      <trkpt lat="46.14855" lon="6.79721"/>
      <trkpt lat="46.14895" lon="6.79848"/>
      <trkpt lat="46.14899" lon="6.79902"/>
      <trkpt lat="46.14897" lon="6.79945"/>
      <trkpt lat="46.14903" lon="6.80055"/>
      <trkpt lat="46.14918" lon="6.80089"/>
      <trkpt lat="46.14922" lon="6.80119"/>
      <trkpt lat="46.1493" lon="6.80141"/>
      <trkpt lat="46.14957" lon="6.80235"/>
      <trkpt lat="46.14964" lon="6.8033"/>
      <trkpt lat="46.14968" lon="6.8035"/>
      <trkpt lat="46.14966" lon="6.80363"/>
      <trkpt lat="46.14966" lon="6.80411"/>
      <trkpt lat="46.14968" lon="6.80474"/>
      <trkpt lat="46.14965" lon="6.80536"/>
      <trkpt lat="46.1497" lon="6.80589"/>
      <trkpt lat="46.14968" lon="6.80639"/>
      <trkpt lat="46.14962" lon="6.80683"/>
      <trkpt lat="46.14973" lon="6.80724"/>
      <trkpt lat="46.14972" lon="6.8073"/>
      <trkpt lat="46.14966" lon="6.80733"/>
      <trkpt lat="46.14973" lon="6.80746"/>
      <trkpt lat="46.14968" lon="6.80754"/>
      <trkpt lat="46.14984" lon="6.80786"/>
      <trkpt lat="46.14986" lon="6.80806"/>
      <trkpt lat="46.15004" lon="6.80821"/>
      <trkpt lat="46.15005" lon="6.80867"/>
      <trkpt lat="46.15015" lon="6.80904"/>
      <trkpt lat="46.15018" lon="6.80913"/>
      <trkpt lat="46.15023" lon="6.80925"/>
      <trkpt lat="46.15045" lon="6.80979"/>
      <trkpt lat="46.15064" lon="6.80991"/>
      <trkpt lat="46.15073" lon="6.81004"/>
      <trkpt lat="46.15092" lon="6.81068"/>
      <trkpt lat="46.15095" lon="6.81096"/>
      <trkpt lat="46.15103" lon="6.8125"/>
      <trkpt lat="46.15102" lon="6.81294"/>
      <trkpt lat="46.15112" lon="6.81362"/>
      <trkpt lat="46.15112" lon="6.81417"/>
      <trkpt lat="46.15111" lon="6.81433"/>
      <trkpt lat="46.15114" lon="6.81438"/>
      <trkpt lat="46.15114" lon="6.81501"/>
      <trkpt lat="46.15138" lon="6.81606"/>
      <trkpt lat="46.15157" lon="6.81657"/>
      <trkpt lat="46.15159" lon="6.81684"/>
      <trkpt lat="46.15159" lon="6.81698"/>
      <trkpt lat="46.15161" lon="6.81706"/>
      <trkpt lat="46.1516" lon="6.81718"/>
      <trkpt lat="46.15163" lon="6.81745"/>
      <trkpt lat="46.1516" lon="6.81757"/>
      <trkpt lat="46.1516" lon="6.81771"/>
      <trkpt lat="46.15161" lon="6.81782"/>
      <trkpt lat="46.15159" lon="6.81789"/>
      <trkpt lat="46.1516" lon="6.81815"/>
      <trkpt lat="46.15163" lon="6.81837"/>
      <trkpt lat="46.15194" lon="6.81857"/>
      <trkpt lat="46.15201" lon="6.81877"/>
      <trkpt lat="46.15202" lon="6.81891"/>
      <trkpt lat="46.15209" lon="6.81901"/>
      <trkpt lat="46.15217" lon="6.81904"/>
      <trkpt lat="46.15223" lon="6.81903"/>
      <trkpt lat="46.15224" lon="6.81912"/>
      <trkpt lat="46.15221" lon="6.81929"/>
      <trkpt lat="46.15227" lon="6.81931"/>
      <trkpt lat="46.15226" lon="6.81942"/>
      <trkpt lat="46.15231" lon="6.81945"/>
      <trkpt lat="46.15249" lon="6.81929"/>
      <trkpt lat="46.1525" lon="6.81981"/>
      <trkpt lat="46.15249" lon="6.82002"/>
      <trkpt lat="46.15252" lon="6.82024"/>
      <trkpt lat="46.1529" lon="6.82077"/>
      <trkpt lat="46.1529" lon="6.82103"/>
      <trkpt lat="46.15279" lon="6.82102"/>
      <trkpt lat="46.1527" lon="6.82115"/>
      <trkpt lat="46.15273" lon="6.82124"/>
      <trkpt lat="46.15274" lon="6.82137"/>
      <trkpt lat="46.15273" lon="6.82145"/>
      <trkpt lat="46.15276" lon="6.82184"/>
      <trkpt lat="46.15275" lon="6.82188"/>
      <trkpt lat="46.15278" lon="6.82197"/>
      <trkpt lat="46.15294" lon="6.82206"/>
      <trkpt lat="46.15299" lon="6.82221"/>
      <trkpt lat="46.15305" lon="6.82302"/>
      <trkpt lat="46.153" lon="6.82329"/>
      <trkpt lat="46.15291" lon="6.82365"/>
      <trkpt lat="46.15293" lon="6.82426"/>
      <trkpt lat="46.15286" lon="6.82476"/>
      <trkpt lat="46.15287" lon="6.82542"/>
      <trkpt lat="46.153" lon="6.82653"/>
      <trkpt lat="46.15324" lon="6.82726"/>
      <trkpt lat="46.15326" lon="6.82737"/>
      <trkpt lat="46.15339" lon="6.82761"/>
      <trkpt lat="46.15341" lon="6.82778"/>
      <trkpt lat="46.15373" lon="6.82852"/>
      <trkpt lat="46.15372" lon="6.8287"/>
      <trkpt lat="46.15376" lon="6.82875"/>
      <trkpt lat="46.15391" lon="6.82894"/>
      <trkpt lat="46.15388" lon="6.82919"/>
      <trkpt lat="46.15397" lon="6.82966"/>
      <trkpt lat="46.1541" lon="6.82961"/>
      <trkpt lat="46.15411" lon="6.82966"/>
      <trkpt lat="46.15422" lon="6.82962"/>
      <trkpt lat="46.15424" lon="6.82965"/>
      <trkpt lat="46.1543" lon="6.82963"/>
      <trkpt lat="46.15429" lon="6.82975"/>
      <trkpt lat="46.15428" lon="6.82985"/>
      <trkpt lat="46.15429" lon="6.83006"/>
      <trkpt lat="46.15422" lon="6.83053"/>
      <trkpt lat="46.15421" lon="6.83066"/>
      <trkpt lat="46.15419" lon="6.83073"/>
      <trkpt lat="46.1542" lon="6.83094"/>
      <trkpt lat="46.15422" lon="6.831"/>
      <trkpt lat="46.15419" lon="6.83113"/>
      <trkpt lat="46.15421" lon="6.83118"/>
      <trkpt lat="46.1542" lon="6.83125"/>
      <trkpt lat="46.15421" lon="6.83133"/>
      <trkpt lat="46.15425" lon="6.8315"/>
      <trkpt lat="46.15419" lon="6.83171"/>
      <trkpt lat="46.1543" lon="6.83218"/>
      <trkpt lat="46.15417" lon="6.83228"/>
      <trkpt lat="46.15415" lon="6.83249"/>
      <trkpt lat="46.15415" lon="6.83266"/>
      <trkpt lat="46.1543" lon="6.83415"/>
      <trkpt lat="46.15429" lon="6.83521"/>
      <trkpt lat="46.15453" lon="6.83571"/>
      <trkpt lat="46.15454" lon="6.83642"/>
      <trkpt lat="46.15471" lon="6.83688"/>
      <trkpt lat="46.15472" lon="6.83711"/>
      <trkpt lat="46.15471" lon="6.83748"/>
      <trkpt lat="46.15472" lon="6.83835"/>
      <trkpt lat="46.15466" lon="6.83945"/>
      <trkpt lat="46.15462" lon="6.84009"/>
      <trkpt lat="46.15463" lon="6.84094"/>
      <trkpt lat="46.15462" lon="6.84103"/>
      <trkpt lat="46.15459" lon="6.84105"/>
      <trkpt lat="46.15445" lon="6.84097"/>
      <trkpt lat="46.1542" lon="6.83993"/>
      <trkpt lat="46.15402" lon="6.8394"/>
      <trkpt lat="46.15394" lon="6.83878"/>
      <trkpt lat="46.15386" lon="6.83808"/>
      <trkpt lat="46.15381" lon="6.83789"/>
      <trkpt lat="46.15371" lon="6.83782"/>
      <trkpt lat="46.15354" lon="6.83777"/>
      <trkpt lat="46.15313" lon="6.83785"/>
      <trkpt lat="46.15302" lon="6.83782"/>
      <trkpt lat="46.15289" lon="6.83734"/>
      <trkpt lat="46.15251" lon="6.83658"/>
      <trkpt lat="46.15247" lon="6.83631"/>
      <trkpt lat="46.15252" lon="6.83592"/>
      <trkpt lat="46.15251" lon="6.83574"/>
      <trkpt lat="46.15243" lon="6.83479"/>
      <trkpt lat="46.15234" lon="6.8344"/>
      <trkpt lat="46.15228" lon="6.83371"/>
      <trkpt lat="46.15226" lon="6.83329"/>
      <trkpt lat="46.15214" lon="6.83299"/>
      <trkpt lat="46.15206" lon="6.83265"/>
      <trkpt lat="46.15193" lon="6.83234"/>
      <trkpt lat="46.15185" lon="6.83228"/>
      <trkpt lat="46.15165" lon="6.83228"/>
      <trkpt lat="46.15102" lon="6.83255"/>
      <trkpt lat="46.15056" lon="6.83274"/>
      <trkpt lat="46.15041" lon="6.83273"/>
      <trkpt lat="46.15022" lon="6.83245"/>
    </trkseg>
  </trk>
</gpx>
