<?xml version="1.0" encoding="UTF-8"?>
<gpx creator="mapstogpx.com" version="1.1" schemaLocation="http://www.topografix.com/GPX/1/1 http://www.topografix.com/GPX/1/1/gpx.xsd http://www.garmin.com/xmlschemas/GpxExtensions/v3 http://www.garmin.com/xmlschemas/GpxExtensionsv3.xsd http://www.garmin.com/xmlschemas/TrackPointExtension/v1 http://www.garmin.com/xmlschemas/TrackPointExtensionv1.xsd" xmlns="http://www.topografix.com/GPX/1/1" xmlns:xsi="http://www.w3.org/2001/XMLSchema-instance" xsi:schemaLocation="http://www.topografix.com/GPX/1/1 http://www.topografix.com/GPX/1/1/gpx.xsd http://www.garmin.com/xmlschemas/GpxExtensions/v3 http://www.garmin.com/xmlschemas/GpxExtensionsv3.xsd http://www.garmin.com/xmlschemas/TrackPointExtension/v1 http://www.garmin.com/xmlschemas/TrackPointExtensionv1.xsd http://www.garmin.com/xmlschemas/PowerExtension/v1 http://www.garmin.com/xmlschemas/PowerExtensionv1.xsd http://www.topografix.com/GPX/gpx_style/0/2 http://www.topografix.com/GPX/gpx_style/0/2/gpx_style.xsd" xmlns:gpxtpx="http://www.garmin.com/xmlschemas/TrackPointExtension/v1" xmlns:gpxx="http://www.garmin.com/xmlschemas/GpxExtensions/v3" xmlns:gpxpx="http://www.garmin.com/xmlschemas/PowerExtension/v1" xmlns:gpx_style="http://www.topografix.com/GPX/gpx_style/0/2">
  <metadata>
    <name>Petit Tour Poitiers</name>
    <author>
      <name>gpx.studio</name>
      <link href="https://gpx.studio"/>
    </author>
    <link href="http://www.mapstogpx.com">
      <text>Sverrir Sigmundarson</text>
    </link>
    <time>2024-10-15T21:50:49.000Z</time>
  </metadata>
  <wpt lat="46.5672833" lon="0.3719921">
    <name>6 Rue des Passés Roses</name>
    <desc>6 Rue des Passés Roses, 86000 Poitiers, France</desc>
  </wpt>
  <wpt lat="46.5763477" lon="0.3533132">
    <name>31 Rue du Faubourg du Pont Neuf</name>
    <desc>Biclou, 31 Rue du Faubourg du Pont Neuf, 98 Rue Cornet, 86000 Poitiers, France</desc>
  </wpt>
  <wpt lat="46.5888467" lon="0.3496654">
    <name>86000 Poitiers</name>
    <desc>123 Rue des 4 Roues, 86000 Poitiers, France</desc>
  </wpt>
  <wpt lat="46.5867403" lon="0.348098">
    <name>86000 Poitiers</name>
    <desc>2 Rue du Jardin des Plantes Bis, 86000 Poitiers, France</desc>
  </wpt>
  <wpt lat="46.5904113" lon="0.3391659">
    <name>86000 Poitiers</name>
    <desc>16-32 Av. de Nantes, 86000 Poitiers, France</desc>
  </wpt>
  <wpt lat="46.585604" lon="0.3332313">
    <name>86000 Poitiers</name>
    <desc>83 Av. de Nantes, 86000 Poitiers, France</desc>
  </wpt>
  <wpt lat="46.580924" lon="0.3356988">
    <name>86000 Poitiers</name>
    <desc>Pl. Aristide Briand, 86000 Poitiers, France</desc>
  </wpt>
  <wpt lat="46.5760746" lon="0.3355139">
    <name>86000</name>
    <desc>Poitiers, 86000, France</desc>
  </wpt>
  <wpt lat="46.5730893" lon="0.3301109">
    <name>86000</name>
    <desc>Poitiers, 86000, France</desc>
  </wpt>
  <wpt lat="46.5672233" lon="0.3723354">
    <name>86000 Poitiers</name>
    <desc>16-20 Rue du Père Jean Fleury, 86000 Poitiers, France</desc>
  </wpt>
  <trk>
    <name>Petit Tour Poitiers</name>
    <trkseg>
      <trkpt lat="46.5672928" lon="0.3720016"/>
      <trkpt lat="46.56734" lon="0.37192"/>
      <trkpt lat="46.56738" lon="0.37187"/>
      <trkpt lat="46.56741" lon="0.37181"/>
      <trkpt lat="46.56745" lon="0.37176"/>
      <trkpt lat="46.56749" lon="0.37172"/>
      <trkpt lat="46.56751" lon="0.37167"/>
      <trkpt lat="46.56755" lon="0.37161"/>
      <trkpt lat="46.56758" lon="0.37154"/>
      <trkpt lat="46.56761" lon="0.37148"/>
      <trkpt lat="46.56763" lon="0.37144"/>
      <trkpt lat="46.56766" lon="0.37139"/>
      <trkpt lat="46.56772" lon="0.37131"/>
      <trkpt lat="46.56787" lon="0.37114"/>
      <trkpt lat="46.5679" lon="0.3711"/>
      <trkpt lat="46.5678976" lon="0.3710987"/>
      <trkpt lat="46.56795" lon="0.37117"/>
      <trkpt lat="46.56802" lon="0.37107"/>
      <trkpt lat="46.56806" lon="0.37104"/>
      <trkpt lat="46.56811" lon="0.37098"/>
      <trkpt lat="46.56819" lon="0.37088"/>
      <trkpt lat="46.5682" lon="0.37086"/>
      <trkpt lat="46.56827" lon="0.37077"/>
      <trkpt lat="46.56828" lon="0.37075"/>
      <trkpt lat="46.56843" lon="0.37055"/>
      <trkpt lat="46.56852" lon="0.37043"/>
      <trkpt lat="46.56856" lon="0.37037"/>
      <trkpt lat="46.56864" lon="0.37027"/>
      <trkpt lat="46.56871" lon="0.37016"/>
      <trkpt lat="46.56874" lon="0.37013"/>
      <trkpt lat="46.56885" lon="0.36996"/>
      <trkpt lat="46.56891" lon="0.36986"/>
      <trkpt lat="46.56904" lon="0.36968"/>
      <trkpt lat="46.56907" lon="0.36962"/>
      <trkpt lat="46.5691" lon="0.36955"/>
      <trkpt lat="46.56913" lon="0.36949"/>
      <trkpt lat="46.56914" lon="0.36946"/>
      <trkpt lat="46.5691371" lon="0.369465"/>
      <trkpt lat="46.56922" lon="0.36951"/>
      <trkpt lat="46.56938" lon="0.36959"/>
      <trkpt lat="46.5698" lon="0.36975"/>
      <trkpt lat="46.57051" lon="0.37002"/>
      <trkpt lat="46.57062" lon="0.37007"/>
      <trkpt lat="46.57078" lon="0.37013"/>
      <trkpt lat="46.5707804" lon="0.3701252"/>
      <trkpt lat="46.57085" lon="0.37002"/>
      <trkpt lat="46.57091" lon="0.36993"/>
      <trkpt lat="46.57098" lon="0.36982"/>
      <trkpt lat="46.57114" lon="0.36954"/>
      <trkpt lat="46.57118" lon="0.36948"/>
      <trkpt lat="46.57122" lon="0.36942"/>
      <trkpt lat="46.57129" lon="0.36936"/>
      <trkpt lat="46.57139" lon="0.36919"/>
      <trkpt lat="46.57147" lon="0.36904"/>
      <trkpt lat="46.57169" lon="0.36867"/>
      <trkpt lat="46.57175" lon="0.36858"/>
      <trkpt lat="46.5718" lon="0.3685"/>
      <trkpt lat="46.57232" lon="0.36764"/>
      <trkpt lat="46.57237" lon="0.36756"/>
      <trkpt lat="46.57255" lon="0.36733"/>
      <trkpt lat="46.5725489" lon="0.3673288"/>
      <trkpt lat="46.57256" lon="0.36727"/>
      <trkpt lat="46.57257" lon="0.36723"/>
      <trkpt lat="46.57259" lon="0.36719"/>
      <trkpt lat="46.57262" lon="0.36716"/>
      <trkpt lat="46.57265" lon="0.36712"/>
      <trkpt lat="46.5726461" lon="0.3671217"/>
      <trkpt lat="46.57266" lon="0.36708"/>
      <trkpt lat="46.5727" lon="0.36702"/>
      <trkpt lat="46.57271" lon="0.36699"/>
      <trkpt lat="46.57272" lon="0.36694"/>
      <trkpt lat="46.57275" lon="0.36686"/>
      <trkpt lat="46.57277" lon="0.36681"/>
      <trkpt lat="46.57279" lon="0.36674"/>
      <trkpt lat="46.57282" lon="0.36667"/>
      <trkpt lat="46.57282" lon="0.36661"/>
      <trkpt lat="46.57282" lon="0.36658"/>
      <trkpt lat="46.57282" lon="0.36647"/>
      <trkpt lat="46.57281" lon="0.36615"/>
      <trkpt lat="46.57281" lon="0.36603"/>
      <trkpt lat="46.5728" lon="0.36565"/>
      <trkpt lat="46.57279" lon="0.36522"/>
      <trkpt lat="46.57277" lon="0.36478"/>
      <trkpt lat="46.57276" lon="0.36438"/>
      <trkpt lat="46.57276" lon="0.3642"/>
      <trkpt lat="46.57275" lon="0.36404"/>
      <trkpt lat="46.57275" lon="0.36394"/>
      <trkpt lat="46.57273" lon="0.36351"/>
      <trkpt lat="46.57272" lon="0.36297"/>
      <trkpt lat="46.57272" lon="0.36286"/>
      <trkpt lat="46.5727" lon="0.36249"/>
      <trkpt lat="46.57268" lon="0.36203"/>
      <trkpt lat="46.57266" lon="0.36167"/>
      <trkpt lat="46.57266" lon="0.36157"/>
      <trkpt lat="46.57264" lon="0.36127"/>
      <trkpt lat="46.57262" lon="0.36077"/>
      <trkpt lat="46.5726" lon="0.36042"/>
      <trkpt lat="46.57257" lon="0.35966"/>
      <trkpt lat="46.57255" lon="0.35901"/>
      <trkpt lat="46.57262" lon="0.35899"/>
      <trkpt lat="46.57268" lon="0.3589"/>
      <trkpt lat="46.57271" lon="0.35884"/>
      <trkpt lat="46.57272" lon="0.35882"/>
      <trkpt lat="46.57302" lon="0.35815"/>
      <trkpt lat="46.57314" lon="0.3579"/>
      <trkpt lat="46.57341" lon="0.3573"/>
      <trkpt lat="46.57353" lon="0.35705"/>
      <trkpt lat="46.57363" lon="0.35684"/>
      <trkpt lat="46.57381" lon="0.35645"/>
      <trkpt lat="46.57396" lon="0.35612"/>
      <trkpt lat="46.57399" lon="0.35607"/>
      <trkpt lat="46.57408" lon="0.35591"/>
      <trkpt lat="46.5742" lon="0.35566"/>
      <trkpt lat="46.57429" lon="0.35548"/>
      <trkpt lat="46.57438" lon="0.35535"/>
      <trkpt lat="46.57447" lon="0.35526"/>
      <trkpt lat="46.57454" lon="0.3552"/>
      <trkpt lat="46.57458" lon="0.35516"/>
      <trkpt lat="46.57476" lon="0.35505"/>
      <trkpt lat="46.57507" lon="0.35486"/>
      <trkpt lat="46.57529" lon="0.35472"/>
      <trkpt lat="46.57538" lon="0.35466"/>
      <trkpt lat="46.57547" lon="0.35455"/>
      <trkpt lat="46.57554" lon="0.35446"/>
      <trkpt lat="46.5756" lon="0.35437"/>
      <trkpt lat="46.57563" lon="0.35432"/>
      <trkpt lat="46.57574" lon="0.35415"/>
      <trkpt lat="46.57577" lon="0.35411"/>
      <trkpt lat="46.57591" lon="0.35391"/>
      <trkpt lat="46.57615" lon="0.35361"/>
      <trkpt lat="46.57617" lon="0.35359"/>
      <trkpt lat="46.57632" lon="0.35338"/>
      <trkpt lat="46.5763238" lon="0.3533828"/>
      <trkpt lat="46.5763464" lon="0.3532732"/>
      <trkpt lat="46.57638" lon="0.35332"/>
      <trkpt lat="46.57649" lon="0.35338"/>
      <trkpt lat="46.57666" lon="0.35348"/>
      <trkpt lat="46.5767" lon="0.3535"/>
      <trkpt lat="46.57683" lon="0.35354"/>
      <trkpt lat="46.57685" lon="0.35355"/>
      <trkpt lat="46.577" lon="0.35356"/>
      <trkpt lat="46.57707" lon="0.35356"/>
      <trkpt lat="46.57715" lon="0.35358"/>
      <trkpt lat="46.57717" lon="0.35358"/>
      <trkpt lat="46.57722" lon="0.35359"/>
      <trkpt lat="46.57725" lon="0.35359"/>
      <trkpt lat="46.57734" lon="0.35361"/>
      <trkpt lat="46.5774" lon="0.35361"/>
      <trkpt lat="46.57753" lon="0.35361"/>
      <trkpt lat="46.57762" lon="0.35363"/>
      <trkpt lat="46.57774" lon="0.35366"/>
      <trkpt lat="46.57792" lon="0.35373"/>
      <trkpt lat="46.57811" lon="0.35379"/>
      <trkpt lat="46.57825" lon="0.35384"/>
      <trkpt lat="46.57828" lon="0.35385"/>
      <trkpt lat="46.57846" lon="0.3539"/>
      <trkpt lat="46.57864" lon="0.35395"/>
      <trkpt lat="46.57866" lon="0.35396"/>
      <trkpt lat="46.57893" lon="0.35404"/>
      <trkpt lat="46.57899" lon="0.35405"/>
      <trkpt lat="46.57907" lon="0.35407"/>
      <trkpt lat="46.57912" lon="0.35407"/>
      <trkpt lat="46.57919" lon="0.35408"/>
      <trkpt lat="46.57922" lon="0.35408"/>
      <trkpt lat="46.57937" lon="0.35409"/>
      <trkpt lat="46.57952" lon="0.35408"/>
      <trkpt lat="46.57972" lon="0.35405"/>
      <trkpt lat="46.57993" lon="0.35403"/>
      <trkpt lat="46.5801" lon="0.35403"/>
      <trkpt lat="46.58028" lon="0.35404"/>
      <trkpt lat="46.58046" lon="0.35405"/>
      <trkpt lat="46.5805" lon="0.35406"/>
      <trkpt lat="46.58072" lon="0.35408"/>
      <trkpt lat="46.58081" lon="0.35409"/>
      <trkpt lat="46.58085" lon="0.35409"/>
      <trkpt lat="46.58091" lon="0.35409"/>
      <trkpt lat="46.58099" lon="0.35407"/>
      <trkpt lat="46.58108" lon="0.35405"/>
      <trkpt lat="46.58112" lon="0.35405"/>
      <trkpt lat="46.58126" lon="0.35403"/>
      <trkpt lat="46.58143" lon="0.354"/>
      <trkpt lat="46.58148" lon="0.35399"/>
      <trkpt lat="46.58166" lon="0.35395"/>
      <trkpt lat="46.58171" lon="0.35394"/>
      <trkpt lat="46.5817109" lon="0.353938"/>
      <trkpt lat="46.58187" lon="0.35391"/>
      <trkpt lat="46.58202" lon="0.35391"/>
      <trkpt lat="46.5821" lon="0.35391"/>
      <trkpt lat="46.58219" lon="0.35393"/>
      <trkpt lat="46.5824" lon="0.354"/>
      <trkpt lat="46.58243" lon="0.35401"/>
      <trkpt lat="46.58257" lon="0.35405"/>
      <trkpt lat="46.58262" lon="0.35406"/>
      <trkpt lat="46.5827" lon="0.35405"/>
      <trkpt lat="46.58284" lon="0.35404"/>
      <trkpt lat="46.58302" lon="0.35402"/>
      <trkpt lat="46.58316" lon="0.35402"/>
      <trkpt lat="46.58334" lon="0.35403"/>
      <trkpt lat="46.58352" lon="0.35406"/>
      <trkpt lat="46.58364" lon="0.35409"/>
      <trkpt lat="46.58368" lon="0.3541"/>
      <trkpt lat="46.58385" lon="0.35417"/>
      <trkpt lat="46.58399" lon="0.35424"/>
      <trkpt lat="46.58403" lon="0.35426"/>
      <trkpt lat="46.5841" lon="0.35429"/>
      <trkpt lat="46.58419" lon="0.35433"/>
      <trkpt lat="46.5841874" lon="0.3543339"/>
      <trkpt lat="46.58429" lon="0.35433"/>
      <trkpt lat="46.58432" lon="0.35433"/>
      <trkpt lat="46.58447" lon="0.3543"/>
      <trkpt lat="46.58449" lon="0.3543"/>
      <trkpt lat="46.5845" lon="0.3543"/>
      <trkpt lat="46.58463" lon="0.35427"/>
      <trkpt lat="46.58473" lon="0.35425"/>
      <trkpt lat="46.58478" lon="0.35424"/>
      <trkpt lat="46.58497" lon="0.3542"/>
      <trkpt lat="46.58514" lon="0.35418"/>
      <trkpt lat="46.58522" lon="0.35417"/>
      <trkpt lat="46.58549" lon="0.35407"/>
      <trkpt lat="46.58569" lon="0.35398"/>
      <trkpt lat="46.58581" lon="0.35393"/>
      <trkpt lat="46.58588" lon="0.35389"/>
      <trkpt lat="46.58596" lon="0.35385"/>
      <trkpt lat="46.58615" lon="0.3537"/>
      <trkpt lat="46.58635" lon="0.35354"/>
      <trkpt lat="46.58648" lon="0.35342"/>
      <trkpt lat="46.58651" lon="0.35339"/>
      <trkpt lat="46.58669" lon="0.35322"/>
      <trkpt lat="46.5869" lon="0.35305"/>
      <trkpt lat="46.58706" lon="0.3529"/>
      <trkpt lat="46.58724" lon="0.35273"/>
      <trkpt lat="46.58732" lon="0.35267"/>
      <trkpt lat="46.58735" lon="0.35263"/>
      <trkpt lat="46.58738" lon="0.3526"/>
      <trkpt lat="46.58741" lon="0.35256"/>
      <trkpt lat="46.58743" lon="0.35253"/>
      <trkpt lat="46.58751" lon="0.35242"/>
      <trkpt lat="46.58761" lon="0.3523"/>
      <trkpt lat="46.58765" lon="0.35225"/>
      <trkpt lat="46.58769" lon="0.35217"/>
      <trkpt lat="46.58773" lon="0.3521"/>
      <trkpt lat="46.58778" lon="0.35201"/>
      <trkpt lat="46.58781" lon="0.35193"/>
      <trkpt lat="46.58781" lon="0.35192"/>
      <trkpt lat="46.58784" lon="0.35185"/>
      <trkpt lat="46.58792" lon="0.35164"/>
      <trkpt lat="46.58799" lon="0.35146"/>
      <trkpt lat="46.58808" lon="0.35123"/>
      <trkpt lat="46.58817" lon="0.35102"/>
      <trkpt lat="46.5882" lon="0.35095"/>
      <trkpt lat="46.58829" lon="0.35075"/>
      <trkpt lat="46.58838" lon="0.35054"/>
      <trkpt lat="46.5885" lon="0.35026"/>
      <trkpt lat="46.58865" lon="0.34998"/>
      <trkpt lat="46.5887" lon="0.34988"/>
      <trkpt lat="46.58876" lon="0.34975"/>
      <trkpt lat="46.58881" lon="0.34968"/>
      <trkpt lat="46.5888109" lon="0.3496764"/>
      <trkpt lat="46.5888375" lon="0.3497116"/>
      <trkpt lat="46.58871" lon="0.34953"/>
      <trkpt lat="46.58847" lon="0.34919"/>
      <trkpt lat="46.58842" lon="0.34913"/>
      <trkpt lat="46.58838" lon="0.34906"/>
      <trkpt lat="46.58833" lon="0.349"/>
      <trkpt lat="46.58818" lon="0.34876"/>
      <trkpt lat="46.58809" lon="0.34862"/>
      <trkpt lat="46.5880916" lon="0.3486155"/>
      <trkpt lat="46.58773" lon="0.34904"/>
      <trkpt lat="46.5877254" lon="0.3490363"/>
      <trkpt lat="46.58768" lon="0.34891"/>
      <trkpt lat="46.58759" lon="0.34882"/>
      <trkpt lat="46.58754" lon="0.34875"/>
      <trkpt lat="46.58753" lon="0.34873"/>
      <trkpt lat="46.58738" lon="0.34861"/>
      <trkpt lat="46.58719" lon="0.34845"/>
      <trkpt lat="46.58689" lon="0.34822"/>
      <trkpt lat="46.58679" lon="0.34814"/>
      <trkpt lat="46.5867922" lon="0.3481358"/>
      <trkpt lat="46.586708" lon="0.3481136"/>
      <trkpt lat="46.58676" lon="0.34804"/>
      <trkpt lat="46.5868" lon="0.34796"/>
      <trkpt lat="46.58682" lon="0.34793"/>
      <trkpt lat="46.58682" lon="0.34789"/>
      <trkpt lat="46.58683" lon="0.34784"/>
      <trkpt lat="46.58688" lon="0.34778"/>
      <trkpt lat="46.5869" lon="0.3477"/>
      <trkpt lat="46.58694" lon="0.34762"/>
      <trkpt lat="46.58706" lon="0.3474"/>
      <trkpt lat="46.58708" lon="0.34734"/>
      <trkpt lat="46.58712" lon="0.34722"/>
      <trkpt lat="46.58717" lon="0.34712"/>
      <trkpt lat="46.58717" lon="0.3471"/>
      <trkpt lat="46.5872" lon="0.34706"/>
      <trkpt lat="46.58723" lon="0.34702"/>
      <trkpt lat="46.58725" lon="0.34701"/>
      <trkpt lat="46.5873" lon="0.347"/>
      <trkpt lat="46.58734" lon="0.34701"/>
      <trkpt lat="46.58738" lon="0.34706"/>
      <trkpt lat="46.58745" lon="0.34713"/>
      <trkpt lat="46.58759" lon="0.34729"/>
      <trkpt lat="46.58761" lon="0.34731"/>
      <trkpt lat="46.58773" lon="0.34744"/>
      <trkpt lat="46.58775" lon="0.34747"/>
      <trkpt lat="46.58784" lon="0.34755"/>
      <trkpt lat="46.58784" lon="0.34758"/>
      <trkpt lat="46.58783" lon="0.3476"/>
      <trkpt lat="46.58781" lon="0.34764"/>
      <trkpt lat="46.58775" lon="0.34772"/>
      <trkpt lat="46.58767" lon="0.34785"/>
      <trkpt lat="46.58762" lon="0.34799"/>
      <trkpt lat="46.587616" lon="0.347993"/>
      <trkpt lat="46.58763" lon="0.34809"/>
      <trkpt lat="46.58764" lon="0.34817"/>
      <trkpt lat="46.5877" lon="0.34827"/>
      <trkpt lat="46.5878" lon="0.34835"/>
      <trkpt lat="46.58782" lon="0.34837"/>
      <trkpt lat="46.58791" lon="0.34838"/>
      <trkpt lat="46.58796" lon="0.34843"/>
      <trkpt lat="46.5879625" lon="0.3484289"/>
      <trkpt lat="46.58805" lon="0.34833"/>
      <trkpt lat="46.58818" lon="0.34816"/>
      <trkpt lat="46.58829" lon="0.34804"/>
      <trkpt lat="46.58842" lon="0.34786"/>
      <trkpt lat="46.58848" lon="0.34779"/>
      <trkpt lat="46.58853" lon="0.34773"/>
      <trkpt lat="46.58884" lon="0.34736"/>
      <trkpt lat="46.58898" lon="0.34717"/>
      <trkpt lat="46.58902" lon="0.34712"/>
      <trkpt lat="46.58909" lon="0.34701"/>
      <trkpt lat="46.58914" lon="0.34694"/>
      <trkpt lat="46.58941" lon="0.3466"/>
      <trkpt lat="46.58955" lon="0.34641"/>
      <trkpt lat="46.5896" lon="0.34634"/>
      <trkpt lat="46.58964" lon="0.34629"/>
      <trkpt lat="46.58979" lon="0.34607"/>
      <trkpt lat="46.58981" lon="0.34604"/>
      <trkpt lat="46.58991" lon="0.34587"/>
      <trkpt lat="46.59" lon="0.34569"/>
      <trkpt lat="46.59004" lon="0.34558"/>
      <trkpt lat="46.59008" lon="0.34548"/>
      <trkpt lat="46.59017" lon="0.34527"/>
      <trkpt lat="46.59026" lon="0.34496"/>
      <trkpt lat="46.59032" lon="0.34473"/>
      <trkpt lat="46.59032" lon="0.34466"/>
      <trkpt lat="46.59035" lon="0.3445"/>
      <trkpt lat="46.59037" lon="0.34424"/>
      <trkpt lat="46.59038" lon="0.34401"/>
      <trkpt lat="46.59038" lon="0.34377"/>
      <trkpt lat="46.59038" lon="0.34365"/>
      <trkpt lat="46.59037" lon="0.34355"/>
      <trkpt lat="46.5903691" lon="0.3435484"/>
      <trkpt lat="46.59046" lon="0.34355"/>
      <trkpt lat="46.59055" lon="0.34356"/>
      <trkpt lat="46.5905512" lon="0.343559"/>
      <trkpt lat="46.59055" lon="0.34342"/>
      <trkpt lat="46.59054" lon="0.34338"/>
      <trkpt lat="46.59053" lon="0.34328"/>
      <trkpt lat="46.59051" lon="0.34306"/>
      <trkpt lat="46.59051" lon="0.34302"/>
      <trkpt lat="46.59046" lon="0.34251"/>
      <trkpt lat="46.59045" lon="0.34229"/>
      <trkpt lat="46.59043" lon="0.34208"/>
      <trkpt lat="46.59038" lon="0.34127"/>
      <trkpt lat="46.59037" lon="0.34117"/>
      <trkpt lat="46.59037" lon="0.34111"/>
      <trkpt lat="46.59037" lon="0.34087"/>
      <trkpt lat="46.59039" lon="0.3408"/>
      <trkpt lat="46.59049" lon="0.34058"/>
      <trkpt lat="46.59044" lon="0.34047"/>
      <trkpt lat="46.5904409" lon="0.34047"/>
      <trkpt lat="46.59046" lon="0.34045"/>
      <trkpt lat="46.59047" lon="0.34044"/>
      <trkpt lat="46.59049" lon="0.34041"/>
      <trkpt lat="46.5905" lon="0.34036"/>
      <trkpt lat="46.5905" lon="0.34033"/>
      <trkpt lat="46.59051" lon="0.3403"/>
      <trkpt lat="46.59051" lon="0.34027"/>
      <trkpt lat="46.5905" lon="0.34022"/>
      <trkpt lat="46.5905" lon="0.34019"/>
      <trkpt lat="46.59049" lon="0.34002"/>
      <trkpt lat="46.59058" lon="0.34011"/>
      <trkpt lat="46.59058" lon="0.34004"/>
      <trkpt lat="46.59058" lon="0.34001"/>
      <trkpt lat="46.59057" lon="0.33985"/>
      <trkpt lat="46.59057" lon="0.33982"/>
      <trkpt lat="46.59058" lon="0.33971"/>
      <trkpt lat="46.59061" lon="0.33949"/>
      <trkpt lat="46.59062" lon="0.33941"/>
      <trkpt lat="46.5906163" lon="0.339412"/>
      <trkpt lat="46.59053" lon="0.33939"/>
      <trkpt lat="46.59053" lon="0.33932"/>
      <trkpt lat="46.5905286" lon="0.3393247"/>
      <trkpt lat="46.59051" lon="0.33931"/>
      <trkpt lat="46.59043" lon="0.33926"/>
      <trkpt lat="46.59039" lon="0.33923"/>
      <trkpt lat="46.5903873" lon="0.3392254"/>
      <trkpt lat="46.5903873" lon="0.3392254"/>
      <trkpt lat="46.59034" lon="0.33919"/>
      <trkpt lat="46.59022" lon="0.33912"/>
      <trkpt lat="46.59009" lon="0.3391"/>
      <trkpt lat="46.58993" lon="0.33905"/>
      <trkpt lat="46.58992" lon="0.33905"/>
      <trkpt lat="46.58971" lon="0.33896"/>
      <trkpt lat="46.58952" lon="0.33885"/>
      <trkpt lat="46.58931" lon="0.33871"/>
      <trkpt lat="46.58907" lon="0.33853"/>
      <trkpt lat="46.58901" lon="0.33848"/>
      <trkpt lat="46.58871" lon="0.33821"/>
      <trkpt lat="46.5884" lon="0.33792"/>
      <trkpt lat="46.58832" lon="0.33785"/>
      <trkpt lat="46.58825" lon="0.33779"/>
      <trkpt lat="46.58818" lon="0.33772"/>
      <trkpt lat="46.58798" lon="0.33751"/>
      <trkpt lat="46.58776" lon="0.33724"/>
      <trkpt lat="46.58762" lon="0.33705"/>
      <trkpt lat="46.58742" lon="0.33671"/>
      <trkpt lat="46.58725" lon="0.33643"/>
      <trkpt lat="46.58701" lon="0.336"/>
      <trkpt lat="46.58695" lon="0.33588"/>
      <trkpt lat="46.58672" lon="0.33544"/>
      <trkpt lat="46.5867" lon="0.3354"/>
      <trkpt lat="46.5865" lon="0.33502"/>
      <trkpt lat="46.58638" lon="0.33478"/>
      <trkpt lat="46.58634" lon="0.33473"/>
      <trkpt lat="46.58627" lon="0.33461"/>
      <trkpt lat="46.58619" lon="0.33449"/>
      <trkpt lat="46.58619" lon="0.33448"/>
      <trkpt lat="46.58618" lon="0.33448"/>
      <trkpt lat="46.58617" lon="0.33447"/>
      <trkpt lat="46.58617" lon="0.33446"/>
      <trkpt lat="46.58616" lon="0.33446"/>
      <trkpt lat="46.58616" lon="0.33445"/>
      <trkpt lat="46.58615" lon="0.33445"/>
      <trkpt lat="46.58615" lon="0.33444"/>
      <trkpt lat="46.58615" lon="0.33443"/>
      <trkpt lat="46.58614" lon="0.33443"/>
      <trkpt lat="46.58614" lon="0.33442"/>
      <trkpt lat="46.58614" lon="0.33441"/>
      <trkpt lat="46.58613" lon="0.3344"/>
      <trkpt lat="46.58613" lon="0.33439"/>
      <trkpt lat="46.58613" lon="0.33438"/>
      <trkpt lat="46.58611" lon="0.33436"/>
      <trkpt lat="46.58609" lon="0.33433"/>
      <trkpt lat="46.58608" lon="0.33431"/>
      <trkpt lat="46.58598" lon="0.33412"/>
      <trkpt lat="46.58598" lon="0.33411"/>
      <trkpt lat="46.58588" lon="0.3339"/>
      <trkpt lat="46.58581" lon="0.33375"/>
      <trkpt lat="46.58573" lon="0.33363"/>
      <trkpt lat="46.5856" lon="0.33338"/>
      <trkpt lat="46.58556" lon="0.3333"/>
      <trkpt lat="46.5855572" lon="0.3333021"/>
      <trkpt lat="46.5855831" lon="0.3332416"/>
      <trkpt lat="46.58549" lon="0.33346"/>
      <trkpt lat="46.58539" lon="0.33369"/>
      <trkpt lat="46.58526" lon="0.33399"/>
      <trkpt lat="46.5852" lon="0.33413"/>
      <trkpt lat="46.5851" lon="0.33435"/>
      <trkpt lat="46.58498" lon="0.33462"/>
      <trkpt lat="46.58491" lon="0.33479"/>
      <trkpt lat="46.5848" lon="0.335"/>
      <trkpt lat="46.58469" lon="0.33524"/>
      <trkpt lat="46.5846" lon="0.33543"/>
      <trkpt lat="46.58441" lon="0.33581"/>
      <trkpt lat="46.58425" lon="0.33612"/>
      <trkpt lat="46.58421" lon="0.33618"/>
      <trkpt lat="46.58408" lon="0.33643"/>
      <trkpt lat="46.58397" lon="0.33664"/>
      <trkpt lat="46.58391" lon="0.33676"/>
      <trkpt lat="46.58386" lon="0.33684"/>
      <trkpt lat="46.58382" lon="0.33692"/>
      <trkpt lat="46.583816" lon="0.3369239"/>
      <trkpt lat="46.58391" lon="0.33702"/>
      <trkpt lat="46.58395" lon="0.33705"/>
      <trkpt lat="46.58397" lon="0.33708"/>
      <trkpt lat="46.58399" lon="0.33711"/>
      <trkpt lat="46.58402" lon="0.33716"/>
      <trkpt lat="46.58402" lon="0.33719"/>
      <trkpt lat="46.5840234" lon="0.3371859"/>
      <trkpt lat="46.58398" lon="0.33723"/>
      <trkpt lat="46.58395" lon="0.33726"/>
      <trkpt lat="46.58392" lon="0.33729"/>
      <trkpt lat="46.5839156" lon="0.3372923"/>
      <trkpt lat="46.58388" lon="0.33726"/>
      <trkpt lat="46.58385" lon="0.33722"/>
      <trkpt lat="46.5837" lon="0.33697"/>
      <trkpt lat="46.58343" lon="0.33662"/>
      <trkpt lat="46.5833" lon="0.3365"/>
      <trkpt lat="46.58316" lon="0.33638"/>
      <trkpt lat="46.58306" lon="0.33632"/>
      <trkpt lat="46.58305" lon="0.33631"/>
      <trkpt lat="46.58294" lon="0.33627"/>
      <trkpt lat="46.58288" lon="0.33624"/>
      <trkpt lat="46.58282" lon="0.33622"/>
      <trkpt lat="46.58279" lon="0.33621"/>
      <trkpt lat="46.58277" lon="0.33621"/>
      <trkpt lat="46.58241" lon="0.33608"/>
      <trkpt lat="46.58234" lon="0.33606"/>
      <trkpt lat="46.5817" lon="0.33586"/>
      <trkpt lat="46.58163" lon="0.33583"/>
      <trkpt lat="46.58136" lon="0.33576"/>
      <trkpt lat="46.58132" lon="0.33575"/>
      <trkpt lat="46.5813169" lon="0.3357458"/>
      <trkpt lat="46.58123" lon="0.33573"/>
      <trkpt lat="46.58119" lon="0.33572"/>
      <trkpt lat="46.58115" lon="0.33573"/>
      <trkpt lat="46.58111" lon="0.33574"/>
      <trkpt lat="46.58107" lon="0.33577"/>
      <trkpt lat="46.58103" lon="0.33582"/>
      <trkpt lat="46.58099" lon="0.33586"/>
      <trkpt lat="46.5809" lon="0.3359"/>
      <trkpt lat="46.58085" lon="0.33592"/>
      <trkpt lat="46.5808532" lon="0.3359191"/>
      <trkpt lat="46.58089" lon="0.33569"/>
      <trkpt lat="46.5808875" lon="0.3356874"/>
      <trkpt lat="46.5808875" lon="0.3356874"/>
      <trkpt lat="46.58085" lon="0.33592"/>
      <trkpt lat="46.58081" lon="0.33597"/>
      <trkpt lat="46.5808095" lon="0.3359658"/>
      <trkpt lat="46.58079" lon="0.33614"/>
      <trkpt lat="46.58074" lon="0.3365"/>
      <trkpt lat="46.5807" lon="0.3368"/>
      <trkpt lat="46.58068" lon="0.33693"/>
      <trkpt lat="46.58048" lon="0.33833"/>
      <trkpt lat="46.5805" lon="0.33845"/>
      <trkpt lat="46.58048" lon="0.3386"/>
      <trkpt lat="46.58038" lon="0.33931"/>
      <trkpt lat="46.58037" lon="0.33935"/>
      <trkpt lat="46.58036" lon="0.3394"/>
      <trkpt lat="46.58033" lon="0.33944"/>
      <trkpt lat="46.5803275" lon="0.3394376"/>
      <trkpt lat="46.58029" lon="0.33946"/>
      <trkpt lat="46.58026" lon="0.33946"/>
      <trkpt lat="46.58008" lon="0.33946"/>
      <trkpt lat="46.5800846" lon="0.3394573"/>
      <trkpt lat="46.58001" lon="0.33987"/>
      <trkpt lat="46.57996" lon="0.34024"/>
      <trkpt lat="46.5799584" lon="0.3402387"/>
      <trkpt lat="46.57954" lon="0.34009"/>
      <trkpt lat="46.57951" lon="0.34008"/>
      <trkpt lat="46.57918" lon="0.33996"/>
      <trkpt lat="46.57911" lon="0.33993"/>
      <trkpt lat="46.57885" lon="0.33985"/>
      <trkpt lat="46.5787" lon="0.3398"/>
      <trkpt lat="46.57861" lon="0.33977"/>
      <trkpt lat="46.57854" lon="0.33974"/>
      <trkpt lat="46.5782" lon="0.33958"/>
      <trkpt lat="46.57823" lon="0.33951"/>
      <trkpt lat="46.57823" lon="0.3395095"/>
      <trkpt lat="46.57817" lon="0.33946"/>
      <trkpt lat="46.57814" lon="0.33937"/>
      <trkpt lat="46.57796" lon="0.33895"/>
      <trkpt lat="46.57781" lon="0.33861"/>
      <trkpt lat="46.57768" lon="0.33832"/>
      <trkpt lat="46.57755" lon="0.33803"/>
      <trkpt lat="46.5773" lon="0.33747"/>
      <trkpt lat="46.57701" lon="0.33683"/>
      <trkpt lat="46.57697" lon="0.33674"/>
      <trkpt lat="46.5769706" lon="0.3367437"/>
      <trkpt lat="46.57695" lon="0.33677"/>
      <trkpt lat="46.57649" lon="0.33719"/>
      <trkpt lat="46.5764874" lon="0.3371897"/>
      <trkpt lat="46.57631" lon="0.33656"/>
      <trkpt lat="46.5762" lon="0.336"/>
      <trkpt lat="46.57615" lon="0.33578"/>
      <trkpt lat="46.57612" lon="0.33571"/>
      <trkpt lat="46.5761" lon="0.33565"/>
      <trkpt lat="46.57606" lon="0.33561"/>
      <trkpt lat="46.5760604" lon="0.3356061"/>
      <trkpt lat="46.5761" lon="0.33555"/>
      <trkpt lat="46.57605" lon="0.33548"/>
      <trkpt lat="46.5760497" lon="0.3354761"/>
      <trkpt lat="46.5760746" lon="0.3355139"/>
      <trkpt lat="46.5759" lon="0.33521"/>
      <trkpt lat="46.57559" lon="0.33464"/>
      <trkpt lat="46.5753" lon="0.33415"/>
      <trkpt lat="46.57519" lon="0.33395"/>
      <trkpt lat="46.57496" lon="0.33353"/>
      <trkpt lat="46.57487" lon="0.33335"/>
      <trkpt lat="46.57471" lon="0.33304"/>
      <trkpt lat="46.5747107" lon="0.3330412"/>
      <trkpt lat="46.57473" lon="0.33301"/>
      <trkpt lat="46.57474" lon="0.33299"/>
      <trkpt lat="46.57474" lon="0.33296"/>
      <trkpt lat="46.57474" lon="0.33292"/>
      <trkpt lat="46.57474" lon="0.33289"/>
      <trkpt lat="46.5747381" lon="0.332892"/>
      <trkpt lat="46.57472" lon="0.33286"/>
      <trkpt lat="46.5747" lon="0.33284"/>
      <trkpt lat="46.5747" lon="0.33283"/>
      <trkpt lat="46.57468" lon="0.33282"/>
      <trkpt lat="46.57466" lon="0.33282"/>
      <trkpt lat="46.57465" lon="0.33282"/>
      <trkpt lat="46.57464" lon="0.33282"/>
      <trkpt lat="46.57462" lon="0.33283"/>
      <trkpt lat="46.57461" lon="0.33284"/>
      <trkpt lat="46.5746082" lon="0.3328419"/>
      <trkpt lat="46.57451" lon="0.33265"/>
      <trkpt lat="46.57409" lon="0.3319"/>
      <trkpt lat="46.57384" lon="0.33146"/>
      <trkpt lat="46.57373" lon="0.33127"/>
      <trkpt lat="46.57348" lon="0.33082"/>
      <trkpt lat="46.57309" lon="0.33011"/>
      <trkpt lat="46.5730893" lon="0.3301109"/>
      <trkpt lat="46.5730893" lon="0.3301109"/>
      <trkpt lat="46.57303" lon="0.33001"/>
      <trkpt lat="46.573033" lon="0.33001"/>
      <trkpt lat="46.57296" lon="0.33005"/>
      <trkpt lat="46.5729635" lon="0.3300548"/>
      <trkpt lat="46.57298" lon="0.33014"/>
      <trkpt lat="46.5731" lon="0.3306"/>
      <trkpt lat="46.57329" lon="0.33131"/>
      <trkpt lat="46.57353" lon="0.33218"/>
      <trkpt lat="46.57368" lon="0.33272"/>
      <trkpt lat="46.5737" lon="0.33282"/>
      <trkpt lat="46.57374" lon="0.33295"/>
      <trkpt lat="46.57384" lon="0.3333"/>
      <trkpt lat="46.57397" lon="0.33373"/>
      <trkpt lat="46.57399" lon="0.33381"/>
      <trkpt lat="46.5741" lon="0.3342"/>
      <trkpt lat="46.57423" lon="0.33465"/>
      <trkpt lat="46.57439" lon="0.33516"/>
      <trkpt lat="46.57446" lon="0.3354"/>
      <trkpt lat="46.5745" lon="0.33552"/>
      <trkpt lat="46.57456" lon="0.33569"/>
      <trkpt lat="46.5746" lon="0.33576"/>
      <trkpt lat="46.57468" lon="0.33587"/>
      <trkpt lat="46.57478" lon="0.33607"/>
      <trkpt lat="46.5747786" lon="0.3360679"/>
      <trkpt lat="46.57486" lon="0.33611"/>
      <trkpt lat="46.57487" lon="0.33613"/>
      <trkpt lat="46.57488" lon="0.33614"/>
      <trkpt lat="46.57488" lon="0.33615"/>
      <trkpt lat="46.57489" lon="0.33616"/>
      <trkpt lat="46.57489" lon="0.33617"/>
      <trkpt lat="46.57489" lon="0.33619"/>
      <trkpt lat="46.5749" lon="0.3362"/>
      <trkpt lat="46.5749" lon="0.33621"/>
      <trkpt lat="46.57491" lon="0.33633"/>
      <trkpt lat="46.5749" lon="0.33637"/>
      <trkpt lat="46.5749" lon="0.33639"/>
      <trkpt lat="46.57489" lon="0.3364"/>
      <trkpt lat="46.57488" lon="0.33642"/>
      <trkpt lat="46.5749" lon="0.33654"/>
      <trkpt lat="46.57493" lon="0.3367"/>
      <trkpt lat="46.57495" lon="0.33681"/>
      <trkpt lat="46.57497" lon="0.33692"/>
      <trkpt lat="46.57506" lon="0.33728"/>
      <trkpt lat="46.57515" lon="0.33768"/>
      <trkpt lat="46.57527" lon="0.33803"/>
      <trkpt lat="46.57528" lon="0.3381"/>
      <trkpt lat="46.5752" lon="0.33816"/>
      <trkpt lat="46.57524" lon="0.33826"/>
      <trkpt lat="46.57537" lon="0.33857"/>
      <trkpt lat="46.57541" lon="0.3387"/>
      <trkpt lat="46.57543" lon="0.33878"/>
      <trkpt lat="46.5754322" lon="0.338783"/>
      <trkpt lat="46.57542" lon="0.33882"/>
      <trkpt lat="46.57541" lon="0.33883"/>
      <trkpt lat="46.57541" lon="0.33886"/>
      <trkpt lat="46.5754" lon="0.3389"/>
      <trkpt lat="46.57541" lon="0.33894"/>
      <trkpt lat="46.57543" lon="0.339"/>
      <trkpt lat="46.57545" lon="0.33906"/>
      <trkpt lat="46.57546" lon="0.33907"/>
      <trkpt lat="46.57547" lon="0.3391"/>
      <trkpt lat="46.57549" lon="0.33918"/>
      <trkpt lat="46.5755" lon="0.3392"/>
      <trkpt lat="46.57548" lon="0.33919"/>
      <trkpt lat="46.57546" lon="0.33914"/>
      <trkpt lat="46.57545" lon="0.33911"/>
      <trkpt lat="46.57543" lon="0.33907"/>
      <trkpt lat="46.57542" lon="0.33905"/>
      <trkpt lat="46.57541" lon="0.33903"/>
      <trkpt lat="46.57539" lon="0.33898"/>
      <trkpt lat="46.57534" lon="0.33909"/>
      <trkpt lat="46.5753383" lon="0.3390923"/>
      <trkpt lat="46.57532" lon="0.33903"/>
      <trkpt lat="46.57527" lon="0.33896"/>
      <trkpt lat="46.57524" lon="0.33893"/>
      <trkpt lat="46.57521" lon="0.33893"/>
      <trkpt lat="46.57516" lon="0.33893"/>
      <trkpt lat="46.57512" lon="0.33894"/>
      <trkpt lat="46.5751225" lon="0.3389419"/>
      <trkpt lat="46.57502" lon="0.33908"/>
      <trkpt lat="46.575" lon="0.33911"/>
      <trkpt lat="46.57497" lon="0.33915"/>
      <trkpt lat="46.57492" lon="0.33922"/>
      <trkpt lat="46.57486" lon="0.33929"/>
      <trkpt lat="46.5748" lon="0.33936"/>
      <trkpt lat="46.57479" lon="0.33938"/>
      <trkpt lat="46.57473" lon="0.33942"/>
      <trkpt lat="46.57463" lon="0.33947"/>
      <trkpt lat="46.57452" lon="0.33952"/>
      <trkpt lat="46.57444" lon="0.33955"/>
      <trkpt lat="46.57434" lon="0.33957"/>
      <trkpt lat="46.57429" lon="0.33949"/>
      <trkpt lat="46.57418" lon="0.33904"/>
      <trkpt lat="46.57417" lon="0.33901"/>
      <trkpt lat="46.57412" lon="0.33882"/>
      <trkpt lat="46.57411" lon="0.33877"/>
      <trkpt lat="46.57404" lon="0.33852"/>
      <trkpt lat="46.57401" lon="0.33841"/>
      <trkpt lat="46.57397" lon="0.33828"/>
      <trkpt lat="46.5739" lon="0.33804"/>
      <trkpt lat="46.57388" lon="0.33798"/>
      <trkpt lat="46.57389" lon="0.33791"/>
      <trkpt lat="46.57381" lon="0.33775"/>
      <trkpt lat="46.57379" lon="0.3377"/>
      <trkpt lat="46.57371" lon="0.33753"/>
      <trkpt lat="46.57364" lon="0.33741"/>
      <trkpt lat="46.5736" lon="0.33732"/>
      <trkpt lat="46.57354" lon="0.33721"/>
      <trkpt lat="46.57347" lon="0.33716"/>
      <trkpt lat="46.57338" lon="0.337"/>
      <trkpt lat="46.57337" lon="0.33699"/>
      <trkpt lat="46.57336" lon="0.33699"/>
      <trkpt lat="46.57335" lon="0.33698"/>
      <trkpt lat="46.57311" lon="0.33701"/>
      <trkpt lat="46.57276" lon="0.33705"/>
      <trkpt lat="46.57275" lon="0.33705"/>
      <trkpt lat="46.57255" lon="0.33707"/>
      <trkpt lat="46.57253" lon="0.33708"/>
      <trkpt lat="46.57247" lon="0.33709"/>
      <trkpt lat="46.5724718" lon="0.3370924"/>
      <trkpt lat="46.57252" lon="0.3373"/>
      <trkpt lat="46.57268" lon="0.3379"/>
      <trkpt lat="46.57287" lon="0.3387"/>
      <trkpt lat="46.57304" lon="0.33931"/>
      <trkpt lat="46.57308" lon="0.33949"/>
      <trkpt lat="46.57314" lon="0.33973"/>
      <trkpt lat="46.57319" lon="0.33993"/>
      <trkpt lat="46.57337" lon="0.34062"/>
      <trkpt lat="46.57347" lon="0.34095"/>
      <trkpt lat="46.57354" lon="0.34118"/>
      <trkpt lat="46.57361" lon="0.34144"/>
      <trkpt lat="46.57384" lon="0.3424"/>
      <trkpt lat="46.57393" lon="0.34277"/>
      <trkpt lat="46.5741" lon="0.34347"/>
      <trkpt lat="46.57421" lon="0.34389"/>
      <trkpt lat="46.57421" lon="0.3439"/>
      <trkpt lat="46.57436" lon="0.34452"/>
      <trkpt lat="46.57458" lon="0.34531"/>
      <trkpt lat="46.57467" lon="0.34574"/>
      <trkpt lat="46.57467" lon="0.3458"/>
      <trkpt lat="46.57466" lon="0.34584"/>
      <trkpt lat="46.57465" lon="0.34587"/>
      <trkpt lat="46.57463" lon="0.3459"/>
      <trkpt lat="46.57462" lon="0.34591"/>
      <trkpt lat="46.5746165" lon="0.3459131"/>
      <trkpt lat="46.57476" lon="0.34621"/>
      <trkpt lat="46.574764" lon="0.3462061"/>
      <trkpt lat="46.57481" lon="0.34629"/>
      <trkpt lat="46.57487" lon="0.34641"/>
      <trkpt lat="46.57489" lon="0.34649"/>
      <trkpt lat="46.57496" lon="0.34664"/>
      <trkpt lat="46.57498" lon="0.34667"/>
      <trkpt lat="46.5749751" lon="0.3466686"/>
      <trkpt lat="46.575" lon="0.34673"/>
      <trkpt lat="46.57505" lon="0.34686"/>
      <trkpt lat="46.57522" lon="0.34735"/>
      <trkpt lat="46.57523" lon="0.34737"/>
      <trkpt lat="46.57533" lon="0.34768"/>
      <trkpt lat="46.57538" lon="0.34785"/>
      <trkpt lat="46.57542" lon="0.34796"/>
      <trkpt lat="46.57545" lon="0.34805"/>
      <trkpt lat="46.57563" lon="0.34859"/>
      <trkpt lat="46.57578" lon="0.34902"/>
      <trkpt lat="46.57581" lon="0.34912"/>
      <trkpt lat="46.57596" lon="0.34954"/>
      <trkpt lat="46.57609" lon="0.34983"/>
      <trkpt lat="46.57641" lon="0.35049"/>
      <trkpt lat="46.57644" lon="0.35054"/>
      <trkpt lat="46.5764356" lon="0.3505357"/>
      <trkpt lat="46.57638" lon="0.3506"/>
      <trkpt lat="46.57626" lon="0.35072"/>
      <trkpt lat="46.57618" lon="0.3508"/>
      <trkpt lat="46.57611" lon="0.35088"/>
      <trkpt lat="46.57608" lon="0.35091"/>
      <trkpt lat="46.5760846" lon="0.3509051"/>
      <trkpt lat="46.57613" lon="0.35105"/>
      <trkpt lat="46.57613" lon="0.35114"/>
      <trkpt lat="46.57614" lon="0.35131"/>
      <trkpt lat="46.57637" lon="0.35178"/>
      <trkpt lat="46.57658" lon="0.35222"/>
      <trkpt lat="46.57657" lon="0.3523"/>
      <trkpt lat="46.57654" lon="0.35234"/>
      <trkpt lat="46.57638" lon="0.3525"/>
      <trkpt lat="46.5763" lon="0.35251"/>
      <trkpt lat="46.57612" lon="0.35267"/>
      <trkpt lat="46.57607" lon="0.35273"/>
      <trkpt lat="46.576067" lon="0.3527311"/>
      <trkpt lat="46.5761" lon="0.35278"/>
      <trkpt lat="46.57612" lon="0.35281"/>
      <trkpt lat="46.57617" lon="0.35293"/>
      <trkpt lat="46.57619" lon="0.35299"/>
      <trkpt lat="46.57625" lon="0.35318"/>
      <trkpt lat="46.57628" lon="0.3533"/>
      <trkpt lat="46.57632" lon="0.35338"/>
      <trkpt lat="46.5763238" lon="0.3533828"/>
      <trkpt lat="46.57617" lon="0.35359"/>
      <trkpt lat="46.57615" lon="0.35361"/>
      <trkpt lat="46.57591" lon="0.35391"/>
      <trkpt lat="46.57577" lon="0.35411"/>
      <trkpt lat="46.57574" lon="0.35415"/>
      <trkpt lat="46.57563" lon="0.35432"/>
      <trkpt lat="46.5756" lon="0.35437"/>
      <trkpt lat="46.57554" lon="0.35446"/>
      <trkpt lat="46.5755373" lon="0.3544552"/>
      <trkpt lat="46.57554" lon="0.35455"/>
      <trkpt lat="46.57553" lon="0.35459"/>
      <trkpt lat="46.57553" lon="0.35472"/>
      <trkpt lat="46.57556" lon="0.35491"/>
      <trkpt lat="46.57559" lon="0.35503"/>
      <trkpt lat="46.57561" lon="0.35512"/>
      <trkpt lat="46.57562" lon="0.35516"/>
      <trkpt lat="46.5757" lon="0.35535"/>
      <trkpt lat="46.57571" lon="0.35538"/>
      <trkpt lat="46.57577" lon="0.35555"/>
      <trkpt lat="46.57577" lon="0.35557"/>
      <trkpt lat="46.57578" lon="0.35568"/>
      <trkpt lat="46.57577" lon="0.35581"/>
      <trkpt lat="46.57575" lon="0.35596"/>
      <trkpt lat="46.57573" lon="0.35606"/>
      <trkpt lat="46.57571" lon="0.35615"/>
      <trkpt lat="46.57566" lon="0.35633"/>
      <trkpt lat="46.5756" lon="0.35653"/>
      <trkpt lat="46.5755" lon="0.35676"/>
      <trkpt lat="46.57547" lon="0.35684"/>
      <trkpt lat="46.57542" lon="0.357"/>
      <trkpt lat="46.5754" lon="0.35707"/>
      <trkpt lat="46.57534" lon="0.35732"/>
      <trkpt lat="46.5753" lon="0.3575"/>
      <trkpt lat="46.57525" lon="0.35773"/>
      <trkpt lat="46.57513" lon="0.35826"/>
      <trkpt lat="46.57502" lon="0.35876"/>
      <trkpt lat="46.57498" lon="0.35894"/>
      <trkpt lat="46.57496" lon="0.35904"/>
      <trkpt lat="46.57495" lon="0.35908"/>
      <trkpt lat="46.57494" lon="0.35916"/>
      <trkpt lat="46.5749" lon="0.35931"/>
      <trkpt lat="46.57488" lon="0.35941"/>
      <trkpt lat="46.57487" lon="0.35946"/>
      <trkpt lat="46.57476" lon="0.35995"/>
      <trkpt lat="46.57473" lon="0.36012"/>
      <trkpt lat="46.57468" lon="0.36037"/>
      <trkpt lat="46.57467" lon="0.36043"/>
      <trkpt lat="46.57463" lon="0.36062"/>
      <trkpt lat="46.57463" lon="0.36066"/>
      <trkpt lat="46.57457" lon="0.36085"/>
      <trkpt lat="46.5744" lon="0.36142"/>
      <trkpt lat="46.57434" lon="0.36165"/>
      <trkpt lat="46.57431" lon="0.36175"/>
      <trkpt lat="46.57429" lon="0.36184"/>
      <trkpt lat="46.57407" lon="0.36246"/>
      <trkpt lat="46.57397" lon="0.36282"/>
      <trkpt lat="46.57383" lon="0.36331"/>
      <trkpt lat="46.57368" lon="0.36381"/>
      <trkpt lat="46.57356" lon="0.36422"/>
      <trkpt lat="46.57348" lon="0.36449"/>
      <trkpt lat="46.57347" lon="0.36453"/>
      <trkpt lat="46.57345" lon="0.36458"/>
      <trkpt lat="46.57344" lon="0.36462"/>
      <trkpt lat="46.57342" lon="0.36472"/>
      <trkpt lat="46.57339" lon="0.36481"/>
      <trkpt lat="46.57338" lon="0.36486"/>
      <trkpt lat="46.57333" lon="0.36504"/>
      <trkpt lat="46.57329" lon="0.3652"/>
      <trkpt lat="46.57319" lon="0.36557"/>
      <trkpt lat="46.57315" lon="0.36573"/>
      <trkpt lat="46.5731" lon="0.36591"/>
      <trkpt lat="46.57308" lon="0.36598"/>
      <trkpt lat="46.57296" lon="0.36636"/>
      <trkpt lat="46.57295" lon="0.3664"/>
      <trkpt lat="46.57292" lon="0.36647"/>
      <trkpt lat="46.5729" lon="0.36651"/>
      <trkpt lat="46.5728987" lon="0.3665143"/>
      <trkpt lat="46.57282" lon="0.36652"/>
      <trkpt lat="46.5728197" lon="0.3665151"/>
      <trkpt lat="46.57282" lon="0.36658"/>
      <trkpt lat="46.57282" lon="0.36661"/>
      <trkpt lat="46.57282" lon="0.36667"/>
      <trkpt lat="46.5728187" lon="0.3666746"/>
      <trkpt lat="46.57279" lon="0.36674"/>
      <trkpt lat="46.57277" lon="0.36681"/>
      <trkpt lat="46.57275" lon="0.36686"/>
      <trkpt lat="46.57272" lon="0.36694"/>
      <trkpt lat="46.57271" lon="0.36699"/>
      <trkpt lat="46.5727" lon="0.36702"/>
      <trkpt lat="46.5727019" lon="0.3670211"/>
      <trkpt lat="46.57266" lon="0.36708"/>
      <trkpt lat="46.57265" lon="0.36712"/>
      <trkpt lat="46.57262" lon="0.36716"/>
      <trkpt lat="46.57259" lon="0.36719"/>
      <trkpt lat="46.57257" lon="0.36723"/>
      <trkpt lat="46.57256" lon="0.36727"/>
      <trkpt lat="46.57255" lon="0.36733"/>
      <trkpt lat="46.57237" lon="0.36756"/>
      <trkpt lat="46.57232" lon="0.36764"/>
      <trkpt lat="46.5718" lon="0.3685"/>
      <trkpt lat="46.57175" lon="0.36858"/>
      <trkpt lat="46.57169" lon="0.36867"/>
      <trkpt lat="46.57147" lon="0.36904"/>
      <trkpt lat="46.57139" lon="0.36919"/>
      <trkpt lat="46.57129" lon="0.36936"/>
      <trkpt lat="46.571288" lon="0.3693625"/>
      <trkpt lat="46.57122" lon="0.36942"/>
      <trkpt lat="46.57118" lon="0.36948"/>
      <trkpt lat="46.57114" lon="0.36954"/>
      <trkpt lat="46.57098" lon="0.36982"/>
      <trkpt lat="46.57091" lon="0.36993"/>
      <trkpt lat="46.57085" lon="0.37002"/>
      <trkpt lat="46.57078" lon="0.37013"/>
      <trkpt lat="46.5707804" lon="0.3701252"/>
      <trkpt lat="46.57062" lon="0.37007"/>
      <trkpt lat="46.57051" lon="0.37002"/>
      <trkpt lat="46.5698" lon="0.36975"/>
      <trkpt lat="46.56938" lon="0.36959"/>
      <trkpt lat="46.56922" lon="0.36951"/>
      <trkpt lat="46.56914" lon="0.36946"/>
      <trkpt lat="46.5691371" lon="0.369465"/>
      <trkpt lat="46.56913" lon="0.36949"/>
      <trkpt lat="46.5691" lon="0.36955"/>
      <trkpt lat="46.56907" lon="0.36962"/>
      <trkpt lat="46.56904" lon="0.36968"/>
      <trkpt lat="46.56891" lon="0.36986"/>
      <trkpt lat="46.56885" lon="0.36996"/>
      <trkpt lat="46.56874" lon="0.37013"/>
      <trkpt lat="46.56871" lon="0.37016"/>
      <trkpt lat="46.56864" lon="0.37027"/>
      <trkpt lat="46.56856" lon="0.37037"/>
      <trkpt lat="46.56852" lon="0.37043"/>
      <trkpt lat="46.56843" lon="0.37055"/>
      <trkpt lat="46.56828" lon="0.37075"/>
      <trkpt lat="46.56827" lon="0.37077"/>
      <trkpt lat="46.5682" lon="0.37086"/>
      <trkpt lat="46.56819" lon="0.37088"/>
      <trkpt lat="46.56811" lon="0.37098"/>
      <trkpt lat="46.56806" lon="0.37104"/>
      <trkpt lat="46.56802" lon="0.37107"/>
      <trkpt lat="46.5680176" lon="0.3710745"/>
      <trkpt lat="46.56797" lon="0.37114"/>
      <trkpt lat="46.56792" lon="0.37122"/>
      <trkpt lat="46.56777" lon="0.37139"/>
      <trkpt lat="46.56771" lon="0.37146"/>
      <trkpt lat="46.56769" lon="0.3715"/>
      <trkpt lat="46.56767" lon="0.37154"/>
      <trkpt lat="46.56764" lon="0.3716"/>
      <trkpt lat="46.56761" lon="0.37167"/>
      <trkpt lat="46.56757" lon="0.37174"/>
      <trkpt lat="46.56754" lon="0.37179"/>
      <trkpt lat="46.5675" lon="0.37183"/>
      <trkpt lat="46.56746" lon="0.37189"/>
      <trkpt lat="46.56743" lon="0.37194"/>
      <trkpt lat="46.5674" lon="0.37199"/>
      <trkpt lat="46.56735" lon="0.37206"/>
      <trkpt lat="46.56731" lon="0.37214"/>
      <trkpt lat="46.56727" lon="0.37223"/>
      <trkpt lat="46.56725" lon="0.37229"/>
      <trkpt lat="46.5672461" lon="0.3722889"/>
      <trkpt lat="46.5672233" lon="0.3723354"/>
      <trkpt lat="46.5672233" lon="0.3723354"/>
    </trkseg>
  </trk>
</gpx>
