<?xml version="1.0" encoding="UTF-8"?>
<gpx version="1.1" creator="Trace de Trail" schemaLocation="http://www.topografix.com/GPX/1/1 http://www.topografix.com/GPX/1/1/gpx.xsd" xmlns="http://www.topografix.com/GPX/1/1" xmlns:xsi="http://www.w3.org/2001/XMLSchema-instance" xsi:schemaLocation="http://www.topografix.com/GPX/1/1 http://www.topografix.com/GPX/1/1/gpx.xsd http://www.garmin.com/xmlschemas/GpxExtensions/v3 http://www.garmin.com/xmlschemas/GpxExtensionsv3.xsd http://www.garmin.com/xmlschemas/TrackPointExtension/v1 http://www.garmin.com/xmlschemas/TrackPointExtensionv1.xsd http://www.garmin.com/xmlschemas/PowerExtension/v1 http://www.garmin.com/xmlschemas/PowerExtensionv1.xsd http://www.topografix.com/GPX/gpx_style/0/2 http://www.topografix.com/GPX/gpx_style/0/2/gpx_style.xsd" xmlns:gpxtpx="http://www.garmin.com/xmlschemas/TrackPointExtension/v1" xmlns:gpxx="http://www.garmin.com/xmlschemas/GpxExtensions/v3" xmlns:gpxpx="http://www.garmin.com/xmlschemas/PowerExtension/v1" xmlns:gpx_style="http://www.topografix.com/GPX/gpx_style/0/2">
  <metadata>
    <name>Trail de la maison des fées</name>
    <desc>Parcours créé sur Trace de Trail</desc>
    <author>
      <name>gpx.studio</name>
      <link href="https://gpx.studio"/>
    </author>
    <link href="https://tracedetrail.fr/fr/trace/318119">
      <text>Cartographie du parcours</text>
    </link>
    <time>2026-03-19T10:18:04.000Z</time>
  </metadata>
  <trk>
    <name>Trail de la maison des fées</name>
    <src>Trace de Trail</src>
    <trkseg>
      <trkpt lat="45.95646" lon="5.835">
        <ele>254</ele>
      </trkpt>
      <trkpt lat="45.95658" lon="5.83489">
        <ele>254</ele>
      </trkpt>
      <trkpt lat="45.95672" lon="5.83476">
        <ele>254</ele>
      </trkpt>
      <trkpt lat="45.95686" lon="5.83464">
        <ele>254</ele>
      </trkpt>
      <trkpt lat="45.95697" lon="5.83452">
        <ele>254</ele>
      </trkpt>
      <trkpt lat="45.95718" lon="5.83434">
        <ele>254</ele>
      </trkpt>
      <trkpt lat="45.95731" lon="5.83421">
        <ele>254</ele>
      </trkpt>
      <trkpt lat="45.95738" lon="5.83413">
        <ele>254</ele>
      </trkpt>
      <trkpt lat="45.95743" lon="5.83402">
        <ele>254</ele>
      </trkpt>
      <trkpt lat="45.95753" lon="5.83376">
        <ele>255</ele>
      </trkpt>
      <trkpt lat="45.95768" lon="5.83364">
        <ele>255</ele>
      </trkpt>
      <trkpt lat="45.9579" lon="5.83343">
        <ele>254</ele>
      </trkpt>
      <trkpt lat="45.95807" lon="5.83331">
        <ele>254</ele>
      </trkpt>
      <trkpt lat="45.95817" lon="5.8333">
        <ele>257</ele>
      </trkpt>
      <trkpt lat="45.95839" lon="5.83336">
        <ele>255</ele>
      </trkpt>
      <trkpt lat="45.95847" lon="5.83342">
        <ele>258</ele>
      </trkpt>
      <trkpt lat="45.95848" lon="5.8335">
        <ele>262</ele>
      </trkpt>
      <trkpt lat="45.95848" lon="5.83362">
        <ele>258</ele>
      </trkpt>
      <trkpt lat="45.9585" lon="5.83384">
        <ele>260</ele>
      </trkpt>
      <trkpt lat="45.95848" lon="5.83395">
        <ele>262</ele>
      </trkpt>
      <trkpt lat="45.9585" lon="5.83406">
        <ele>261</ele>
      </trkpt>
      <trkpt lat="45.95856" lon="5.83414">
        <ele>262</ele>
      </trkpt>
      <trkpt lat="45.95862" lon="5.83424">
        <ele>262</ele>
      </trkpt>
      <trkpt lat="45.95869" lon="5.83434">
        <ele>262</ele>
      </trkpt>
      <trkpt lat="45.95879" lon="5.83465">
        <ele>263</ele>
      </trkpt>
      <trkpt lat="45.95885" lon="5.83479">
        <ele>263</ele>
      </trkpt>
      <trkpt lat="45.95891" lon="5.83487">
        <ele>263</ele>
      </trkpt>
      <trkpt lat="45.95899" lon="5.83492">
        <ele>264</ele>
      </trkpt>
      <trkpt lat="45.95908" lon="5.835">
        <ele>265</ele>
      </trkpt>
      <trkpt lat="45.95913" lon="5.83507">
        <ele>264</ele>
      </trkpt>
      <trkpt lat="45.95927" lon="5.8354">
        <ele>265</ele>
      </trkpt>
      <trkpt lat="45.95933" lon="5.83557">
        <ele>265</ele>
      </trkpt>
      <trkpt lat="45.95948" lon="5.83589">
        <ele>265</ele>
      </trkpt>
      <trkpt lat="45.95964" lon="5.83622">
        <ele>264</ele>
      </trkpt>
      <trkpt lat="45.9598" lon="5.83656">
        <ele>263</ele>
      </trkpt>
      <trkpt lat="45.95976" lon="5.83686">
        <ele>263</ele>
      </trkpt>
      <trkpt lat="45.9596" lon="5.83731">
        <ele>262</ele>
      </trkpt>
      <trkpt lat="45.95944" lon="5.83776">
        <ele>262</ele>
      </trkpt>
      <trkpt lat="45.95913" lon="5.83864">
        <ele>262</ele>
      </trkpt>
      <trkpt lat="45.9594" lon="5.83871">
        <ele>262</ele>
      </trkpt>
      <trkpt lat="45.9598" lon="5.83882">
        <ele>262</ele>
      </trkpt>
      <trkpt lat="45.96005" lon="5.83889">
        <ele>263</ele>
      </trkpt>
      <trkpt lat="45.96035" lon="5.83898">
        <ele>263</ele>
      </trkpt>
      <trkpt lat="45.96036" lon="5.83911">
        <ele>264</ele>
      </trkpt>
      <trkpt lat="45.96048" lon="5.83922">
        <ele>263</ele>
      </trkpt>
      <trkpt lat="45.9608" lon="5.8393">
        <ele>264</ele>
      </trkpt>
      <trkpt lat="45.96111" lon="5.83939">
        <ele>265</ele>
      </trkpt>
      <trkpt lat="45.96149" lon="5.83949">
        <ele>266</ele>
      </trkpt>
      <trkpt lat="45.96155" lon="5.83946">
        <ele>266</ele>
      </trkpt>
      <trkpt lat="45.96166" lon="5.83965">
        <ele>266</ele>
      </trkpt>
      <trkpt lat="45.96163" lon="5.83981">
        <ele>267</ele>
      </trkpt>
      <trkpt lat="45.96162" lon="5.83992">
        <ele>267</ele>
      </trkpt>
      <trkpt lat="45.96163" lon="5.84037">
        <ele>268</ele>
      </trkpt>
      <trkpt lat="45.96164" lon="5.84051">
        <ele>269</ele>
      </trkpt>
      <trkpt lat="45.96163" lon="5.84058">
        <ele>269</ele>
      </trkpt>
      <trkpt lat="45.96165" lon="5.84067">
        <ele>270</ele>
      </trkpt>
      <trkpt lat="45.96171" lon="5.84102">
        <ele>271</ele>
      </trkpt>
      <trkpt lat="45.96171" lon="5.84108">
        <ele>271</ele>
      </trkpt>
      <trkpt lat="45.96168" lon="5.8412">
        <ele>273</ele>
      </trkpt>
      <trkpt lat="45.96164" lon="5.84128">
        <ele>273</ele>
      </trkpt>
      <trkpt lat="45.9616" lon="5.8414">
        <ele>274</ele>
      </trkpt>
      <trkpt lat="45.96154" lon="5.84164">
        <ele>276</ele>
      </trkpt>
      <trkpt lat="45.96149" lon="5.84216">
        <ele>279</ele>
      </trkpt>
      <trkpt lat="45.96147" lon="5.8423">
        <ele>280</ele>
      </trkpt>
      <trkpt lat="45.96145" lon="5.84251">
        <ele>282</ele>
      </trkpt>
      <trkpt lat="45.96137" lon="5.84282">
        <ele>287</ele>
      </trkpt>
      <trkpt lat="45.96128" lon="5.84308">
        <ele>288</ele>
      </trkpt>
      <trkpt lat="45.96113" lon="5.84343">
        <ele>290</ele>
      </trkpt>
      <trkpt lat="45.96093" lon="5.84377">
        <ele>294</ele>
      </trkpt>
      <trkpt lat="45.96086" lon="5.84398">
        <ele>296</ele>
      </trkpt>
      <trkpt lat="45.96083" lon="5.84414">
        <ele>298</ele>
      </trkpt>
      <trkpt lat="45.96078" lon="5.84447">
        <ele>303</ele>
      </trkpt>
      <trkpt lat="45.96076" lon="5.84468">
        <ele>306</ele>
      </trkpt>
      <trkpt lat="45.96076" lon="5.84478">
        <ele>307</ele>
      </trkpt>
      <trkpt lat="45.96077" lon="5.84486">
        <ele>308</ele>
      </trkpt>
      <trkpt lat="45.96078" lon="5.84515">
        <ele>313</ele>
      </trkpt>
      <trkpt lat="45.96081" lon="5.84545">
        <ele>315</ele>
      </trkpt>
      <trkpt lat="45.96083" lon="5.84552">
        <ele>317</ele>
      </trkpt>
      <trkpt lat="45.96084" lon="5.84585">
        <ele>322</ele>
      </trkpt>
      <trkpt lat="45.96082" lon="5.84594">
        <ele>323</ele>
      </trkpt>
      <trkpt lat="45.96077" lon="5.84601">
        <ele>326</ele>
      </trkpt>
      <trkpt lat="45.96069" lon="5.84607">
        <ele>328</ele>
      </trkpt>
      <trkpt lat="45.96057" lon="5.84613">
        <ele>330</ele>
      </trkpt>
      <trkpt lat="45.96039" lon="5.84618">
        <ele>334</ele>
      </trkpt>
      <trkpt lat="45.96028" lon="5.84623">
        <ele>336</ele>
      </trkpt>
      <trkpt lat="45.96019" lon="5.8463">
        <ele>339</ele>
      </trkpt>
      <trkpt lat="45.96007" lon="5.84645">
        <ele>341</ele>
      </trkpt>
      <trkpt lat="45.95996" lon="5.84663">
        <ele>344</ele>
      </trkpt>
      <trkpt lat="45.95992" lon="5.84677">
        <ele>345</ele>
      </trkpt>
      <trkpt lat="45.95986" lon="5.84704">
        <ele>351</ele>
      </trkpt>
      <trkpt lat="45.95979" lon="5.84735">
        <ele>355</ele>
      </trkpt>
      <trkpt lat="45.95978" lon="5.84745">
        <ele>357</ele>
      </trkpt>
      <trkpt lat="45.95978" lon="5.84751">
        <ele>358</ele>
      </trkpt>
      <trkpt lat="45.95976" lon="5.84783">
        <ele>360</ele>
      </trkpt>
      <trkpt lat="45.9597" lon="5.84824">
        <ele>362</ele>
      </trkpt>
      <trkpt lat="45.95967" lon="5.84836">
        <ele>364</ele>
      </trkpt>
      <trkpt lat="45.9596" lon="5.84855">
        <ele>368</ele>
      </trkpt>
      <trkpt lat="45.95934" lon="5.84898">
        <ele>371</ele>
      </trkpt>
      <trkpt lat="45.95916" lon="5.84917">
        <ele>377</ele>
      </trkpt>
      <trkpt lat="45.95905" lon="5.84923">
        <ele>377</ele>
      </trkpt>
      <trkpt lat="45.95883" lon="5.84938">
        <ele>382</ele>
      </trkpt>
      <trkpt lat="45.95873" lon="5.84938">
        <ele>384</ele>
      </trkpt>
      <trkpt lat="45.95861" lon="5.84935">
        <ele>385</ele>
      </trkpt>
      <trkpt lat="45.95846" lon="5.84929">
        <ele>387</ele>
      </trkpt>
      <trkpt lat="45.95837" lon="5.84927">
        <ele>388</ele>
      </trkpt>
      <trkpt lat="45.95828" lon="5.84928">
        <ele>390</ele>
      </trkpt>
      <trkpt lat="45.95822" lon="5.8493">
        <ele>390</ele>
      </trkpt>
      <trkpt lat="45.95817" lon="5.84934">
        <ele>391</ele>
      </trkpt>
      <trkpt lat="45.95813" lon="5.8494">
        <ele>392</ele>
      </trkpt>
      <trkpt lat="45.95811" lon="5.84945">
        <ele>392</ele>
      </trkpt>
      <trkpt lat="45.95809" lon="5.84956">
        <ele>392</ele>
      </trkpt>
      <trkpt lat="45.95809" lon="5.84973">
        <ele>394</ele>
      </trkpt>
      <trkpt lat="45.95808" lon="5.84983">
        <ele>396</ele>
      </trkpt>
      <trkpt lat="45.95803" lon="5.85016">
        <ele>400</ele>
      </trkpt>
      <trkpt lat="45.95797" lon="5.85033">
        <ele>403</ele>
      </trkpt>
      <trkpt lat="45.95791" lon="5.85053">
        <ele>404</ele>
      </trkpt>
      <trkpt lat="45.95787" lon="5.85071">
        <ele>408</ele>
      </trkpt>
      <trkpt lat="45.95785" lon="5.85089">
        <ele>409</ele>
      </trkpt>
      <trkpt lat="45.95783" lon="5.85102">
        <ele>411</ele>
      </trkpt>
      <trkpt lat="45.9578" lon="5.85114">
        <ele>414</ele>
      </trkpt>
      <trkpt lat="45.95769" lon="5.85141">
        <ele>420</ele>
      </trkpt>
      <trkpt lat="45.95767" lon="5.85145">
        <ele>420</ele>
      </trkpt>
      <trkpt lat="45.95764" lon="5.85149">
        <ele>420</ele>
      </trkpt>
      <trkpt lat="45.95758" lon="5.85162">
        <ele>424</ele>
      </trkpt>
      <trkpt lat="45.9575" lon="5.85182">
        <ele>424</ele>
      </trkpt>
      <trkpt lat="45.95742" lon="5.85213">
        <ele>427</ele>
      </trkpt>
      <trkpt lat="45.95735" lon="5.85229">
        <ele>429</ele>
      </trkpt>
      <trkpt lat="45.95727" lon="5.85242">
        <ele>430</ele>
      </trkpt>
      <trkpt lat="45.95722" lon="5.85257">
        <ele>431</ele>
      </trkpt>
      <trkpt lat="45.95718" lon="5.85265">
        <ele>432</ele>
      </trkpt>
      <trkpt lat="45.95714" lon="5.85286">
        <ele>433</ele>
      </trkpt>
      <trkpt lat="45.95709" lon="5.85308">
        <ele>436</ele>
      </trkpt>
      <trkpt lat="45.95705" lon="5.85319">
        <ele>439</ele>
      </trkpt>
      <trkpt lat="45.95697" lon="5.85331">
        <ele>440</ele>
      </trkpt>
      <trkpt lat="45.95691" lon="5.85336">
        <ele>440</ele>
      </trkpt>
      <trkpt lat="45.95678" lon="5.8533">
        <ele>440</ele>
      </trkpt>
      <trkpt lat="45.95659" lon="5.85319">
        <ele>440</ele>
      </trkpt>
      <trkpt lat="45.95647" lon="5.85311">
        <ele>441</ele>
      </trkpt>
      <trkpt lat="45.95637" lon="5.85296">
        <ele>440</ele>
      </trkpt>
      <trkpt lat="45.95624" lon="5.85289">
        <ele>440</ele>
      </trkpt>
      <trkpt lat="45.95604" lon="5.853">
        <ele>442</ele>
      </trkpt>
      <trkpt lat="45.95585" lon="5.85299">
        <ele>445</ele>
      </trkpt>
      <trkpt lat="45.95573" lon="5.85296">
        <ele>446</ele>
      </trkpt>
      <trkpt lat="45.95556" lon="5.85289">
        <ele>448</ele>
      </trkpt>
      <trkpt lat="45.95553" lon="5.85315">
        <ele>450</ele>
      </trkpt>
      <trkpt lat="45.95552" lon="5.85339">
        <ele>452</ele>
      </trkpt>
      <trkpt lat="45.95551" lon="5.85367">
        <ele>452</ele>
      </trkpt>
      <trkpt lat="45.9556" lon="5.85396">
        <ele>455</ele>
      </trkpt>
      <trkpt lat="45.95564" lon="5.8542">
        <ele>455</ele>
      </trkpt>
      <trkpt lat="45.95572" lon="5.8545">
        <ele>458</ele>
      </trkpt>
      <trkpt lat="45.95582" lon="5.85483">
        <ele>460</ele>
      </trkpt>
      <trkpt lat="45.95588" lon="5.85515">
        <ele>463</ele>
      </trkpt>
      <trkpt lat="45.95601" lon="5.85549">
        <ele>465</ele>
      </trkpt>
      <trkpt lat="45.95604" lon="5.8556">
        <ele>468</ele>
      </trkpt>
      <trkpt lat="45.95606" lon="5.85599">
        <ele>472</ele>
      </trkpt>
      <trkpt lat="45.95607" lon="5.85615">
        <ele>475</ele>
      </trkpt>
      <trkpt lat="45.95619" lon="5.85659">
        <ele>480</ele>
      </trkpt>
      <trkpt lat="45.95635" lon="5.85694">
        <ele>485</ele>
      </trkpt>
      <trkpt lat="45.95639" lon="5.85717">
        <ele>487</ele>
      </trkpt>
      <trkpt lat="45.9564" lon="5.85733">
        <ele>489</ele>
      </trkpt>
      <trkpt lat="45.95638" lon="5.85751">
        <ele>491</ele>
      </trkpt>
      <trkpt lat="45.95636" lon="5.85774">
        <ele>493</ele>
      </trkpt>
      <trkpt lat="45.95634" lon="5.85792">
        <ele>494</ele>
      </trkpt>
      <trkpt lat="45.95636" lon="5.858">
        <ele>496</ele>
      </trkpt>
      <trkpt lat="45.9565" lon="5.85812">
        <ele>494</ele>
      </trkpt>
      <trkpt lat="45.95665" lon="5.85826">
        <ele>495</ele>
      </trkpt>
      <trkpt lat="45.95692" lon="5.85837">
        <ele>496</ele>
      </trkpt>
      <trkpt lat="45.95725" lon="5.8586">
        <ele>498</ele>
      </trkpt>
      <trkpt lat="45.95742" lon="5.85873">
        <ele>497</ele>
      </trkpt>
      <trkpt lat="45.95781" lon="5.85891">
        <ele>496</ele>
      </trkpt>
      <trkpt lat="45.95805" lon="5.85909">
        <ele>494</ele>
      </trkpt>
      <trkpt lat="45.95844" lon="5.85932">
        <ele>492</ele>
      </trkpt>
      <trkpt lat="45.95884" lon="5.85952">
        <ele>492</ele>
      </trkpt>
      <trkpt lat="45.95912" lon="5.85972">
        <ele>493</ele>
      </trkpt>
      <trkpt lat="45.95935" lon="5.85984">
        <ele>494</ele>
      </trkpt>
      <trkpt lat="45.9596" lon="5.85991">
        <ele>494</ele>
      </trkpt>
      <trkpt lat="45.95988" lon="5.85999">
        <ele>489</ele>
      </trkpt>
      <trkpt lat="45.96012" lon="5.86001">
        <ele>488</ele>
      </trkpt>
      <trkpt lat="45.96035" lon="5.86004">
        <ele>488</ele>
      </trkpt>
      <trkpt lat="45.96068" lon="5.8602">
        <ele>488</ele>
      </trkpt>
      <trkpt lat="45.96096" lon="5.86024">
        <ele>484</ele>
      </trkpt>
      <trkpt lat="45.96123" lon="5.86033">
        <ele>479</ele>
      </trkpt>
      <trkpt lat="45.96148" lon="5.86054">
        <ele>477</ele>
      </trkpt>
      <trkpt lat="45.96178" lon="5.86081">
        <ele>475</ele>
      </trkpt>
      <trkpt lat="45.96203" lon="5.86109">
        <ele>475</ele>
      </trkpt>
      <trkpt lat="45.96224" lon="5.86124">
        <ele>475</ele>
      </trkpt>
      <trkpt lat="45.96245" lon="5.86139">
        <ele>475</ele>
      </trkpt>
      <trkpt lat="45.96265" lon="5.86144">
        <ele>473</ele>
      </trkpt>
      <trkpt lat="45.96307" lon="5.86161">
        <ele>473</ele>
      </trkpt>
      <trkpt lat="45.96332" lon="5.86183">
        <ele>474</ele>
      </trkpt>
      <trkpt lat="45.96375" lon="5.8622">
        <ele>479</ele>
      </trkpt>
      <trkpt lat="45.96398" lon="5.8625">
        <ele>487</ele>
      </trkpt>
      <trkpt lat="45.96444" lon="5.8631">
        <ele>488</ele>
      </trkpt>
      <trkpt lat="45.96472" lon="5.86338">
        <ele>490</ele>
      </trkpt>
      <trkpt lat="45.96498" lon="5.8639">
        <ele>501</ele>
      </trkpt>
      <trkpt lat="45.96515" lon="5.86428">
        <ele>504</ele>
      </trkpt>
      <trkpt lat="45.96536" lon="5.86481">
        <ele>512</ele>
      </trkpt>
      <trkpt lat="45.96554" lon="5.86522">
        <ele>517</ele>
      </trkpt>
      <trkpt lat="45.96572" lon="5.86559">
        <ele>520</ele>
      </trkpt>
      <trkpt lat="45.96586" lon="5.86592">
        <ele>524</ele>
      </trkpt>
      <trkpt lat="45.96591" lon="5.86614">
        <ele>525</ele>
      </trkpt>
      <trkpt lat="45.96596" lon="5.8664">
        <ele>530</ele>
      </trkpt>
      <trkpt lat="45.96602" lon="5.86674">
        <ele>533</ele>
      </trkpt>
      <trkpt lat="45.96598" lon="5.86734">
        <ele>544</ele>
      </trkpt>
      <trkpt lat="45.96595" lon="5.86751">
        <ele>547</ele>
      </trkpt>
      <trkpt lat="45.96596" lon="5.86773">
        <ele>550</ele>
      </trkpt>
      <trkpt lat="45.96592" lon="5.86807">
        <ele>554</ele>
      </trkpt>
      <trkpt lat="45.96589" lon="5.86821">
        <ele>557</ele>
      </trkpt>
      <trkpt lat="45.96582" lon="5.86828">
        <ele>557</ele>
      </trkpt>
      <trkpt lat="45.96576" lon="5.86829">
        <ele>558</ele>
      </trkpt>
      <trkpt lat="45.96566" lon="5.86823">
        <ele>559</ele>
      </trkpt>
      <trkpt lat="45.96559" lon="5.8681">
        <ele>560</ele>
      </trkpt>
      <trkpt lat="45.96545" lon="5.86792">
        <ele>561</ele>
      </trkpt>
      <trkpt lat="45.96529" lon="5.86783">
        <ele>565</ele>
      </trkpt>
      <trkpt lat="45.96514" lon="5.86771">
        <ele>567</ele>
      </trkpt>
      <trkpt lat="45.96498" lon="5.86758">
        <ele>570</ele>
      </trkpt>
      <trkpt lat="45.96464" lon="5.86746">
        <ele>577</ele>
      </trkpt>
      <trkpt lat="45.9643" lon="5.86742">
        <ele>584</ele>
      </trkpt>
      <trkpt lat="45.96385" lon="5.86726">
        <ele>592</ele>
      </trkpt>
      <trkpt lat="45.96357" lon="5.86715">
        <ele>598</ele>
      </trkpt>
      <trkpt lat="45.96333" lon="5.8671">
        <ele>602</ele>
      </trkpt>
      <trkpt lat="45.96308" lon="5.86705">
        <ele>607</ele>
      </trkpt>
      <trkpt lat="45.96294" lon="5.86704">
        <ele>609</ele>
      </trkpt>
      <trkpt lat="45.96277" lon="5.86706">
        <ele>612</ele>
      </trkpt>
      <trkpt lat="45.9626" lon="5.86709">
        <ele>613</ele>
      </trkpt>
      <trkpt lat="45.96249" lon="5.86717">
        <ele>617</ele>
      </trkpt>
      <trkpt lat="45.9623" lon="5.86715">
        <ele>619</ele>
      </trkpt>
      <trkpt lat="45.9621" lon="5.86714">
        <ele>623</ele>
      </trkpt>
      <trkpt lat="45.96176" lon="5.86707">
        <ele>627</ele>
      </trkpt>
      <trkpt lat="45.96147" lon="5.8668">
        <ele>628</ele>
      </trkpt>
      <trkpt lat="45.96116" lon="5.86666">
        <ele>632</ele>
      </trkpt>
      <trkpt lat="45.96084" lon="5.86671">
        <ele>638</ele>
      </trkpt>
      <trkpt lat="45.96042" lon="5.86649">
        <ele>643</ele>
      </trkpt>
      <trkpt lat="45.96018" lon="5.86641">
        <ele>650</ele>
      </trkpt>
      <trkpt lat="45.95992" lon="5.86632">
        <ele>653</ele>
      </trkpt>
      <trkpt lat="45.95968" lon="5.86615">
        <ele>659</ele>
      </trkpt>
      <trkpt lat="45.95937" lon="5.86592">
        <ele>664</ele>
      </trkpt>
      <trkpt lat="45.95912" lon="5.86574">
        <ele>667</ele>
      </trkpt>
      <trkpt lat="45.95875" lon="5.86548">
        <ele>671</ele>
      </trkpt>
      <trkpt lat="45.95849" lon="5.86532">
        <ele>678</ele>
      </trkpt>
      <trkpt lat="45.95807" lon="5.86507">
        <ele>682</ele>
      </trkpt>
      <trkpt lat="45.95784" lon="5.86494">
        <ele>685</ele>
      </trkpt>
      <trkpt lat="45.95758" lon="5.86479">
        <ele>688</ele>
      </trkpt>
      <trkpt lat="45.95744" lon="5.86482">
        <ele>692</ele>
      </trkpt>
      <trkpt lat="45.95712" lon="5.86478">
        <ele>699</ele>
      </trkpt>
      <trkpt lat="45.95679" lon="5.86463">
        <ele>711</ele>
      </trkpt>
      <trkpt lat="45.95647" lon="5.86443">
        <ele>715</ele>
      </trkpt>
      <trkpt lat="45.95634" lon="5.86438">
        <ele>715</ele>
      </trkpt>
      <trkpt lat="45.95623" lon="5.86441">
        <ele>719</ele>
      </trkpt>
      <trkpt lat="45.95616" lon="5.86453">
        <ele>724</ele>
      </trkpt>
      <trkpt lat="45.95616" lon="5.8647">
        <ele>728</ele>
      </trkpt>
      <trkpt lat="45.95617" lon="5.86489">
        <ele>729</ele>
      </trkpt>
      <trkpt lat="45.9562" lon="5.86517">
        <ele>734</ele>
      </trkpt>
      <trkpt lat="45.95611" lon="5.86572">
        <ele>742</ele>
      </trkpt>
      <trkpt lat="45.95604" lon="5.86592">
        <ele>748</ele>
      </trkpt>
      <trkpt lat="45.95597" lon="5.86601">
        <ele>752</ele>
      </trkpt>
      <trkpt lat="45.9559" lon="5.86603">
        <ele>756</ele>
      </trkpt>
      <trkpt lat="45.95582" lon="5.86602">
        <ele>756</ele>
      </trkpt>
      <trkpt lat="45.95568" lon="5.8659">
        <ele>759</ele>
      </trkpt>
      <trkpt lat="45.95554" lon="5.86577">
        <ele>761</ele>
      </trkpt>
      <trkpt lat="45.95528" lon="5.86552">
        <ele>770</ele>
      </trkpt>
      <trkpt lat="45.95501" lon="5.86528">
        <ele>772</ele>
      </trkpt>
      <trkpt lat="45.95481" lon="5.86509">
        <ele>778</ele>
      </trkpt>
      <trkpt lat="45.95461" lon="5.86489">
        <ele>780</ele>
      </trkpt>
      <trkpt lat="45.9544" lon="5.8647">
        <ele>789</ele>
      </trkpt>
      <trkpt lat="45.95415" lon="5.86448">
        <ele>789</ele>
      </trkpt>
      <trkpt lat="45.95389" lon="5.86409">
        <ele>794</ele>
      </trkpt>
      <trkpt lat="45.95362" lon="5.86371">
        <ele>797</ele>
      </trkpt>
      <trkpt lat="45.95332" lon="5.86342">
        <ele>794</ele>
      </trkpt>
      <trkpt lat="45.95313" lon="5.86339">
        <ele>797</ele>
      </trkpt>
      <trkpt lat="45.95288" lon="5.86345">
        <ele>800</ele>
      </trkpt>
      <trkpt lat="45.9526" lon="5.86352">
        <ele>803</ele>
      </trkpt>
      <trkpt lat="45.9522" lon="5.86344">
        <ele>803</ele>
      </trkpt>
      <trkpt lat="45.95217" lon="5.86351">
        <ele>802</ele>
      </trkpt>
      <trkpt lat="45.95219" lon="5.86358">
        <ele>802</ele>
      </trkpt>
      <trkpt lat="45.95225" lon="5.86371">
        <ele>808</ele>
      </trkpt>
      <trkpt lat="45.95232" lon="5.86391">
        <ele>812</ele>
      </trkpt>
      <trkpt lat="45.95232" lon="5.86403">
        <ele>815</ele>
      </trkpt>
      <trkpt lat="45.95231" lon="5.86425">
        <ele>818</ele>
      </trkpt>
      <trkpt lat="45.95235" lon="5.86452">
        <ele>827</ele>
      </trkpt>
      <trkpt lat="45.95234" lon="5.86473">
        <ele>832</ele>
      </trkpt>
      <trkpt lat="45.95224" lon="5.86502">
        <ele>837</ele>
      </trkpt>
      <trkpt lat="45.95209" lon="5.86548">
        <ele>846</ele>
      </trkpt>
      <trkpt lat="45.95206" lon="5.86567">
        <ele>848</ele>
      </trkpt>
      <trkpt lat="45.95208" lon="5.86594">
        <ele>858</ele>
      </trkpt>
      <trkpt lat="45.95211" lon="5.86625">
        <ele>863</ele>
      </trkpt>
      <trkpt lat="45.9517" lon="5.86653">
        <ele>871</ele>
      </trkpt>
      <trkpt lat="45.95146" lon="5.86688">
        <ele>874</ele>
      </trkpt>
      <trkpt lat="45.95135" lon="5.86719">
        <ele>875</ele>
      </trkpt>
      <trkpt lat="45.9513" lon="5.86741">
        <ele>878</ele>
      </trkpt>
      <trkpt lat="45.9512" lon="5.86766">
        <ele>872</ele>
      </trkpt>
      <trkpt lat="45.95112" lon="5.86789">
        <ele>874</ele>
      </trkpt>
      <trkpt lat="45.95106" lon="5.86798">
        <ele>870</ele>
      </trkpt>
      <trkpt lat="45.9507" lon="5.86802">
        <ele>864</ele>
      </trkpt>
      <trkpt lat="45.95044" lon="5.86827">
        <ele>864</ele>
      </trkpt>
      <trkpt lat="45.95022" lon="5.86847">
        <ele>864</ele>
      </trkpt>
      <trkpt lat="45.94987" lon="5.86858">
        <ele>862</ele>
      </trkpt>
      <trkpt lat="45.94963" lon="5.86862">
        <ele>863</ele>
      </trkpt>
      <trkpt lat="45.9494" lon="5.86867">
        <ele>864</ele>
      </trkpt>
      <trkpt lat="45.94901" lon="5.86861">
        <ele>869</ele>
      </trkpt>
      <trkpt lat="45.94874" lon="5.86856">
        <ele>870</ele>
      </trkpt>
      <trkpt lat="45.9486" lon="5.86897">
        <ele>875</ele>
      </trkpt>
      <trkpt lat="45.94846" lon="5.86937">
        <ele>879</ele>
      </trkpt>
      <trkpt lat="45.9483" lon="5.86982">
        <ele>885</ele>
      </trkpt>
      <trkpt lat="45.94818" lon="5.87018">
        <ele>891</ele>
      </trkpt>
      <trkpt lat="45.94813" lon="5.87051">
        <ele>894</ele>
      </trkpt>
      <trkpt lat="45.94808" lon="5.87084">
        <ele>897</ele>
      </trkpt>
      <trkpt lat="45.94792" lon="5.87136">
        <ele>901</ele>
      </trkpt>
      <trkpt lat="45.94777" lon="5.87174">
        <ele>904</ele>
      </trkpt>
      <trkpt lat="45.94766" lon="5.87189">
        <ele>905</ele>
      </trkpt>
      <trkpt lat="45.94742" lon="5.87201">
        <ele>908</ele>
      </trkpt>
      <trkpt lat="45.9472" lon="5.87213">
        <ele>910</ele>
      </trkpt>
      <trkpt lat="45.94692" lon="5.87229">
        <ele>915</ele>
      </trkpt>
      <trkpt lat="45.94645" lon="5.87256">
        <ele>922</ele>
      </trkpt>
      <trkpt lat="45.94634" lon="5.87284">
        <ele>926</ele>
      </trkpt>
      <trkpt lat="45.94591" lon="5.87293">
        <ele>929</ele>
      </trkpt>
      <trkpt lat="45.9456" lon="5.87279">
        <ele>930</ele>
      </trkpt>
      <trkpt lat="45.94545" lon="5.87285">
        <ele>930</ele>
      </trkpt>
      <trkpt lat="45.94549" lon="5.87306">
        <ele>930</ele>
      </trkpt>
      <trkpt lat="45.94548" lon="5.87328">
        <ele>931</ele>
      </trkpt>
      <trkpt lat="45.94543" lon="5.8735">
        <ele>930</ele>
      </trkpt>
      <trkpt lat="45.94537" lon="5.87373">
        <ele>930</ele>
      </trkpt>
      <trkpt lat="45.94532" lon="5.87397">
        <ele>929</ele>
      </trkpt>
      <trkpt lat="45.94522" lon="5.87427">
        <ele>923</ele>
      </trkpt>
      <trkpt lat="45.94514" lon="5.8747">
        <ele>917</ele>
      </trkpt>
      <trkpt lat="45.94509" lon="5.87491">
        <ele>915</ele>
      </trkpt>
      <trkpt lat="45.94504" lon="5.87504">
        <ele>915</ele>
      </trkpt>
      <trkpt lat="45.94495" lon="5.8751">
        <ele>914</ele>
      </trkpt>
      <trkpt lat="45.94489" lon="5.87512">
        <ele>914</ele>
      </trkpt>
      <trkpt lat="45.94494" lon="5.8749">
        <ele>917</ele>
      </trkpt>
      <trkpt lat="45.94494" lon="5.8748">
        <ele>915</ele>
      </trkpt>
      <trkpt lat="45.94495" lon="5.8745">
        <ele>919</ele>
      </trkpt>
      <trkpt lat="45.94497" lon="5.87416">
        <ele>922</ele>
      </trkpt>
      <trkpt lat="45.945" lon="5.8738">
        <ele>925</ele>
      </trkpt>
      <trkpt lat="45.94505" lon="5.87353">
        <ele>927</ele>
      </trkpt>
      <trkpt lat="45.945" lon="5.87342">
        <ele>928</ele>
      </trkpt>
      <trkpt lat="45.94499" lon="5.87327">
        <ele>930</ele>
      </trkpt>
      <trkpt lat="45.94499" lon="5.87294">
        <ele>930</ele>
      </trkpt>
      <trkpt lat="45.94487" lon="5.87264">
        <ele>929</ele>
      </trkpt>
      <trkpt lat="45.94473" lon="5.87236">
        <ele>926</ele>
      </trkpt>
      <trkpt lat="45.9446" lon="5.87194">
        <ele>922</ele>
      </trkpt>
      <trkpt lat="45.94461" lon="5.87166">
        <ele>918</ele>
      </trkpt>
      <trkpt lat="45.94463" lon="5.87138">
        <ele>913</ele>
      </trkpt>
      <trkpt lat="45.94456" lon="5.87123">
        <ele>911</ele>
      </trkpt>
      <trkpt lat="45.9444" lon="5.8711">
        <ele>912</ele>
      </trkpt>
      <trkpt lat="45.94422" lon="5.871">
        <ele>911</ele>
      </trkpt>
      <trkpt lat="45.94407" lon="5.87095">
        <ele>908</ele>
      </trkpt>
      <trkpt lat="45.94394" lon="5.87086">
        <ele>910</ele>
      </trkpt>
      <trkpt lat="45.9438" lon="5.87078">
        <ele>907</ele>
      </trkpt>
      <trkpt lat="45.94363" lon="5.87082">
        <ele>910</ele>
      </trkpt>
      <trkpt lat="45.94358" lon="5.87059">
        <ele>910</ele>
      </trkpt>
      <trkpt lat="45.94363" lon="5.87037">
        <ele>908</ele>
      </trkpt>
      <trkpt lat="45.94373" lon="5.87004">
        <ele>904</ele>
      </trkpt>
      <trkpt lat="45.94373" lon="5.86977">
        <ele>901</ele>
      </trkpt>
      <trkpt lat="45.94369" lon="5.86954">
        <ele>901</ele>
      </trkpt>
      <trkpt lat="45.94361" lon="5.86932">
        <ele>899</ele>
      </trkpt>
      <trkpt lat="45.94354" lon="5.86908">
        <ele>899</ele>
      </trkpt>
      <trkpt lat="45.94348" lon="5.86885">
        <ele>899</ele>
      </trkpt>
      <trkpt lat="45.94341" lon="5.86859">
        <ele>894</ele>
      </trkpt>
      <trkpt lat="45.94327" lon="5.86826">
        <ele>893</ele>
      </trkpt>
      <trkpt lat="45.94315" lon="5.86796">
        <ele>893</ele>
      </trkpt>
      <trkpt lat="45.94303" lon="5.86753">
        <ele>894</ele>
      </trkpt>
      <trkpt lat="45.94289" lon="5.8672">
        <ele>896</ele>
      </trkpt>
      <trkpt lat="45.94273" lon="5.86707">
        <ele>896</ele>
      </trkpt>
      <trkpt lat="45.94257" lon="5.86685">
        <ele>896</ele>
      </trkpt>
      <trkpt lat="45.94233" lon="5.86669">
        <ele>895</ele>
      </trkpt>
      <trkpt lat="45.942" lon="5.86648">
        <ele>894</ele>
      </trkpt>
      <trkpt lat="45.94162" lon="5.86621">
        <ele>894</ele>
      </trkpt>
      <trkpt lat="45.94129" lon="5.86586">
        <ele>893</ele>
      </trkpt>
      <trkpt lat="45.94116" lon="5.86575">
        <ele>894</ele>
      </trkpt>
      <trkpt lat="45.94103" lon="5.86569">
        <ele>893</ele>
      </trkpt>
      <trkpt lat="45.94072" lon="5.86565">
        <ele>894</ele>
      </trkpt>
      <trkpt lat="45.94039" lon="5.86522">
        <ele>896</ele>
      </trkpt>
      <trkpt lat="45.9401" lon="5.86515">
        <ele>895</ele>
      </trkpt>
      <trkpt lat="45.93985" lon="5.86508">
        <ele>895</ele>
      </trkpt>
      <trkpt lat="45.93953" lon="5.86505">
        <ele>891</ele>
      </trkpt>
      <trkpt lat="45.93935" lon="5.86497">
        <ele>889</ele>
      </trkpt>
      <trkpt lat="45.93927" lon="5.86467">
        <ele>885</ele>
      </trkpt>
      <trkpt lat="45.93924" lon="5.86445">
        <ele>882</ele>
      </trkpt>
      <trkpt lat="45.93923" lon="5.8643">
        <ele>878</ele>
      </trkpt>
      <trkpt lat="45.93915" lon="5.86418">
        <ele>874</ele>
      </trkpt>
      <trkpt lat="45.93902" lon="5.86408">
        <ele>868</ele>
      </trkpt>
      <trkpt lat="45.93887" lon="5.86414">
        <ele>860</ele>
      </trkpt>
      <trkpt lat="45.93882" lon="5.86439">
        <ele>868</ele>
      </trkpt>
      <trkpt lat="45.93877" lon="5.86468">
        <ele>868</ele>
      </trkpt>
      <trkpt lat="45.93875" lon="5.86506">
        <ele>868</ele>
      </trkpt>
      <trkpt lat="45.93866" lon="5.86507">
        <ele>866</ele>
      </trkpt>
      <trkpt lat="45.9386" lon="5.86502">
        <ele>866</ele>
      </trkpt>
      <trkpt lat="45.93852" lon="5.86498">
        <ele>865</ele>
      </trkpt>
      <trkpt lat="45.93847" lon="5.86501">
        <ele>864</ele>
      </trkpt>
      <trkpt lat="45.93841" lon="5.86501">
        <ele>864</ele>
      </trkpt>
      <trkpt lat="45.93837" lon="5.865">
        <ele>859</ele>
      </trkpt>
      <trkpt lat="45.93831" lon="5.86494">
        <ele>859</ele>
      </trkpt>
      <trkpt lat="45.93823" lon="5.8649">
        <ele>857</ele>
      </trkpt>
      <trkpt lat="45.93808" lon="5.86478">
        <ele>848</ele>
      </trkpt>
      <trkpt lat="45.93796" lon="5.86467">
        <ele>846</ele>
      </trkpt>
      <trkpt lat="45.93787" lon="5.86457">
        <ele>832</ele>
      </trkpt>
      <trkpt lat="45.93781" lon="5.86437">
        <ele>841</ele>
      </trkpt>
      <trkpt lat="45.93773" lon="5.86414">
        <ele>829</ele>
      </trkpt>
      <trkpt lat="45.93765" lon="5.86374">
        <ele>820</ele>
      </trkpt>
      <trkpt lat="45.93761" lon="5.8636">
        <ele>819</ele>
      </trkpt>
      <trkpt lat="45.93758" lon="5.86344">
        <ele>809</ele>
      </trkpt>
      <trkpt lat="45.93754" lon="5.86338">
        <ele>809</ele>
      </trkpt>
      <trkpt lat="45.93749" lon="5.86332">
        <ele>803</ele>
      </trkpt>
      <trkpt lat="45.93744" lon="5.86331">
        <ele>803</ele>
      </trkpt>
      <trkpt lat="45.93734" lon="5.86334">
        <ele>795</ele>
      </trkpt>
      <trkpt lat="45.93727" lon="5.86341">
        <ele>789</ele>
      </trkpt>
      <trkpt lat="45.93719" lon="5.86341">
        <ele>784</ele>
      </trkpt>
      <trkpt lat="45.93713" lon="5.86336">
        <ele>784</ele>
      </trkpt>
      <trkpt lat="45.93709" lon="5.86332">
        <ele>779</ele>
      </trkpt>
      <trkpt lat="45.93714" lon="5.86299">
        <ele>783</ele>
      </trkpt>
      <trkpt lat="45.93724" lon="5.86248">
        <ele>783</ele>
      </trkpt>
      <trkpt lat="45.93737" lon="5.86202">
        <ele>784</ele>
      </trkpt>
      <trkpt lat="45.93751" lon="5.86172">
        <ele>781</ele>
      </trkpt>
      <trkpt lat="45.93768" lon="5.86137">
        <ele>780</ele>
      </trkpt>
      <trkpt lat="45.93787" lon="5.8612">
        <ele>779</ele>
      </trkpt>
      <trkpt lat="45.93809" lon="5.86099">
        <ele>770</ele>
      </trkpt>
      <trkpt lat="45.93838" lon="5.86086">
        <ele>768</ele>
      </trkpt>
      <trkpt lat="45.93852" lon="5.86077">
        <ele>765</ele>
      </trkpt>
      <trkpt lat="45.93868" lon="5.86072">
        <ele>767</ele>
      </trkpt>
      <trkpt lat="45.93882" lon="5.8604">
        <ele>762</ele>
      </trkpt>
      <trkpt lat="45.93895" lon="5.85999">
        <ele>761</ele>
      </trkpt>
      <trkpt lat="45.93906" lon="5.8599">
        <ele>760</ele>
      </trkpt>
      <trkpt lat="45.93925" lon="5.85996">
        <ele>760</ele>
      </trkpt>
      <trkpt lat="45.93946" lon="5.85998">
        <ele>753</ele>
      </trkpt>
      <trkpt lat="45.9398" lon="5.86003">
        <ele>751</ele>
      </trkpt>
      <trkpt lat="45.94003" lon="5.85996">
        <ele>745</ele>
      </trkpt>
      <trkpt lat="45.94013" lon="5.85984">
        <ele>742</ele>
      </trkpt>
      <trkpt lat="45.94022" lon="5.85975">
        <ele>736</ele>
      </trkpt>
      <trkpt lat="45.94031" lon="5.85971">
        <ele>736</ele>
      </trkpt>
      <trkpt lat="45.94038" lon="5.85959">
        <ele>730</ele>
      </trkpt>
      <trkpt lat="45.94034" lon="5.85947">
        <ele>726</ele>
      </trkpt>
      <trkpt lat="45.94026" lon="5.85941">
        <ele>725</ele>
      </trkpt>
      <trkpt lat="45.94012" lon="5.85936">
        <ele>721</ele>
      </trkpt>
      <trkpt lat="45.94004" lon="5.85927">
        <ele>717</ele>
      </trkpt>
      <trkpt lat="45.94001" lon="5.85914">
        <ele>711</ele>
      </trkpt>
      <trkpt lat="45.94013" lon="5.85903">
        <ele>708</ele>
      </trkpt>
      <trkpt lat="45.94035" lon="5.85888">
        <ele>699</ele>
      </trkpt>
      <trkpt lat="45.94047" lon="5.8589">
        <ele>699</ele>
      </trkpt>
      <trkpt lat="45.94066" lon="5.85879">
        <ele>695</ele>
      </trkpt>
      <trkpt lat="45.94085" lon="5.85876">
        <ele>692</ele>
      </trkpt>
      <trkpt lat="45.94101" lon="5.8587">
        <ele>687</ele>
      </trkpt>
      <trkpt lat="45.94117" lon="5.85865">
        <ele>682</ele>
      </trkpt>
      <trkpt lat="45.94134" lon="5.8586">
        <ele>675</ele>
      </trkpt>
      <trkpt lat="45.94154" lon="5.85859">
        <ele>675</ele>
      </trkpt>
      <trkpt lat="45.94178" lon="5.85864">
        <ele>673</ele>
      </trkpt>
      <trkpt lat="45.94196" lon="5.85869">
        <ele>672</ele>
      </trkpt>
      <trkpt lat="45.94205" lon="5.85874">
        <ele>672</ele>
      </trkpt>
      <trkpt lat="45.94221" lon="5.85881">
        <ele>670</ele>
      </trkpt>
      <trkpt lat="45.94239" lon="5.85886">
        <ele>666</ele>
      </trkpt>
      <trkpt lat="45.9426" lon="5.85893">
        <ele>660</ele>
      </trkpt>
      <trkpt lat="45.94272" lon="5.85896">
        <ele>657</ele>
      </trkpt>
      <trkpt lat="45.94284" lon="5.85907">
        <ele>657</ele>
      </trkpt>
      <trkpt lat="45.94301" lon="5.85913">
        <ele>652</ele>
      </trkpt>
      <trkpt lat="45.94318" lon="5.8592">
        <ele>651</ele>
      </trkpt>
      <trkpt lat="45.94326" lon="5.85905">
        <ele>648</ele>
      </trkpt>
      <trkpt lat="45.94333" lon="5.85903">
        <ele>648</ele>
      </trkpt>
      <trkpt lat="45.94355" lon="5.85905">
        <ele>645</ele>
      </trkpt>
      <trkpt lat="45.94385" lon="5.85903">
        <ele>638</ele>
      </trkpt>
      <trkpt lat="45.94392" lon="5.85899">
        <ele>634</ele>
      </trkpt>
      <trkpt lat="45.94397" lon="5.85894">
        <ele>634</ele>
      </trkpt>
      <trkpt lat="45.94412" lon="5.85861">
        <ele>625</ele>
      </trkpt>
      <trkpt lat="45.94419" lon="5.85857">
        <ele>619</ele>
      </trkpt>
      <trkpt lat="45.94429" lon="5.85853">
        <ele>619</ele>
      </trkpt>
      <trkpt lat="45.94437" lon="5.85852">
        <ele>618</ele>
      </trkpt>
      <trkpt lat="45.94453" lon="5.85852">
        <ele>616</ele>
      </trkpt>
      <trkpt lat="45.9447" lon="5.85855">
        <ele>615</ele>
      </trkpt>
      <trkpt lat="45.94487" lon="5.85858">
        <ele>611</ele>
      </trkpt>
      <trkpt lat="45.94497" lon="5.85858">
        <ele>609</ele>
      </trkpt>
      <trkpt lat="45.94523" lon="5.8585">
        <ele>607</ele>
      </trkpt>
      <trkpt lat="45.94551" lon="5.8584">
        <ele>604</ele>
      </trkpt>
      <trkpt lat="45.94596" lon="5.85823">
        <ele>596</ele>
      </trkpt>
      <trkpt lat="45.94602" lon="5.85823">
        <ele>595</ele>
      </trkpt>
      <trkpt lat="45.94623" lon="5.85825">
        <ele>591</ele>
      </trkpt>
      <trkpt lat="45.94638" lon="5.85823">
        <ele>589</ele>
      </trkpt>
      <trkpt lat="45.94653" lon="5.85824">
        <ele>584</ele>
      </trkpt>
      <trkpt lat="45.94674" lon="5.85826">
        <ele>583</ele>
      </trkpt>
      <trkpt lat="45.94693" lon="5.8583">
        <ele>583</ele>
      </trkpt>
      <trkpt lat="45.94711" lon="5.85836">
        <ele>578</ele>
      </trkpt>
      <trkpt lat="45.94725" lon="5.85844">
        <ele>577</ele>
      </trkpt>
      <trkpt lat="45.94739" lon="5.85852">
        <ele>575</ele>
      </trkpt>
      <trkpt lat="45.94759" lon="5.85864">
        <ele>571</ele>
      </trkpt>
      <trkpt lat="45.94767" lon="5.85865">
        <ele>569</ele>
      </trkpt>
      <trkpt lat="45.94771" lon="5.85864">
        <ele>566</ele>
      </trkpt>
      <trkpt lat="45.94775" lon="5.8586">
        <ele>566</ele>
      </trkpt>
      <trkpt lat="45.94785" lon="5.85844">
        <ele>562</ele>
      </trkpt>
      <trkpt lat="45.94791" lon="5.8584">
        <ele>561</ele>
      </trkpt>
      <trkpt lat="45.948" lon="5.85838">
        <ele>556</ele>
      </trkpt>
      <trkpt lat="45.94806" lon="5.85839">
        <ele>556</ele>
      </trkpt>
      <trkpt lat="45.94831" lon="5.85848">
        <ele>551</ele>
      </trkpt>
      <trkpt lat="45.94844" lon="5.85847">
        <ele>548</ele>
      </trkpt>
      <trkpt lat="45.94865" lon="5.85844">
        <ele>543</ele>
      </trkpt>
      <trkpt lat="45.94859" lon="5.85808">
        <ele>534</ele>
      </trkpt>
      <trkpt lat="45.94848" lon="5.85779">
        <ele>526</ele>
      </trkpt>
      <trkpt lat="45.94833" lon="5.85768">
        <ele>522</ele>
      </trkpt>
      <trkpt lat="45.94815" lon="5.8577">
        <ele>526</ele>
      </trkpt>
      <trkpt lat="45.94804" lon="5.85768">
        <ele>522</ele>
      </trkpt>
      <trkpt lat="45.9479" lon="5.85755">
        <ele>521</ele>
      </trkpt>
      <trkpt lat="45.94777" lon="5.85737">
        <ele>515</ele>
      </trkpt>
      <trkpt lat="45.94765" lon="5.85717">
        <ele>511</ele>
      </trkpt>
      <trkpt lat="45.94737" lon="5.85697">
        <ele>507</ele>
      </trkpt>
      <trkpt lat="45.94712" lon="5.85685">
        <ele>507</ele>
      </trkpt>
      <trkpt lat="45.9468" lon="5.85672">
        <ele>507</ele>
      </trkpt>
      <trkpt lat="45.94644" lon="5.85665">
        <ele>507</ele>
      </trkpt>
      <trkpt lat="45.94608" lon="5.85647">
        <ele>507</ele>
      </trkpt>
      <trkpt lat="45.94592" lon="5.85647">
        <ele>508</ele>
      </trkpt>
      <trkpt lat="45.94577" lon="5.85646">
        <ele>510</ele>
      </trkpt>
      <trkpt lat="45.94558" lon="5.85643">
        <ele>513</ele>
      </trkpt>
      <trkpt lat="45.94534" lon="5.85647">
        <ele>515</ele>
      </trkpt>
      <trkpt lat="45.94515" lon="5.85642">
        <ele>509</ele>
      </trkpt>
      <trkpt lat="45.94525" lon="5.8562">
        <ele>511</ele>
      </trkpt>
      <trkpt lat="45.94527" lon="5.85593">
        <ele>503</ele>
      </trkpt>
      <trkpt lat="45.94522" lon="5.8557">
        <ele>499</ele>
      </trkpt>
      <trkpt lat="45.94514" lon="5.85552">
        <ele>495</ele>
      </trkpt>
      <trkpt lat="45.94502" lon="5.85538">
        <ele>491</ele>
      </trkpt>
      <trkpt lat="45.94473" lon="5.85529">
        <ele>492</ele>
      </trkpt>
      <trkpt lat="45.94442" lon="5.85523">
        <ele>490</ele>
      </trkpt>
      <trkpt lat="45.944" lon="5.8551">
        <ele>486</ele>
      </trkpt>
      <trkpt lat="45.94376" lon="5.85495">
        <ele>481</ele>
      </trkpt>
      <trkpt lat="45.94344" lon="5.85476">
        <ele>477</ele>
      </trkpt>
      <trkpt lat="45.94337" lon="5.85469">
        <ele>474</ele>
      </trkpt>
      <trkpt lat="45.94342" lon="5.85454">
        <ele>471</ele>
      </trkpt>
      <trkpt lat="45.94345" lon="5.85439">
        <ele>468</ele>
      </trkpt>
      <trkpt lat="45.94337" lon="5.85446">
        <ele>469</ele>
      </trkpt>
      <trkpt lat="45.9433" lon="5.85446">
        <ele>469</ele>
      </trkpt>
      <trkpt lat="45.94323" lon="5.8544">
        <ele>469</ele>
      </trkpt>
      <trkpt lat="45.94317" lon="5.85427">
        <ele>464</ele>
      </trkpt>
      <trkpt lat="45.94304" lon="5.85415">
        <ele>463</ele>
      </trkpt>
      <trkpt lat="45.94289" lon="5.85408">
        <ele>460</ele>
      </trkpt>
      <trkpt lat="45.94272" lon="5.85404">
        <ele>460</ele>
      </trkpt>
      <trkpt lat="45.94257" lon="5.85395">
        <ele>457</ele>
      </trkpt>
      <trkpt lat="45.9424" lon="5.8539">
        <ele>458</ele>
      </trkpt>
      <trkpt lat="45.94223" lon="5.85377">
        <ele>454</ele>
      </trkpt>
      <trkpt lat="45.94202" lon="5.85361">
        <ele>448</ele>
      </trkpt>
      <trkpt lat="45.94188" lon="5.85359">
        <ele>443</ele>
      </trkpt>
      <trkpt lat="45.94175" lon="5.85352">
        <ele>442</ele>
      </trkpt>
      <trkpt lat="45.94163" lon="5.85349">
        <ele>439</ele>
      </trkpt>
      <trkpt lat="45.94151" lon="5.85342">
        <ele>437</ele>
      </trkpt>
      <trkpt lat="45.94145" lon="5.85335">
        <ele>434</ele>
      </trkpt>
      <trkpt lat="45.94135" lon="5.85327">
        <ele>431</ele>
      </trkpt>
      <trkpt lat="45.94118" lon="5.85315">
        <ele>430</ele>
      </trkpt>
      <trkpt lat="45.94097" lon="5.85324">
        <ele>429</ele>
      </trkpt>
      <trkpt lat="45.94079" lon="5.85328">
        <ele>431</ele>
      </trkpt>
      <trkpt lat="45.94067" lon="5.85315">
        <ele>427</ele>
      </trkpt>
      <trkpt lat="45.94052" lon="5.85308">
        <ele>424</ele>
      </trkpt>
      <trkpt lat="45.94032" lon="5.85297">
        <ele>419</ele>
      </trkpt>
      <trkpt lat="45.94026" lon="5.85287">
        <ele>417</ele>
      </trkpt>
      <trkpt lat="45.94022" lon="5.85279">
        <ele>415</ele>
      </trkpt>
      <trkpt lat="45.94012" lon="5.85289">
        <ele>415</ele>
      </trkpt>
      <trkpt lat="45.93997" lon="5.85292">
        <ele>416</ele>
      </trkpt>
      <trkpt lat="45.93988" lon="5.85288">
        <ele>413</ele>
      </trkpt>
      <trkpt lat="45.93971" lon="5.85274">
        <ele>410</ele>
      </trkpt>
      <trkpt lat="45.93956" lon="5.85259">
        <ele>406</ele>
      </trkpt>
      <trkpt lat="45.9394" lon="5.85248">
        <ele>401</ele>
      </trkpt>
      <trkpt lat="45.93928" lon="5.8525">
        <ele>405</ele>
      </trkpt>
      <trkpt lat="45.93902" lon="5.85241">
        <ele>401</ele>
      </trkpt>
      <trkpt lat="45.93891" lon="5.85241">
        <ele>401</ele>
      </trkpt>
      <trkpt lat="45.93878" lon="5.85238">
        <ele>398</ele>
      </trkpt>
      <trkpt lat="45.93841" lon="5.85218">
        <ele>390</ele>
      </trkpt>
      <trkpt lat="45.93833" lon="5.85217">
        <ele>388</ele>
      </trkpt>
      <trkpt lat="45.93825" lon="5.85213">
        <ele>387</ele>
      </trkpt>
      <trkpt lat="45.93816" lon="5.85212">
        <ele>386</ele>
      </trkpt>
      <trkpt lat="45.938" lon="5.85207">
        <ele>383</ele>
      </trkpt>
      <trkpt lat="45.93781" lon="5.85203">
        <ele>383</ele>
      </trkpt>
      <trkpt lat="45.93754" lon="5.85196">
        <ele>381</ele>
      </trkpt>
      <trkpt lat="45.93739" lon="5.85189">
        <ele>378</ele>
      </trkpt>
      <trkpt lat="45.93714" lon="5.85182">
        <ele>380</ele>
      </trkpt>
      <trkpt lat="45.93708" lon="5.85183">
        <ele>379</ele>
      </trkpt>
      <trkpt lat="45.93703" lon="5.85182">
        <ele>379</ele>
      </trkpt>
      <trkpt lat="45.93697" lon="5.85181">
        <ele>379</ele>
      </trkpt>
      <trkpt lat="45.93692" lon="5.85181">
        <ele>379</ele>
      </trkpt>
      <trkpt lat="45.93685" lon="5.85182">
        <ele>378</ele>
      </trkpt>
      <trkpt lat="45.93653" lon="5.85175">
        <ele>375</ele>
      </trkpt>
      <trkpt lat="45.93627" lon="5.85168">
        <ele>373</ele>
      </trkpt>
      <trkpt lat="45.93612" lon="5.8516">
        <ele>374</ele>
      </trkpt>
      <trkpt lat="45.93607" lon="5.85154">
        <ele>373</ele>
      </trkpt>
      <trkpt lat="45.93608" lon="5.85147">
        <ele>371</ele>
      </trkpt>
      <trkpt lat="45.93622" lon="5.8512">
        <ele>371</ele>
      </trkpt>
      <trkpt lat="45.93631" lon="5.85099">
        <ele>368</ele>
      </trkpt>
      <trkpt lat="45.93639" lon="5.85081">
        <ele>367</ele>
      </trkpt>
      <trkpt lat="45.93647" lon="5.85061">
        <ele>367</ele>
      </trkpt>
      <trkpt lat="45.93649" lon="5.85048">
        <ele>367</ele>
      </trkpt>
      <trkpt lat="45.93651" lon="5.85031">
        <ele>368</ele>
      </trkpt>
      <trkpt lat="45.93652" lon="5.85015">
        <ele>365</ele>
      </trkpt>
      <trkpt lat="45.93649" lon="5.84978">
        <ele>364</ele>
      </trkpt>
      <trkpt lat="45.93646" lon="5.84933">
        <ele>363</ele>
      </trkpt>
      <trkpt lat="45.93645" lon="5.84918">
        <ele>362</ele>
      </trkpt>
      <trkpt lat="45.93645" lon="5.8491">
        <ele>361</ele>
      </trkpt>
      <trkpt lat="45.93666" lon="5.84889">
        <ele>359</ele>
      </trkpt>
      <trkpt lat="45.93705" lon="5.8485">
        <ele>357</ele>
      </trkpt>
      <trkpt lat="45.93719" lon="5.84835">
        <ele>355</ele>
      </trkpt>
      <trkpt lat="45.93726" lon="5.84825">
        <ele>354</ele>
      </trkpt>
      <trkpt lat="45.93749" lon="5.84779">
        <ele>353</ele>
      </trkpt>
      <trkpt lat="45.93756" lon="5.84763">
        <ele>353</ele>
      </trkpt>
      <trkpt lat="45.93766" lon="5.84743">
        <ele>353</ele>
      </trkpt>
      <trkpt lat="45.93776" lon="5.84723">
        <ele>353</ele>
      </trkpt>
      <trkpt lat="45.93776" lon="5.84692">
        <ele>353</ele>
      </trkpt>
      <trkpt lat="45.93777" lon="5.84658">
        <ele>353</ele>
      </trkpt>
      <trkpt lat="45.93777" lon="5.84621">
        <ele>353</ele>
      </trkpt>
      <trkpt lat="45.93777" lon="5.84608">
        <ele>354</ele>
      </trkpt>
      <trkpt lat="45.93775" lon="5.84593">
        <ele>353</ele>
      </trkpt>
      <trkpt lat="45.93772" lon="5.84585">
        <ele>353</ele>
      </trkpt>
      <trkpt lat="45.9376" lon="5.84563">
        <ele>353</ele>
      </trkpt>
      <trkpt lat="45.93757" lon="5.84548">
        <ele>354</ele>
      </trkpt>
      <trkpt lat="45.9376" lon="5.84515">
        <ele>352</ele>
      </trkpt>
      <trkpt lat="45.93762" lon="5.84498">
        <ele>352</ele>
      </trkpt>
      <trkpt lat="45.93764" lon="5.84495">
        <ele>352</ele>
      </trkpt>
      <trkpt lat="45.93774" lon="5.8449">
        <ele>352</ele>
      </trkpt>
      <trkpt lat="45.93805" lon="5.84477">
        <ele>351</ele>
      </trkpt>
      <trkpt lat="45.93818" lon="5.8447">
        <ele>351</ele>
      </trkpt>
      <trkpt lat="45.93823" lon="5.84471">
        <ele>351</ele>
      </trkpt>
      <trkpt lat="45.93834" lon="5.845">
        <ele>351</ele>
      </trkpt>
      <trkpt lat="45.93839" lon="5.8452">
        <ele>352</ele>
      </trkpt>
      <trkpt lat="45.93852" lon="5.84552">
        <ele>350</ele>
      </trkpt>
      <trkpt lat="45.93861" lon="5.84577">
        <ele>350</ele>
      </trkpt>
      <trkpt lat="45.93866" lon="5.84602">
        <ele>351</ele>
      </trkpt>
      <trkpt lat="45.93871" lon="5.84633">
        <ele>350</ele>
      </trkpt>
      <trkpt lat="45.93878" lon="5.84668">
        <ele>351</ele>
      </trkpt>
      <trkpt lat="45.93878" lon="5.84704">
        <ele>351</ele>
      </trkpt>
      <trkpt lat="45.93877" lon="5.84744">
        <ele>350</ele>
      </trkpt>
      <trkpt lat="45.93876" lon="5.84801">
        <ele>350</ele>
      </trkpt>
      <trkpt lat="45.93878" lon="5.84818">
        <ele>348</ele>
      </trkpt>
      <trkpt lat="45.9389" lon="5.8485">
        <ele>351</ele>
      </trkpt>
      <trkpt lat="45.93911" lon="5.84905">
        <ele>354</ele>
      </trkpt>
      <trkpt lat="45.93929" lon="5.84939">
        <ele>357</ele>
      </trkpt>
      <trkpt lat="45.93937" lon="5.84946">
        <ele>355</ele>
      </trkpt>
      <trkpt lat="45.93953" lon="5.84964">
        <ele>359</ele>
      </trkpt>
      <trkpt lat="45.93961" lon="5.84978">
        <ele>360</ele>
      </trkpt>
      <trkpt lat="45.93966" lon="5.84982">
        <ele>364</ele>
      </trkpt>
      <trkpt lat="45.93972" lon="5.84985">
        <ele>364</ele>
      </trkpt>
      <trkpt lat="45.9399" lon="5.8498">
        <ele>367</ele>
      </trkpt>
      <trkpt lat="45.94005" lon="5.84982">
        <ele>365</ele>
      </trkpt>
      <trkpt lat="45.94019" lon="5.84938">
        <ele>364</ele>
      </trkpt>
      <trkpt lat="45.94026" lon="5.84919">
        <ele>364</ele>
      </trkpt>
      <trkpt lat="45.94034" lon="5.84906">
        <ele>364</ele>
      </trkpt>
      <trkpt lat="45.94042" lon="5.84895">
        <ele>364</ele>
      </trkpt>
      <trkpt lat="45.9405" lon="5.84875">
        <ele>364</ele>
      </trkpt>
      <trkpt lat="45.94086" lon="5.84834">
        <ele>364</ele>
      </trkpt>
      <trkpt lat="45.94097" lon="5.84827">
        <ele>363</ele>
      </trkpt>
      <trkpt lat="45.94119" lon="5.84824">
        <ele>364</ele>
      </trkpt>
      <trkpt lat="45.94126" lon="5.84819">
        <ele>366</ele>
      </trkpt>
      <trkpt lat="45.9413" lon="5.84808">
        <ele>367</ele>
      </trkpt>
      <trkpt lat="45.94135" lon="5.84799">
        <ele>365</ele>
      </trkpt>
      <trkpt lat="45.94167" lon="5.84751">
        <ele>365</ele>
      </trkpt>
      <trkpt lat="45.94176" lon="5.84741">
        <ele>364</ele>
      </trkpt>
      <trkpt lat="45.94187" lon="5.84727">
        <ele>361</ele>
      </trkpt>
      <trkpt lat="45.9416" lon="5.84725">
        <ele>358</ele>
      </trkpt>
      <trkpt lat="45.94155" lon="5.84721">
        <ele>358</ele>
      </trkpt>
      <trkpt lat="45.94185" lon="5.84686">
        <ele>358</ele>
      </trkpt>
      <trkpt lat="45.94195" lon="5.84668">
        <ele>357</ele>
      </trkpt>
      <trkpt lat="45.94206" lon="5.84639">
        <ele>358</ele>
      </trkpt>
      <trkpt lat="45.94229" lon="5.84601">
        <ele>358</ele>
      </trkpt>
      <trkpt lat="45.94243" lon="5.84572">
        <ele>358</ele>
      </trkpt>
      <trkpt lat="45.94256" lon="5.84552">
        <ele>358</ele>
      </trkpt>
      <trkpt lat="45.94272" lon="5.84533">
        <ele>357</ele>
      </trkpt>
      <trkpt lat="45.94281" lon="5.84516">
        <ele>358</ele>
      </trkpt>
      <trkpt lat="45.94283" lon="5.84486">
        <ele>353</ele>
      </trkpt>
      <trkpt lat="45.94285" lon="5.84445">
        <ele>348</ele>
      </trkpt>
      <trkpt lat="45.94296" lon="5.84402">
        <ele>343</ele>
      </trkpt>
      <trkpt lat="45.9431" lon="5.84358">
        <ele>342</ele>
      </trkpt>
      <trkpt lat="45.94319" lon="5.84342">
        <ele>341</ele>
      </trkpt>
      <trkpt lat="45.94343" lon="5.84318">
        <ele>336</ele>
      </trkpt>
      <trkpt lat="45.94347" lon="5.84305">
        <ele>334</ele>
      </trkpt>
      <trkpt lat="45.9435" lon="5.84258">
        <ele>336</ele>
      </trkpt>
      <trkpt lat="45.94356" lon="5.84221">
        <ele>332</ele>
      </trkpt>
      <trkpt lat="45.94367" lon="5.84182">
        <ele>329</ele>
      </trkpt>
      <trkpt lat="45.9438" lon="5.84156">
        <ele>328</ele>
      </trkpt>
      <trkpt lat="45.94396" lon="5.8413">
        <ele>325</ele>
      </trkpt>
      <trkpt lat="45.94414" lon="5.84104">
        <ele>326</ele>
      </trkpt>
      <trkpt lat="45.94425" lon="5.84087">
        <ele>323</ele>
      </trkpt>
      <trkpt lat="45.94441" lon="5.8408">
        <ele>328</ele>
      </trkpt>
      <trkpt lat="45.94453" lon="5.84084">
        <ele>329</ele>
      </trkpt>
      <trkpt lat="45.9446" lon="5.84109">
        <ele>331</ele>
      </trkpt>
      <trkpt lat="45.94472" lon="5.84121">
        <ele>333</ele>
      </trkpt>
      <trkpt lat="45.9449" lon="5.84127">
        <ele>332</ele>
      </trkpt>
      <trkpt lat="45.94527" lon="5.84114">
        <ele>333</ele>
      </trkpt>
      <trkpt lat="45.94541" lon="5.84115">
        <ele>335</ele>
      </trkpt>
      <trkpt lat="45.94556" lon="5.84126">
        <ele>337</ele>
      </trkpt>
      <trkpt lat="45.94572" lon="5.84138">
        <ele>339</ele>
      </trkpt>
      <trkpt lat="45.94597" lon="5.84137">
        <ele>340</ele>
      </trkpt>
      <trkpt lat="45.94606" lon="5.84141">
        <ele>341</ele>
      </trkpt>
      <trkpt lat="45.94614" lon="5.84147">
        <ele>342</ele>
      </trkpt>
      <trkpt lat="45.94627" lon="5.84164">
        <ele>345</ele>
      </trkpt>
      <trkpt lat="45.94642" lon="5.84184">
        <ele>345</ele>
      </trkpt>
      <trkpt lat="45.9467" lon="5.8418">
        <ele>345</ele>
      </trkpt>
      <trkpt lat="45.94712" lon="5.84173">
        <ele>345</ele>
      </trkpt>
      <trkpt lat="45.94737" lon="5.84168">
        <ele>342</ele>
      </trkpt>
      <trkpt lat="45.94768" lon="5.84154">
        <ele>338</ele>
      </trkpt>
      <trkpt lat="45.94802" lon="5.84128">
        <ele>331</ele>
      </trkpt>
      <trkpt lat="45.9482" lon="5.8413">
        <ele>331</ele>
      </trkpt>
      <trkpt lat="45.94836" lon="5.84109">
        <ele>321</ele>
      </trkpt>
      <trkpt lat="45.9485" lon="5.84099">
        <ele>312</ele>
      </trkpt>
      <trkpt lat="45.94866" lon="5.84085">
        <ele>314</ele>
      </trkpt>
      <trkpt lat="45.94884" lon="5.84069">
        <ele>301</ele>
      </trkpt>
      <trkpt lat="45.94913" lon="5.84072">
        <ele>299</ele>
      </trkpt>
      <trkpt lat="45.94935" lon="5.8406">
        <ele>296</ele>
      </trkpt>
      <trkpt lat="45.94957" lon="5.84048">
        <ele>289</ele>
      </trkpt>
      <trkpt lat="45.94988" lon="5.84036">
        <ele>278</ele>
      </trkpt>
      <trkpt lat="45.95019" lon="5.84038">
        <ele>273</ele>
      </trkpt>
      <trkpt lat="45.95048" lon="5.84046">
        <ele>271</ele>
      </trkpt>
      <trkpt lat="45.95084" lon="5.84032">
        <ele>262</ele>
      </trkpt>
      <trkpt lat="45.95098" lon="5.84031">
        <ele>263</ele>
      </trkpt>
      <trkpt lat="45.95114" lon="5.84036">
        <ele>261</ele>
      </trkpt>
      <trkpt lat="45.9513" lon="5.84042">
        <ele>259</ele>
      </trkpt>
      <trkpt lat="45.95149" lon="5.84018">
        <ele>257</ele>
      </trkpt>
      <trkpt lat="45.95169" lon="5.84002">
        <ele>257</ele>
      </trkpt>
      <trkpt lat="45.95193" lon="5.84003">
        <ele>257</ele>
      </trkpt>
      <trkpt lat="45.95219" lon="5.84005">
        <ele>257</ele>
      </trkpt>
      <trkpt lat="45.95231" lon="5.83994">
        <ele>256</ele>
      </trkpt>
      <trkpt lat="45.95236" lon="5.83966">
        <ele>256</ele>
      </trkpt>
      <trkpt lat="45.95246" lon="5.83931">
        <ele>255</ele>
      </trkpt>
      <trkpt lat="45.95259" lon="5.83887">
        <ele>254</ele>
      </trkpt>
      <trkpt lat="45.95279" lon="5.83837">
        <ele>254</ele>
      </trkpt>
      <trkpt lat="45.953" lon="5.83822">
        <ele>254</ele>
      </trkpt>
      <trkpt lat="45.95322" lon="5.83806">
        <ele>254</ele>
      </trkpt>
      <trkpt lat="45.95345" lon="5.83792">
        <ele>254</ele>
      </trkpt>
      <trkpt lat="45.95372" lon="5.83777">
        <ele>254</ele>
      </trkpt>
      <trkpt lat="45.9539" lon="5.83771">
        <ele>253</ele>
      </trkpt>
      <trkpt lat="45.95404" lon="5.83779">
        <ele>253</ele>
      </trkpt>
      <trkpt lat="45.95416" lon="5.83777">
        <ele>253</ele>
      </trkpt>
      <trkpt lat="45.95423" lon="5.83767">
        <ele>253</ele>
      </trkpt>
      <trkpt lat="45.95428" lon="5.83756">
        <ele>254</ele>
      </trkpt>
      <trkpt lat="45.95427" lon="5.83736">
        <ele>253</ele>
      </trkpt>
      <trkpt lat="45.95429" lon="5.83721">
        <ele>254</ele>
      </trkpt>
      <trkpt lat="45.95443" lon="5.83693">
        <ele>254</ele>
      </trkpt>
      <trkpt lat="45.95454" lon="5.83678">
        <ele>253</ele>
      </trkpt>
      <trkpt lat="45.9547" lon="5.83663">
        <ele>254</ele>
      </trkpt>
      <trkpt lat="45.9549" lon="5.83644">
        <ele>254</ele>
      </trkpt>
      <trkpt lat="45.95518" lon="5.83619">
        <ele>254</ele>
      </trkpt>
      <trkpt lat="45.95546" lon="5.83594">
        <ele>254</ele>
      </trkpt>
      <trkpt lat="45.95583" lon="5.8356">
        <ele>254</ele>
      </trkpt>
      <trkpt lat="45.95607" lon="5.83538">
        <ele>254</ele>
      </trkpt>
      <trkpt lat="45.95645" lon="5.83502">
        <ele>254</ele>
      </trkpt>
      <trkpt lat="45.95646" lon="5.835">
        <ele>254</ele>
      </trkpt>
    </trkseg>
  </trk>
</gpx>
